id,name,brewery_type,address_1,city,state_province,postal_code,country,longitude,latitude,phone,website_url,state,processed_at
d6e77d51-2fa2-44cb-89b3-c94bf1dc77df,28th State Brewing,planning,,Houston,Texas,77095-6933,United States,,,,https://www.instagram.com/28thstatebrew/?hl=en,Texas,2026-02-22 21:29:36
53305a0f-9b51-4f73-bf5e-88bb0439b216,380 Brewing Company,planning,,Clancy,Montana,59634,United States,,,2065796509,,Montana,2026-02-22 21:29:36
d4c7fb43-6671-4597-8cdd-e938d751aca2,400 North Brewing,planning,,Sugarhill,Georgia,30518-7916,United States,,,4047911119,http://400northbrewing.com,Georgia,2026-02-22 21:29:36
b7f2ebb8-6764-4654-a98b-246724c8952a,411 Broadway Ales,planning,,Fresno,California,93721-2801,United States,-119.7088613,36.7295295,5412706076,,California,2026-02-22 21:29:36
2af85509-aee5-46bc-ab1a-fd9b8b0026d4,5 Rivers Brewing LLC,planning,,Spanish Fort,Alabama,36527-3161,United States,-87.9152724,30.6749127,2516897483,http://5riversbrewing.com,Alabama,2026-02-22 21:29:36
eaf55668-8444-4e4f-80c2-b9f32f7e4d83,5th Element Brewing,planning,,Leander,Texas,78641-4009,United States,,,9156378199,,Texas,2026-02-22 21:29:36
849d5961-83c5-4115-9ae4-c0e93c8d3a7f,5x5 Brewing Co.,planning,,Mission,Texas,78572-6215,United States,,,9565291353,http://www.5x5brewing.com,Texas,2026-02-22 21:29:36
e2bb50c4-260f-4f42-8306-392f7bd5f4ba,6 & 40 Brewery/Taproom,planning,,Lakewood,Colorado,80215-5548,United States,-105.1100582,39.6311085,3032325347,http://www.tomsbrewshop.com,Colorado,2026-02-22 21:29:36
76ee21a3-d4bd-4526-9ef8-5a23a4507566,6 Bridges Brewing,planning,,Johns Creek,Georgia,30097,United States,,,7708460292,http://www.sixbridgesbrewing.com,Georgia,2026-02-22 21:29:36
1682e94f-73ba-4035-93be-1fb28bb2cee7,8th Ward Brewing Company,planning,,Poughkeepsie,New York,12603-3401,United States,,,,,New York,2026-02-22 21:29:36
42598f85-f02e-474c-9154-0aa4f1d932be,9th Hour Brewing Company LLC,planning,,Spring Grove,Illinois,60081-9459,United States,,,,,Illinois,2026-02-22 21:29:36
88a7ac77-a52b-4496-91df-b41e5831a568,A Little Madness Brewing Company,planning,,Pensacola,Florida,32514-8122,United States,,,,http://www.ALittleMadnessBrewingCompany.com,Florida,2026-02-22 21:29:36
e77c24b4-8b21-4d28-a9c0-568623b77cd9,Aero Craft Brewing,planning,,Denver,Colorado,80212-2199,United States,-104.984696,39.7391428,3039185446,http://www.aerocraft.beer,Colorado,2026-02-22 21:29:36
1844257e-dab7-421d-9a9e-f594a3943b2f,Against the Grain Beer Garden,planning,,Louisville,Kentucky,40217,United States,,,,,Kentucky,2026-02-22 21:29:36
85c7bc77-387c-449f-8091-6c694b35077c,Agonic Brewing Company LLC,planning,,Rice Lake,Wisconsin,54868-8786,United States,-91.732284415498,45.502184424793,7153089283,http://www.agonicbrewing.com,Wisconsin,2026-02-22 21:29:36
06ac0316-a30f-40c6-acb7-c08fea0c30b1,Akwesasne Mohawk Casino Resort,planning,,Akwesasne,New York,13655-1800,United States,,,5183582222,http://mohawkcasino.com,New York,2026-02-22 21:29:36
943f1201-9c0d-4717-95e3-0756a906f527,Albright Grove Brewing Company,planning,,Townsend,Tennessee,37882,United States,,,8656049898,,Tennessee,2026-02-22 21:29:36
b1f7a6c5-a4e0-477b-a380-17f8a0120e2d,"Alcazar Brewery, LLC.",planning,,Rio Grande City,Texas,78582-4450,United States,,,,,Texas,2026-02-22 21:29:36
f1e3ff3e-078c-46c3-85ae-62f86d3a3a21,Alematic Artisan Ales,planning,,Huber Heights,Ohio,45424-3857,United States,,,9376122337,http://www.alematicbrewing.com,Ohio,2026-02-22 21:29:36
a580bbc1-343c-4213-968d-6f332755f739,Ambitious Ales,planning,,Long Beach,California,90807-2907,United States,-118.1580493,33.78538945,7142962550,http://www.ambitiousales.com,California,2026-02-22 21:29:36
045441f8-1882-4960-9e4d-0a32d24625e6,Americana Brewery,planning,,Fort Lauderdale,Florida,33328-1606,United States,,,,,Florida,2026-02-22 21:29:36
bdc1beb9-2832-4c44-aa63-289726c3a13f,Anawan Brewing Company,planning,,Dighton,Massachusetts,02764,United States,,,7742296300,http://www.anawanbrewingco.com,Massachusetts,2026-02-22 21:29:36
a7e8257d-956d-46ca-81f4-33d1b6a13fc8,"Angelina Brewing Company, LLC.",planning,,Lufkin,Texas,75904-7550,United States,,,3168419327,,Texas,2026-02-22 21:29:36
236cb5e3-d827-453a-a3a4-5a4d59d87adf,Ankrolab Brewing Company,planning,,Naples,Florida,34112-6363,United States,,,2394511223,http://ankrolab.com,Florida,2026-02-22 21:29:36
61239a88-ebee-45d3-9794-12860e11259c,Aquatic Brewing LLC,planning,,Falmouth,Massachusetts,02540-3299,United States,,,5084442155,http://www.aquaticbrewing.com,Massachusetts,2026-02-22 21:29:36
e37a575c-5e11-4a2f-8e58-8fcce92e78ac,"Aransas Pass Brewing Company, LLC",planning,,Aransas Pass,Texas,78336-1920,United States,,,,,Texas,2026-02-22 21:29:36
e38d5dc2-4bf9-4627-b468-922baaa621ab,Arbeiter Brewing Company,planning,,Minneapolis,Minnesota,55418-2325,United States,,,,http://www.arbeiterbrewing.com,Minnesota,2026-02-22 21:29:36
0b0b64c0-f10c-4252-8243-e5b9255e0b95,"Ardent Spirits, Inc",planning,,Collinsville,Illinois,62234,United States,,,13143235530,http://Ardentspirits.com,Illinois,2026-02-22 21:29:36
1d34d7cf-c2ce-4e07-aec2-930d3299c584,Artisan Owl Brewing Company,planning,,Ocean City,New Jersey,08226-4237,United States,,,2157402057,,New Jersey,2026-02-22 21:29:36
4cabbfbc-d07c-40b0-b5f5-fa456c22b7a2,Assembly brewing,planning,,Portland,Oregon,97206-3739,United States,-122.6003912,45.491048,5037299080,http://www.assemblybrewingco.com,Oregon,2026-02-22 21:29:36
e49978bd-c6d2-46c6-a3a4-50964ab4f783,Astronomy Aleworks,planning,,Henderson,Nevada,89011,United States,,,7023754968,http://astronomyaleworks.com,Nevada,2026-02-22 21:29:36
f786b344-af07-4b30-a236-93a93314f9d5,At Ease Brewing,planning,,Sacramento,California,95811-3003,United States,-121.4943996,38.5815719,9167362267,http://www.ateasebrewing.com,California,2026-02-22 21:29:36
01dfa6a1-0ad4-4ac5-a184-1d6c69294460,Athletic Brewing Company,planning,,Stratford,Connecticut,06615-7167,United States,,,2032730422,http://www.AthleticBrewing.com,Connecticut,2026-02-22 21:29:36
87d71c35-9537-4ef1-b232-668bea736ffa,Attic Brewing,planning,,Philadelphia,Pennsylvania,19144-3603,United States,,,7082047376,,Pennsylvania,2026-02-22 21:29:36
b96d27cf-42b8-4791-8fb8-87840016e497,Auburn Brewing Company,planning,,Auburn,Indiana,46706,United States,,,2609081074,,Indiana,2026-02-22 21:29:36
46813d2e-b120-4f43-8957-5e8dfadc603f,Axe And Arrow Brewery,planning,,Glassboro,New Jersey,08028,United States,,,,,New Jersey,2026-02-22 21:29:36
f0ca51bb-ad85-4dca-bd03-eefeb99f1184,Backman Brewing Company,planning,,Whitehouse Station,New Jersey,08889-3562,United States,,,,http://backmanbrewing.com,New Jersey,2026-02-22 21:29:36
9618d4a8-2e33-4025-888d-ecbc0da2a8a5,BackStory Brewery,planning,,Sulphur Springs,Texas,75482-2772,United States,,,,,Texas,2026-02-22 21:29:36
80ed402e-9340-4b10-a478-3d8ed0af93b5,Bad Idea Brewing,planning,,Spring Hill,Tennessee,37174-2895,United States,,,,http://www.badideabrewing.com,Tennessee,2026-02-22 21:29:36
19de43df-8293-4823-b8aa-2dfb285924e8,Baithouse Brewery,planning,,Sandusky,Ohio,44870,United States,,,4193665372,http://www.baithousebrewery.com,Ohio,2026-02-22 21:29:36
1aefb103-ced0-49cb-96c2-b65a2222fb3d,Ballast Point Brewing Company,planning,,Chicago,Illinois,60607,United States,,,,,Illinois,2026-02-22 21:29:36
5794a61e-1fa2-45bd-b317-287ca186b919,Ballast Point Brewing Company,planning,,Anaheim,California,92802-2294,United States,-117.911732,33.8347516,,,California,2026-02-22 21:29:36
7466d420-8ee9-41b1-8794-f9618df77361,Barley Boys Brewery,planning,,Omaha,Nebraska,68144-1922,United States,,,4025986096,http://www.barleyboysbrewery.com,Nebraska,2026-02-22 21:29:36
ddc78de1-9059-45e3-9c38-65e714a96062,Barley Naked Brewing Company,planning,,Stafford,Virginia,22554,United States,,,5406234475,http://www.barleynaked.com,Virginia,2026-02-22 21:29:36
d605f25e-f132-4c42-94cb-0ec7fc4fe50c,Barrel Assembly,planning,,Austin,Texas,78751-3019,United States,,,15124236579,http://www.barrelassembly.com,Texas,2026-02-22 21:29:36
bd4c1883-0fa4-4ebf-84a5-750eeccb7546,Barrie Brewing Company,planning,,Gainesville,Florida,32607-4807,United States,,,,,Florida,2026-02-22 21:29:36
469e0667-cecc-4e07-b27c-443a187baf51,Bastet Brewing,planning,,Tampa,Florida,33613-1254,United States,,,,http://www.bastetbrewing.com,Florida,2026-02-22 21:29:36
a0fe534d-c9f1-4232-88cd-b918d16952d8,Batch Craft Beer and Kolaches,planning,,Austin,Texas,78723,United States,,,5124013025,http://www.batchatx.com,Texas,2026-02-22 21:29:36
cbe608f9-a825-478c-bdab-ef2359ab53c5,BattleHops Brewing,planning,,Katy,Texas,77494,United States,,,8323245284,http://www.battlehopsbrewing.com,Texas,2026-02-22 21:29:36
b39a23d8-56f2-48a3-b505-3f460935ec54,Bay Brewing Company,planning,,Miami,Florida,33130-3488,United States,,,18134763767,,Florida,2026-02-22 21:29:36
fa0b9910-a718-4a33-ace8-59e9def925f6,Bayonet Cider Company,planning,,Pittsburgh,Pennsylvania,15206-5111,United States,,,5134841943,,Pennsylvania,2026-02-22 21:29:36
827042d6-0920-484e-94ae-6f8ef520cd74,BeachFly Brewing Company,planning,,Indian Harbour Beach,Florida,32937,United States,,,3214124900,,Florida,2026-02-22 21:29:36
8f3af559-423d-42c8-903e-fe45750307cb,Beale St Brewing Co,planning,,Memphis,Tennessee,38104-6826,United States,,,9014917197,http://www.bealestbrewing.com,Tennessee,2026-02-22 21:29:36
09e6754a-6a78-486d-8baf-e47ea63612f7,Bear Chase Brewing Company,planning,,Bluemont,Virginia,20135,United States,,,,,Virginia,2026-02-22 21:29:36
7aa429f1-a3c8-4ff8-b2c3-18a451dee621,Beer Religion,planning,,Winter Park,Florida,32792-5111,United States,,,,,Florida,2026-02-22 21:29:36
c351a7a3-6003-4573-962c-16d51a56bd53,Belding Brewing Company,planning,,Belding,Michigan,48809-1678,United States,,,6163086285,,Michigan,2026-02-22 21:29:36
71531995-c5a9-42fc-8e1e-04b3b57f13b5,"Bengal Brewing, LLC.",planning,,Spring Lake Park,Minnesota,55432-2802,United States,,,6125188146,http://www.BengalBrewingLLC.com,Minnesota,2026-02-22 21:29:36
6c10e5ba-1ebd-47b8-a4ce-c41603a6c662,Berts Brewing Co.,planning,,Orange,California,92867-6942,United States,-117.8704931,33.7500378,2069139711,,California,2026-02-22 21:29:36
c86f788e-63b2-44e6-a469-4b2e3a04ba22,Bevel Craft Brewing,planning,,Bend,Oregon,97701-4924,United States,-121.2917516,44.04614868,8313451922,http://www.bevelbeer.com,Oregon,2026-02-22 21:29:36
97bb99d6-94da-4f54-8fe7-9d7d7f102556,Big Ash Brewing Company,planning,,Cincinnati,Ohio,45244-3244,United States,,,5133079688,http://www.BigAshBrewing.com,Ohio,2026-02-22 21:29:36
8c42a9fc-a6c9-4c26-a0d3-0bf8c94be918,Big Data Brewing Company LLC,planning,,Sterling,Virginia,20165-7227,United States,,,5713088293,http://www.bigdatabrewco.com/,Virginia,2026-02-22 21:29:36
dcc9cdb6-415f-4783-aa42-c5cfb7664dc6,Big Inlet Brewing,planning,,Mayville,New York,14757-9730,United States,,,7165737564,http://www.biginletbrewing.com,New York,2026-02-22 21:29:36
96e9ab03-28cd-4240-9ad6-5e49f716d1a0,Big Sioux Brewing Company,planning,,Humboldt,South Dakota,57035-6106,United States,,,,,South Dakota,2026-02-22 21:29:36
106a32d5-54fd-4431-8406-0803aef87605,Bingo Beer Company,planning,2900 W Broad St,Richmond,Virginia,23230,United States,,,8043975226,http://www.bingorva.com/,Virginia,2026-02-22 21:29:36
6cab717d-2883-4869-ab9a-879f09319efb,Black Beak Brewing,planning,,Denver,Colorado,80237-1907,United States,-104.984696,39.7391428,3032107836,,Colorado,2026-02-22 21:29:36
01a7842a-3139-475e-95e9-e5a671c236ef,Black Cat Brewing,planning,,Boulder,Colorado,80302,United States,-105.2705456,40.0149856,,http://www.blackcatbrewing.com,Colorado,2026-02-22 21:29:36
1fab0024-c031-450c-a1b6-48f2a0dd8e9a,Black Magic Brewing,planning,,Fountain Valley,California,92708-6431,United States,-117.9627349,33.7038145,,,California,2026-02-22 21:29:36
08bc0229-4621-4ddd-a27e-8da88d0a5800,Black Wolf Brewing LLC,planning,,Pocono Pines,Pennsylvania,18350,United States,,,,,Pennsylvania,2026-02-22 21:29:36
197c0988-b236-4432-90ad-da75db44166d,Blackhorse Brewery,planning,,Alcoa,Tennessee,37701,United States,,,,,Tennessee,2026-02-22 21:29:36
4d3d6a4a-c914-4a96-8fbc-0dbf582196d8,Blackwater Brewing Company,planning,412 Main Ave S,North Bend,Washington,98045-8117,United States,-121.787569,47.492466,4252929122,https://blackwaterbrewing.com/,Washington,2026-02-22 21:29:36
f1b9daa7-cb17-498a-b784-e2ff41b4257f,BLUE RIDGE BREWING,planning,,Malta,Montana,59538,United States,,,4066542855,,Montana,2026-02-22 21:29:36
e1312a12-35d9-4636-a80a-9f9a95463964,Blue Ridge Community College,planning,,Flat Rock,North Carolina,28731-4774,United States,,,8286941674,http://www.blueridge.edu,North Carolina,2026-02-22 21:29:36
c3d86c65-615c-4d13-9c5d-9f4bc7b5ee64,Blue Zone Brewing Co.,planning,,Saint George,Utah,84790-5716,United States,,,4353135050,,Utah,2026-02-22 21:29:36
0c7d6d42-ad91-4e1c-8556-c1c1ac8617ae,"Bnaf, LLC",planning,,Austin,Texas,78727-7602,United States,,,,,Texas,2026-02-22 21:29:36
941a14d9-f881-4f74-992c-75ab08d5837e,Bob Loblaw Brewing,planning,,Miami,Florida,33179,United States,,,3052495628,http://www.bobloblawbrewing.com,Florida,2026-02-22 21:29:36
5ae387ac-2a8a-4710-81e8-5df49d0c01c5,Bomb Plant Brewing Company,planning,,North Augusta,South Carolina,29860-7462,United States,,,7068042722,http://www.bombplantbrewing.com,South Carolina,2026-02-22 21:29:36
2efab57a-8614-428d-a5e2-a6a528dd6cac,"Bookhouse Brewing, LLC.",planning,,Cleveland,Ohio,44113-3104,United States,,,4144264555,http://www.bookhouse.beer,Ohio,2026-02-22 21:29:36
be59a906-5104-4365-ac07-d9dd7f25f9ae,Box Office Brewery,planning,,Strasburg,Virginia,22657-2238,United States,,,5402333353,http://Info@boxofficebrewery.com,Virginia,2026-02-22 21:29:36
8d5538db-870e-486b-8e03-8c607c38ae18,Braeloch Brewing Company,planning,,Kennett Square,Pennsylvania,19348-3605,United States,,,3026056473,,Pennsylvania,2026-02-22 21:29:36
fb57bce5-e778-441a-bb33-335fda062351,Branagan's Brewery LLC,planning,,Sandy,Utah,84092-3902,United States,,,8018086491,http://www.branagansbrewery.com,Utah,2026-02-22 21:29:36
b5afc4b3-221a-49d5-8e55-c6a374ea45d2,Braselton Brewing Company,planning,,Braselton,Georgia,30517,United States,,,7068701458,,Georgia,2026-02-22 21:29:36
887aaeec-884a-4a60-986a-daf4333cca08,Brasserie L'Etrange,planning,,Prairieville,Louisiana,70769-6114,United States,,,2258002337,,Louisiana,2026-02-22 21:29:36
83ff5520-de51-442e-87d8-6921ba2dcf0a,Braven Brewing Company,planning,,Brooklyn,New York,11237,United States,,,9292956673,,New York,2026-02-22 21:29:36
58d96e3e-6dae-4fae-a383-1a0c2c2edbf1,Bremen Beer Ventures,planning,,Key Biscayne,Florida,33149-7213,United States,,,3059036996,,Florida,2026-02-22 21:29:36
3c666d47-78ff-4e4c-a1f0-c5a9aeb9ad9c,Brewers,planning,,Charlotte,North Carolina,28217,United States,,,,,North Carolina,2026-02-22 21:29:36
e0bf1313-ecf0-45c9-8b70-8ed121ec6a27,Brewery Faisan,planning,,Detroit,Michigan,48207,United States,,,5867032030,http://www.breweryfaisan.com,Michigan,2026-02-22 21:29:36
cdc4b4be-ac3e-4ee8-8d93-87e0d8f14f0c,Brewery Resolute,planning,,Stevens Point,Wisconsin,54481-1843,United States,,,7153214617,,Wisconsin,2026-02-22 21:29:36
4f9d7195-bc11-44ce-bf57-e95f243a7675,Brewheim Brewing Company,planning,,Anaheim,California,92806,United States,-117.911732,33.8347516,,http://www.brewheim.com,California,2026-02-22 21:29:36
4012cd29-7e59-4c75-98ba-89ff53efe702,Brewing Academy Of Montana At FVCC,planning,,Kalispell,Montana,59901,United States,,,4067564359,http://www.fvcc.edu,Montana,2026-02-22 21:29:36
970a920a-26a9-468b-b229-7f8c803f1a9f,Brewjeria Company,planning,,Hacienda Heights,California,91745-1620,United States,-117.9686755,33.9930677,,http://www.brewjeriacompany.com,California,2026-02-22 21:29:36
91edce96-9b05-47fb-b160-efa8f5dfd2c2,"BrewPlan, Inc.",planning,,Onalaska,Wisconsin,54650,United States,,,6083869430,http://www.brewplan.com,Wisconsin,2026-02-22 21:29:36
241eadea-4c86-420f-9ce9-76eb2beed93c,Brewpub In Planning - Birmingham,planning,,Birmingham,Alabama,35222,United States,-86.8024326,33.5206824,2565854531,,Alabama,2026-02-22 21:29:36
34110279-e23c-4e08-b7b1-79da0196ee17,Brighter Day's Brewing Company,planning,,New Port Richey,Florida,34655-3717,United States,,,7272242027,http://www.brighterdaysbeer.com,Florida,2026-02-22 21:29:36
f4daf3e7-c246-47ec-9d2b-6fd01519d8ac,Broad Leaf Farm Brewery,planning,,South Glastonbury,Connecticut,06073-2017,United States,,,2158057228,,Connecticut,2026-02-22 21:29:36
b8852f37-7df8-49d3-aac5-2ef793e589bf,Broken Coat Brewing,planning,,Lake Worth,Florida,33467-1002,United States,,,,,Florida,2026-02-22 21:29:36
6f687fce-bdae-4938-8ad5-3615520d9664,Brubaker's Brewery & Pub,planning,,Sylvania,Ohio,43560-9586,United States,,,,,Ohio,2026-02-22 21:29:36
e869121f-a5be-4382-8243-8a51ab8af429,Buchanan Craft LLC,planning,,Chicago,Illinois,60647-9735,United States,,,6307722199,,Illinois,2026-02-22 21:29:36
80a6159f-2196-4c18-bfdb-4fc34a723524,Buck Bald Brewing Corporation,planning,,Blue Ridge,Georgia,30513,United States,,,7703169971,http://www.buckbaldbrewing.com,Georgia,2026-02-22 21:29:36
28001115-35a0-41eb-93f3-c5f2de448461,Buffalo Brewing Co,planning,790 Hop Rd,Toppenish,Washington,98948-9674,United States,-120.1634675,46.23727233,,,Washington,2026-02-22 21:29:36
89c19afc-7874-4372-8edf-1e86f9e0fe90,Buffalo Theory Brewing Co. LLC,planning,,Merritt Island,Florida,32953-3222,United States,,,,http://www.Buffalotheorybrewingco.com,Florida,2026-02-22 21:29:36
7a574a98-f92d-4d8e-9cdb-20a3facda0a0,Buried Acorn Brewing Company,planning,,Syracuse,New York,13204-1156,United States,,,3155521499,http://www.buriedacorn.com,New York,2026-02-22 21:29:36
d6ca5aa0-a5de-454f-8cf6-66b68310f73f,Burnin Daylight Brewing Company,planning,,Lomita,California,90717,United States,-118.3195014,33.8036545,3107417621,,California,2026-02-22 21:29:36
46cf9ab8-ae15-4f2f-9ad6-50b200e8ba94,Burning Bush Brewery,planning,,Wilmette,Illinois,60091-2703,United States,,,,,Illinois,2026-02-22 21:29:36
8475bb73-3d83-4191-9b9f-ecd918b1ec0f,Burns Family Artisan Ales,planning,,Denver,Colorado,80219-1655,United States,,,2482242697,,Colorado,2026-02-22 21:29:36
47b3c151-04cb-47bb-8b74-f46bd3ee1fc3,"BW Farm, LLC",planning,,Owings,Maryland,20736-9109,United States,,,2406727995,,Maryland,2026-02-22 21:29:36
24ed88ac-5267-4d15-be7a-c6fa35befd1f,Byers Brewing Company,planning,,DeKalb,Illinois,60115-4661,United States,,,8159705318,,Illinois,2026-02-22 21:29:36
bcea0930-14a2-4b22-898c-729ea6abe693,California Cider Co.,planning,,Sebastopol,California,95472,United States,-122.8332502,38.3845125,7078291101,http://www.acecider.com,California,2026-02-22 21:29:36
33615ed7-57bb-4d02-84d6-d24e02a6cf1f,Can Of Worms Brewing,planning,,Glendale,California,91214-1713,United States,-118.2462486,34.192912,8187975520,http://www.canofwormsbrewing.com,California,2026-02-22 21:29:36
8aeaf9bc-b9a0-4278-ad0a-bf13f936269e,Canyon Club Brewery,planning,,Moraga,California,94556,United States,-122.12883,37.834897,8087992005,http://www.canyonclub.works,California,2026-02-22 21:29:36
7e1b62e7-054d-4dc9-8359-da4c874cc154,Cape Ann Lanes,planning,,Gloucester,Massachusetts,01930-2256,United States,,,9788799714,,Massachusetts,2026-02-22 21:29:36
0ea0d27c-ea9a-4f75-91c2-4009c12b6c45,Carbon Brewing Company,planning,,Brazil,Indiana,47834-7046,United States,,,,http://www.carbonbrewing.com,Indiana,2026-02-22 21:29:36
a38bc569-6c71-4356-8456-e3a7bf13eab9,Casa Vieja LLC,planning,,Corrales,New Mexico,87048-8616,United States,,,5052691919,http://www.casaviejaevents.com,New Mexico,2026-02-22 21:29:36
51b16993-d99b-4a27-8e00-b9af14c372fa,Castle Church Brewing Community,planning,,Kissimmee,Florida,34744-3990,United States,,,,http://www.castlechurchbrewing.com,Florida,2026-02-22 21:29:36
efecf28c-1f97-43b4-b283-11b8ad902d42,Cedar Point Brewery,planning,,Scituate,Massachusetts,02066-1317,United States,,,7818311724,,Massachusetts,2026-02-22 21:29:36
1faa8def-e465-4b92-b77c-e9da87845ff7,Cedar Run Brewery,planning,,Nokesville,Virginia,20181-2506,United States,,,7032032641,,Virginia,2026-02-22 21:29:36
b77f57dd-6d85-4cf1-a1ee-bf44e3ef7935,Center Pivot,planning,,Quinter,Kansas,67752,United States,,,7857548344,,Kansas,2026-02-22 21:29:36
542588a9-82dd-4f6f-a72c-53363d4ae57d,Center Street Brewing Company,planning,,Wallingford,Connecticut,06492,United States,,,,http://n/a,Connecticut,2026-02-22 21:29:36
979f53b8-e18d-45d6-a893-bd7f3419f803,Cervecentro,planning,,Miami,Florida,33181-3404,United States,,,3055171656,http://www.cervecentro.com.ve,Florida,2026-02-22 21:29:36
7d199c4a-13fd-4568-825f-73c2b6722bb8,Cerveza Guajira,planning,,Miami,Florida,33137,United States,,,3056005692,,Florida,2026-02-22 21:29:36
84bda627-35de-4adc-89a8-d55ea166b330,Chapman's Brewing Company,planning,,Wabash,Indiana,46992-3131,United States,,,,http://www.chapmansbrewing.com,Indiana,2026-02-22 21:29:36
e59e1145-0db1-4918-bf40-860407a2ca11,Cheshmeh Brewing Co,planning,,White Plains,New York,10605-3517,United States,,,,,New York,2026-02-22 21:29:36
0e0f9002-fe65-4484-a951-03045a1e08b1,CHILLAX Brewing Company LLC,planning,,Milford,Michigan,48381-2243,United States,,,2483883458,,Michigan,2026-02-22 21:29:36
028c442f-1eaa-45b0-b4be-3871ed49f217,Cigar City Airport Location,planning,,Tampa,Florida,33607,United States,,,,,Florida,2026-02-22 21:29:36
c4cefd05-1142-4287-9509-e6e7bbeb61b9,Civilian Brewing Corps,planning,,Bloomington,Indiana,47403-9658,United States,,,,,Indiana,2026-02-22 21:29:36
84229303-605d-4216-be85-cd5ad19ccb91,Clermont Brewing Company,planning,,Clermont,Florida,34711-2108,United States,,,,,Florida,2026-02-22 21:29:36
03c5e7d6-e98d-481f-ad60-64d363f20446,Climber Nine Brewing,planning,,Cameron Park,California,95682-8975,United States,-120.9851442,38.68200185,,,California,2026-02-22 21:29:36
e55521d5-aded-4bd6-9bed-072d74a2f8c8,CNB Brewpub,planning,,Sarasota,Florida,34242-3811,United States,,,9418096760,,Florida,2026-02-22 21:29:36
1d3693d3-b9ef-48b5-b76d-4464725c6064,Coastal Bend Brewing,planning,,Corpus Christi,Texas,78418-6697,United States,,,5126901050,http://www.coastalbendbrewing.com,Texas,2026-02-22 21:29:36
5b5da0b9-7219-4bcf-a841-ceb5388ef7da,Coastal Star Brewing Company,planning,,Santa Maria,California,93455-1722,United States,-120.4358577,34.9531295,8053284677,http://www.coastalstarbrewing.com,California,2026-02-22 21:29:36
c0a80da7-b2b4-4376-824f-dc3e33180948,Coda Brewing Company,planning,,Golden,Colorado,80401,United States,,,3038956475,http://codabrewing.com,Colorado,2026-02-22 21:29:36
cd33914f-7327-49ec-b05e-9ca93e0d709b,Coles Road Brewing,planning,,Cromwell,Connecticut,06416-1113,United States,,,,http://ColesRoadBrewing.com,Connecticut,2026-02-22 21:29:36
ee97bdcf-d7b4-48f3-82a1-7983a370b7b1,Collection Brewing Company,planning,,Raleigh,North Carolina,27614-8519,United States,,,,,North Carolina,2026-02-22 21:29:36
e099a46e-0e6a-4b90-9f77-432fd55ef3f6,College Point Brewery,planning,,College Point,New York,11356-2715,United States,,,,,New York,2026-02-22 21:29:36
64dc6a70-6169-4a42-9102-c6abf362bb9c,Colludium Brewery,planning,,Hattiesburg,Mississippi,39401,United States,,,6015202789,http://www.colludiumbrewery.com,Mississippi,2026-02-22 21:29:36
ea4549e2-a9e1-42db-a431-2e6299712c50,Common John Brewing Co,planning,,Manchester,Tennessee,37355-6064,United States,,,9314090630,http://www.commonjohnbc.com,Tennessee,2026-02-22 21:29:36
5eaaf2e2-d018-49d9-96fb-b9792b7f0576,Compadre Brewing,planning,,Aound Rock,Texas,78660,United States,,,3615103472,http://www.compadrebrewing.com,Texas,2026-02-22 21:29:36
4ee8dcea-2193-4a19-bd89-15e6e5591ca4,Conflux Brewing,planning,,Missoula,Montana,59802-4418,United States,,,,,Montana,2026-02-22 21:29:36
9df45ed5-3546-43e7-a1dd-3311c0c1176b,Converge Brewing Company,planning,,Paso Robles,California,93446-8360,United States,-120.6912456,35.6267654,3076908538,,California,2026-02-22 21:29:36
c8a69d07-794b-45fc-8269-14cafaadde50,Cooling Pond Brewery,planning,,Mineral,Virginia,23117,United States,,,5409055430,,Virginia,2026-02-22 21:29:36
c1a44969-f495-4182-9ae1-0736234cbdb7,Cotee River Brewing Company,planning,,New Port Richey,Florida,34652,United States,,,,http://www.coteeriverbrewing.com,Florida,2026-02-22 21:29:36
0a7c8d20-eaa1-4141-8edf-bb597c195aa5,Country Town Farm Brewery,planning,,Friendship,New York,14739,United States,,,5858088995,,New York,2026-02-22 21:29:36
7a0c3abf-985d-4803-abdb-bc6130e9328a,Cowtown Brewing Company,planning,,Fort Worth,Texas,76102-2408,United States,,,,http://www.cowtownbrewco.com,Texas,2026-02-22 21:29:36
e2c9b160-77d6-428d-ae99-4351cb2b3405,Craftwerk Orange Brewing Company,planning,,West Orange,New Jersey,07052-2513,United States,,,2012482021,http://www.craftwerkorange.com,New Jersey,2026-02-22 21:29:36
e176038a-98ce-45f7-844a-e3489e34dbb1,Creatures Of Habit Brewing Co,planning,,Anderson,Indiana,46016-1749,United States,,,7654000116,http://facebook.com/CreaturesBrew/,Indiana,2026-02-22 21:29:36
21cd8238-f678-4a95-9cf3-75b34f58d7fa,Creek Bottom Brew LLC,planning,,Oldenburg,Indiana,47036-9765,United States,,,8122124817,http://www.creekbottombrew.com,Indiana,2026-02-22 21:29:36
ba9ac1f0-2b7d-4cc2-ab55-9eaa479fee80,Crooked Pecker Brewing,planning,,Newbury,Ohio,44065-9735,United States,,,4404763427,,Ohio,2026-02-22 21:29:36
e57a94bd-f81c-409c-992d-6a093856121c,Crowing Hen,planning,,Carlton,Oregon,97111-9668,United States,-123.0986999,45.29153898,5038520037,,Oregon,2026-02-22 21:29:36
5036c9a3-e210-4fa0-8a95-0a9bb054bcc0,"D. MANATEE HOLDINGS, LLC",planning,,Miami,Florida,33131-1210,United States,,,,http://www.tiliaventure.com,Florida,2026-02-22 21:29:36
ad4d68e3-5b1d-4255-aa5d-a7a90685bba7,"DAMARKOM, INC.",planning,,Seaside,Oregon,97138-5803,United States,-123.915501,46.00331776,,,Oregon,2026-02-22 21:29:36
96602876-0631-4e93-ae60-25bfaac0a6ae,Dangerous Minds Brewing Co,planning,,Pompano Beach,Florida,33062,United States,,,9549181698,https://dangerousmindsbrewing.com/,Florida,2026-02-22 21:29:36
9011ccfc-f054-47f3-9cdd-b52191746738,Dark Nebula Brewing  Co,planning,612 Tenney Mountain Highway,Plymouth,New Hampshire,03264,United States,,,6033694211,https://www.darknebulabrewing.com/,New Hampshire,2026-02-22 21:29:36
eca31bef-2859-48a2-b933-bb9908a600f5,Dark Sea Cinema And Brewery,planning,,Oakland,California,94609-1804,United States,-122.2713563,37.8044557,,http://microcinemabrewery.com,California,2026-02-22 21:29:36
fd74cc7b-1172-4664-9166-e9a7788d84c2,Daugherty Brewing Company,planning,,Erie,Pennsylvania,16510-3680,United States,,,,http://www.daughertybrewingcompany.com,Pennsylvania,2026-02-22 21:29:36
77fbe71c-77bd-4ace-99d6-e519f1f84f03,Dauntless Brewing Company,planning,,Farmers Branch,Texas,75234-2334,United States,,,9035213472,,Texas,2026-02-22 21:29:36
7324090e-aaf4-4a30-8370-e8eb664445d0,Dead Low Brewing,planning,,Cincinnati,Ohio,45230,United States,,,5132909434,http://www.deadlowbrewing.com,Ohio,2026-02-22 21:29:36
532b0c2e-6f35-448e-8f77-2e4042be5e9b,"Deanitude Brewing Company, LLC",planning,,Dallas,Texas,75225-0734,United States,,,2143600004,http://www.deanitudebrewing.com,Texas,2026-02-22 21:29:36
26540a50-0fa6-4fcc-85e0-5079d118c6ee,Deep Roots Brewing,planning,,Phoenix,Arizona,85007-3115,United States,-112.0773456,33.4485866,6023306790,http://www.deeprootsbrewing.com,Arizona,2026-02-22 21:29:36
a3f25ad0-001b-4e6b-8dd3-cbcbd0962654,Dees Brothers Brewery,planning,,Orlando,Florida,32807-1633,United States,,,4072575104,http://www.deesbrosbrew.com,Florida,2026-02-22 21:29:36
e272df56-966d-4587-8e7c-46adda39ccba,Delta Sunshine Brewing Company,planning,,Memphis,Tennessee,38120-8859,United States,,,9016748330,,Tennessee,2026-02-22 21:29:36
72d8f50e-0dff-46ec-9251-e79c917786b2,Dented Face Brewing Company,planning,,Delta,Colorado,81416,United States,,,,,Colorado,2026-02-22 21:29:36
f6253cbe-624f-4eb4-8aa5-5e6e0eca41ae,Desert Monks Brewing Co.,planning,,Gilbert,Arizona,85296-3480,United States,-111.7890239,33.3528259,4805257444,https://www.desertmonksbrewing.com/,Arizona,2026-02-22 21:29:36
1da0090d-b471-4667-b4e5-e440f35ac023,Devil's Potion Brewing Company LLC,planning,,Escondido,California,92026-3187,United States,-117.0814849,33.1216751,7605329091,http://www.devilspotion.com,California,2026-02-22 21:29:36
b7f79d7b-c8c8-45de-bbe0-2764c8be72d2,Devout Brewing,planning,,Export,Pennsylvania,15632,United States,,,,http://www.devoutbrewingco.com,Pennsylvania,2026-02-22 21:29:36
b5449cda-10d5-4356-a60e-aca42e338b18,Dirt Road Brewing,planning,1301 Main St,Philomath,Oregon,97370,United States,-123.3677101,44.54045973,5419297818,http://dirtroadbrewing.com,Oregon,2026-02-22 21:29:36
57b8c4a5-0975-4916-ab6b-661e85a1fe4c,Distraction Brewing Company,planning,,Roslindale,Massachusetts,02131-3006,United States,,,,http://www.distractionbrewingco.com,Massachusetts,2026-02-22 21:29:36
5235f708-e30a-49ae-8681-0ff7167c8e76,Dock Street Brewing Co,planning,,Philadelphia,Pennsylvania,19146,United States,,,,,Pennsylvania,2026-02-22 21:29:36
7f4c815f-5a2f-4e29-adc0-88bcec5acac4,Dockside Waterfront Biergarten and Brewery,planning,,Milford,Connecticut,06460,United States,,,,,Connecticut,2026-02-22 21:29:36
87250580-6954-4d75-972d-75f7759fefc0,Dodgeton Creek Brewing Co.,planning,,Trinidad,Colorado,81082-9788,United States,-104.5005411,37.169397,7198462339,http://www.dodgetoncreek.com,Colorado,2026-02-22 21:29:36
bf311f48-d8a7-46f6-aa24-cdffee1423d0,Donavon Brewing Company,planning,,Arvada,Colorado,80005-3644,United States,,,3039975920,http://www.donavonbrewing.com,Colorado,2026-02-22 21:29:36
fe0fd454-10bb-437c-912c-3fd5d416e7db,Dr Hops Kombucha Beer,planning,,San Leandro,California,94577-1263,United States,-122.1560768,37.7249296,3109168090,http://www.DrhopsKombuchaBeer.com,California,2026-02-22 21:29:36
9429d00b-cdaf-46a0-8073-362cc90aad08,Dragon Run Brewing,planning,,Manquin,Virginia,23106,United States,,,8043800730,http://www.dragonrunbrewing.com,Virginia,2026-02-22 21:29:36
7b2f69d5-fc55-4ff2-9df1-b53ace7bc173,Dratz Brewing Company,planning,,Loveland,Colorado,80537,United States,,,9705660036,http://www.dratzbrewing.com,Colorado,2026-02-22 21:29:36
f6f59f19-f861-42de-9367-023645506733,Draughtsman Brewery,planning,,La Mirada,California,90638-3454,United States,-118.0107092,33.9060971,,,California,2026-02-22 21:29:36
cf3a71af-2553-4f3f-887b-acbe0d34ea2d,Dueling Dogs Brewing Company,planning,,Lincoln,California,95648-8503,United States,-121.29318,38.8915741,9164348141,http://www.duelingdogsbrewing.com,California,2026-02-22 21:29:36
10e6848c-4cbb-4d37-b56e-7bddea848778,Dunedin Brewery Production Facility,planning,,Dunedin,Florida,34698-5061,United States,,,,,Florida,2026-02-22 21:29:36
8870078b-8ebf-4c47-9ae5-1db667dc247d,Dynasty Brewing Company,planning,,Ashburn,Virginia,20147,United States,,,7037279229,http://www.dynastybrewing.com,Virginia,2026-02-22 21:29:36
c5659ccf-a0c9-42a8-9a1e-e5d99b73c9f0,East Fifth Brewing Company,planning,,Manasquan,New Jersey,08736-1814,United States,,,,,New Jersey,2026-02-22 21:29:36
08ecfcf4-428f-4e1d-8dd5-3436d8e7c9b7,East Rock Brewing Company,planning,,New Haven,Connecticut,06511-2625,United States,,,2035303484,http://www.eastrockbeer.com,Connecticut,2026-02-22 21:29:36
08cc0e41-1349-4d06-9fa6-33291a745d60,Eclipse Craft Brewing,planning,,Sunbury,Pennsylvania,17801-5337,United States,,,,http://curtisbenner@hotmail.com,Pennsylvania,2026-02-22 21:29:36
84e0a77b-3442-442d-a275-8f8135620905,Edelbrau Brewing Company,planning,,Ann Arbor,Michigan,48108-3393,United States,,,7347075184,http://www.edelbrau.com,Michigan,2026-02-22 21:29:36
0c4225cc-f91e-4955-a19c-07d6e43b9849,Eight Rivers Brewery,planning,,Hillsboro,West Virginia,24946-0039,United States,,,2022513083,,West Virginia,2026-02-22 21:29:36
614ec534-b889-4b25-8381-a57cac69c029,Elation Brewing,planning,,Norfolk,Virginia,23508,United States,,,7574696020,,Virginia,2026-02-22 21:29:36
d94af8d2-575b-4a3d-859f-725985d59a36,Elst Brewing Company,planning,,Knoxville,Tennessee,37921-5188,United States,,,8658099618,http://www.elst.beer,Tennessee,2026-02-22 21:29:36
e4e51dc8-6d71-4ccd-85e4-4cad72d1b5df,Empire City Beer Company,planning,,New York,New York,10012,United States,,,9178040571,http://www.hitemhard.com,New York,2026-02-22 21:29:36
a9090cf0-65c9-4c4b-985b-0d8692dae5ac,Endless Pint Brewing,planning,,Versailles,Ohio,45380,United States,,,4197338806,http://www.endlesspintbrewing.com,Ohio,2026-02-22 21:29:36
5b2d36b5-9994-421e-bd81-f9bca58a9216,Etowah Brewery,planning,,Dahlonega,Georgia,30533,United States,,,6785707349,,Georgia,2026-02-22 21:29:36
0186da1a-a5c4-4076-8a33-25ee193a65a4,Farm Road Brewery,planning,,Arlington,Vermont,05250-8766,United States,,,,,Vermont,2026-02-22 21:29:36
ab98a927-af49-4318-928d-0bb98651f45d,Farmers Brewing Co,planning,,Princeton,California,95970-9519,United States,-122.009975,39.4032192,5306246053,http://www.farmersbrewing.com,California,2026-02-22 21:29:36
6b709f6c-f30d-44bd-843e-3dd0a99fb05d,Faults Brewing,planning,,Anchorage,Alaska,99509-0312,United States,-149.8948523,61.2163129,9073019922,,Alaska,2026-02-22 21:29:36
cdbeb166-5eaf-4a66-9ca5-1cf6b55df680,Fawken Beer Company,planning,,Columbia,Tennessee,38401-2030,United States,,,6156636116,,Tennessee,2026-02-22 21:29:36
400d6684-fd2d-4a17-9745-ccfb28a2a871,Fayetteville Brewing Company,planning,,Fayetteville,Arkansas,72704-7402,United States,-94.1574328,36.0625843,4792631905,http://www.fayettebrew.com,Arkansas,2026-02-22 21:29:36
502b4291-c1be-403f-aeb4-0e5434def665,Feathered Serpent Brewery,planning,,San Dimas,California,91773-1477,United States,-117.8067257,34.1066756,3237079238,,California,2026-02-22 21:29:36
18fa7337-3df9-4a49-902d-3983251d6058,Feed Store Beer Co,planning,,Bloomfield,Indiana,47424-1137,United States,,,8123814343,http://www.feedstorebeer.com,Indiana,2026-02-22 21:29:36
d919af32-ba3f-4594-844a-dadcdd0a1cf5,FH Beerworks East,planning,,Colorado Springs,Colorado,80915,United States,,,7196406814,,Colorado,2026-02-22 21:29:36
1c37475d-7010-4392-9edf-c566bc7fc5c1,Field Brewing,planning,,Westfield,Indiana,46074-9494,United States,,,3174300253,http://www.fieldbrewing.com,Indiana,2026-02-22 21:29:36
5871b814-9d72-47ba-9733-82f43d0b79d9,Fields & Ivy Brewery,planning,,Olathe,Kansas,66061-7464,United States,,,9136710349,,Kansas,2026-02-22 21:29:36
c3a96041-0f74-4538-9daf-a8eb7594fd5f,Fife Lake Brewery,planning,,Fife Lake,Michigan,49633-9319,United States,,,2313926757,,Michigan,2026-02-22 21:29:36
5a19b678-db5b-4fe3-939f-73345b04b3a4,Fifth Year Brewery,planning,,West Haven,Connecticut,06516-7515,United States,,,,,Connecticut,2026-02-22 21:29:36
7bb60663-b700-4b29-80fd-f196f5c33c9d,Final Gravity Brewing Company,planning,,Decatur,Michigan,49045-1118,United States,,,,http://www.finalgravitybrew.com,Michigan,2026-02-22 21:29:36
4909cd1a-bb81-4e07-86e9-2737ab02fd6a,Firewater Brewing Company,planning,,Kennesaw,Georgia,30144,United States,,,,,Georgia,2026-02-22 21:29:36
5a4a3717-4640-405b-90d7-47a69be1c8e4,First State Brewing Company,planning,,Middletown,Delaware,19709-1482,United States,,,3022859535,http://www.firststatebrewing.com,Delaware,2026-02-22 21:29:36
277143dd-a012-4650-9ab5-603a9b5afe5c,Flying Machine Brewing Company,planning,,Wilmington,North Carolina,28403,United States,,,,http://www.facebook.com/flyingmachinebrewing,North Carolina,2026-02-22 21:29:36
5714fc64-53b8-45a0-98a6-c93575828a92,Flying Rhino Brewing Company,planning,,Houston,Texas,77077-6108,United States,,,8326510114,http://flyingrhinobrewing.com/,Texas,2026-02-22 21:29:36
a33083eb-89f0-465e-979f-4990cccb47dd,Folsom Brewery,planning,,Folsom,Louisiana,70437-,United States,,,9853737631,,Louisiana,2026-02-22 21:29:36
1cfa05f2-9520-4707-9716-496749ddfd67,Forgotten Road Ales,planning,,Graham,North Carolina,27253,United States,,,4342031993,,North Carolina,2026-02-22 21:29:36
d5e69bc8-cc56-4de7-8fdc-ee092c3f8ff1,Four Beasts Brewery,planning,,Brooklyn,New York,11215-2305,United States,,,3478863834,,New York,2026-02-22 21:29:36
7bf1aca7-78cb-4592-95b8-adb77d5ead26,"Franklin Brewing Company, LLC",planning,,Angier,North Carolina,27501-6094,United States,,,,http://www.franklin-brewing.com,North Carolina,2026-02-22 21:29:36
012747c9-0ef8-43d7-90fe-ea4242805b7a,Frisky Brewing Company,planning,,Odessa,Texas,79765,United States,,,,http://www.friskybrewing.com,Texas,2026-02-22 21:29:36
e4edfb7b-9143-4e6e-a866-bb2ecde062c9,"G. Mansfield, Inc",planning,,Greensboro,North Carolina,27403-2744,United States,,,3363370757,,North Carolina,2026-02-22 21:29:36
01b395ba-7b97-4214-a98c-365ad281d9dd,"G8 Development, Inc.",planning,,San Diego,California,92109-2802,United States,-117.1627714,32.7174209,6198233402,,California,2026-02-22 21:29:36
fd8c337d-7335-4ad5-b8b6-add0fba3cbf2,Game Bag Brewing,planning,,Belgrade,Montana,59714-8809,United States,,,5092208584,,Montana,2026-02-22 21:29:36
25128237-16d0-4273-91fd-c3a7cf09f4d3,Garland City Beer Works,planning,,Watertown,New York,13601-2423,United States,,,3157832577,http://www.garlandcitybeerworks.com,New York,2026-02-22 21:29:36
6df5e59d-5473-4a83-a577-c5bcb385c045,George Ringler & Company,planning,,Danville,Indiana,46122-1623,United States,,,3176268353,,Indiana,2026-02-22 21:29:36
509592b2-00bc-4210-b57d-35fcd2447e53,Georgia Beer Co,planning,,Valdosta,Georgia,31601-9017,United States,,,9123995883,http://www.georgiabeerco.com,Georgia,2026-02-22 21:29:36
aada6ced-9b6b-42ea-8de5-86957754813c,Geronimo Brewing Inc,planning,,Doylestown,Pennsylvania,18901,United States,,,,http://www.geronimobrewing.com,Pennsylvania,2026-02-22 21:29:36
537b5242-7341-43e4-bab7-5a31b4b2ee23,Ghost Isle Brewing Company,planning,,New Buffalo,Michigan,49117,United States,,,2195611219,,Michigan,2026-02-22 21:29:36
9a1e91cf-70a9-4262-99ba-d3fdca9ba42d,GILD BREWING,planning,,Missoula,Montana,59801-2734,United States,,,,,Montana,2026-02-22 21:29:36
44ed4be7-68d3-4f49-a8b0-5deca09e43fe,Gladiator Brewing Co.,planning,,Clarksville,Tennessee,37040,United States,,,9137497035,,Tennessee,2026-02-22 21:29:36
f7e064d7-a23d-4078-85a4-5407d2ce4909,Globier,planning,,San Diego,California,92117-1604,United States,-117.1627714,32.7174209,7757623818,http://www.drinkglobier.com,California,2026-02-22 21:29:36
f84b8f31-6675-40c6-bb28-3ed87861ae7e,Gloucester Brewing Company,planning,,Gloucester,Virginia,23061,United States,,,,,Virginia,2026-02-22 21:29:36
748e5fbd-c51a-4dfb-8862-089ac305832b,Glover Park Brewery,planning,,Marietta,Georgia,30060,United States,,,,,Georgia,2026-02-22 21:29:36
553e835b-4c41-4d59-954d-25f773afcf80,Goat Creek Brewing,planning,,Northampton,Massachusetts,01062-1326,United States,,,,,Massachusetts,2026-02-22 21:29:36
a92d1f36-efdc-49eb-bde8-a2435cb4ab08,Golden Road Brewing Co,planning,,Sacramento,California,95811,United States,-121.4943996,38.5815719,9163829445,,California,2026-02-22 21:29:36
81a767f3-9342-4102-84b9-ffcb09726574,Good Earth Brewing,planning,,Terrebonne,Oregon,97760-9709,United States,,,5598609998,http://www.goodearthbrewing.com,Oregon,2026-02-22 21:29:36
c77a6112-2b38-4e69-ae8e-53077c8f2307,"Goose And The Monkey Brew House, LLC",planning,,Lexington,North Carolina,27292,United States,,,3362405310,http://www.gooseandthemonkeybrewhouse.com,North Carolina,2026-02-22 21:29:36
cbbf76ad-da0e-49b4-935f-6589eba11b2d,Gotahold Brewing Company,planning,,Eureka Springs,Arkansas,72632,United States,-93.7392419,36.4000796,8023569163,,Arkansas,2026-02-22 21:29:36
4ea74fb1-ba73-4a89-948a-20c2cabc86f0,Grain Theory Brewing Company,planning,,Abilene,Texas,79601,United States,,,2142260915,http://www.graintheorybrewing.com,Texas,2026-02-22 21:29:36
edc4a449-22c1-46c0-a70a-31b347140ed6,Grand River Brewery,planning,,Marshall,Michigan,49068-1521,United States,,,,,Michigan,2026-02-22 21:29:36
686f9013-ad05-449b-bf35-b76061c96c52,Granite City Food & Brewery,planning,200 American Way,Oxon Hill,Maryland,20745-4502,United States,-77.0145878,38.7841102,2404933900,,Maryland,2026-02-22 21:29:36
3eb5427c-533e-4d66-acd1-3f5643020f35,Gravity Ales LLC,planning,,Swarthmore,Pennsylvania,19081-1421,United States,,,6105472235,http://gravityales.com,Pennsylvania,2026-02-22 21:29:36
c5317022-24b2-4730-bca5-2c72d7f68e0b,Great Change Brewing,planning,,Bakersfield,California,93313,United States,-119.0194639,35.3738712,6195170736,http://www.greatchangebrewing.com,California,2026-02-22 21:29:36
76e7738e-61bf-472b-8e97-44c5b2f5d2af,Green Gecko Brewing Co - St. Croix USVI,planning,,North Conway,New Hampshire,03860-3190,United States,,,6038606608,,New Hampshire,2026-02-22 21:29:36
2b05e2fe-cb8a-49c2-ae69-f15c1491a469,Grey Tower Brewing,planning,,Ashburn,Virginia,20147-5433,United States,,,7032093107,,Virginia,2026-02-22 21:29:36
252407ae-97a3-4204-a988-911047cd8b28,Greywolf Brewing,planning,,Riverside,California,92508-9793,United States,-117.3961623,33.9533546,,http://www.greywolfbrewing.com,California,2026-02-22 21:29:36
ef0ff365-cdb8-4c4f-b424-081d4a338781,Griffin Owens Insurance Group,planning,,Herndon,Virginia,20170-4609,United States,,,7034710050,http://www.griffinowens.com,Virginia,2026-02-22 21:29:36
89594197-5fd6-4032-842f-429832a52034,GRITS Brewing,planning,,Chamblee,Georgia,30341-2024,United States,,,,,Georgia,2026-02-22 21:29:36
e5bd0c69-0309-4696-a031-221df1d49d29,GroundLion Brewing,planning,,Seagrove,North Carolina,27341-0459,United States,,,9192705112,http://www.groundlionbrewing.com,North Carolina,2026-02-22 21:29:36
8be0f9a4-7c89-4122-ba92-90591ed4aef7,Guanacaste Brewing LLC,planning,,Lorton,Virginia,22079,United States,,,7038537687,http://www.guanacastebrewingllc.com,Virginia,2026-02-22 21:29:36
c67959ff-a884-4d4a-be84-a194b410b969,Guardian Brewing Company,planning,,Saugatuck,Michigan,49453,United States,,,8125213611,http://www.guardianbrewingco.com,Michigan,2026-02-22 21:29:36
893c746b-cc59-44c0-8da1-6239d57a3825,Guggman Haus Brewing Co.,planning,,Indianapolis,Indiana,46202-2158,United States,,,8122302554,http://www.guggmanhausbrewing.com,Indiana,2026-02-22 21:29:36
b096f2f3-c941-418e-9011-f613fecdcd1a,Gulf Stream Brewing,planning,,Fort Lauderdale,Florida,33304-1802,United States,,,9547664842,http://www.gulfstreambeer.com,Florida,2026-02-22 21:29:36
c2c62d00-922c-41be-b603-b3acb04373ee,Gypsy Brewing Company,planning,,Huntingtown,Maryland,20639,United States,-76.5871928,38.6039255,,,Maryland,2026-02-22 21:29:36
ddfb8618-9884-481c-af46-9db75920906f,H2OPS LLC,planning,,Anaheim,California,92808-1225,United States,-117.911732,33.8347516,7143924414,http://www.h2ops.com,California,2026-02-22 21:29:36
f98dd11d-f3ca-4bb4-bc2e-e9deb27de42d,Hackensack Brewing Company,planning,,Hackensack,New Jersey,07601-4824,United States,,,,,New Jersey,2026-02-22 21:29:36
99379a99-f52f-4a6a-b966-073e30fa8c1b,"Hairy Cow Brewing Co, LLC",planning,,Byron,Illinois,61010,United States,,,8152432866,http://www.hairycowbrewing.com,Illinois,2026-02-22 21:29:36
ac43837a-d009-4df2-9984-6c536e85fe93,Hammer & Nail Brewing,planning,,Trumbull,Connecticut,06611-4975,United States,,,2032404987,http://www.HammerNailBrewing.com,Connecticut,2026-02-22 21:29:36
50adab67-c5bf-4be0-8116-e7311e7864d4,Happy Hippie Brewing Company,planning,,Richardson,Texas,75080,United States,,,2146167681,http://www.happyhippiebeer.com,Texas,2026-02-22 21:29:36
2d6f4446-21f5-4453-ac5b-84e228dff82c,Happy Trails Brewing Company,planning,,Sparta,Tennessee,38583-5577,United States,,,9312678027,http://www.happytrailsbrewingco.com,Tennessee,2026-02-22 21:29:36
1710a317-a662-45f5-9162-f7f3c8a16015,Harbinger Beer Company LLC,planning,111 Buffalo St,Caddo,Oklahoma,74729-2606,United States,-96.2601872,34.1253524,5803809398,http://harbingerbeer.com,Oklahoma,2026-02-22 21:29:36
24f4fa84-91d9-4cde-8e37-5cb430753f29,Harding House Brewing Company,planning,,Nashville,Tennessee,37209,United States,,,3034089405,http://www.hardinghousebrew.com,Tennessee,2026-02-22 21:29:36
99e8f097-0412-43ec-849e-e95add4bd3c2,Hatchet Brewing Company,planning,,Southern Pines,North Carolina,28387-6164,United States,,,5715334898,http://www.hatchetbrewing.com,North Carolina,2026-02-22 21:29:36
ba11eb1c-3f66-4ac2-8d49-27b7abab4b49,Hawk Moth Brewing Co,planning,,rogers,Arkansas,72756,United States,-94.1185366,36.3320197,4796164800,,Arkansas,2026-02-22 21:29:36
52bfedca-f266-4c5f-9272-9cba60de9587,Hazelwood Brewing Company,planning,,Lexington,South Carolina,29072,United States,,,8034765845,http://Hazelwoodbeer.com,South Carolina,2026-02-22 21:29:36
94082cc5-8049-40e5-990f-bb1173c26140,Hell or High Water Brewing,planning,,Leander,Texas,78641-8882,United States,,,5129636701,,Texas,2026-02-22 21:29:36
6f7ef002-6068-45c7-ad3a-4a4f5a142461,Henderson Brewing Company,planning,,Henderson,Kentucky,42420-3226,United States,,,2702004314,,Kentucky,2026-02-22 21:29:36
95cdaefc-6cdd-4352-a998-b987adb7897c,"Herrmann Brewthers, LLC",planning,,Fishers,Indiana,46038-2313,United States,,,3179641390,,Indiana,2026-02-22 21:29:36
a55e613d-e948-47ec-a5d7-a789d015c50b,Hidden Stories Brewing Company,planning,,Millerstown,Pennsylvania,17062-8474,United States,,,6465524847,,Pennsylvania,2026-02-22 21:29:36
d4a8d201-e4ce-4f5e-ad83-b3f3d43cf5dd,High Ground Brewery,planning,,Saint Francisville,Louisiana,70775-2431,United States,,,2254457436,,Louisiana,2026-02-22 21:29:36
f4b55ae0-6552-4653-8d62-1c2cf7ebe4dd,High Speed Low Drag Brewing LLC,planning,,Alexandria,Virginia,22307-2001,United States,,,7756849197,http://www.kirklippold.com,Virginia,2026-02-22 21:29:36
8da17028-fe8b-4ff9-98e5-6b57ec7f3335,Hill Country Farm Brewery,planning,,Jamesville,New York,13078-9637,United States,,,3157667885,http://Hillcountryfarmbrewery.com,New York,2026-02-22 21:29:36
794c27df-4aeb-4106-a0d2-cbda9e15adac,Hillsborough Farm Brewery / Hillsborough Vineyards,planning,,Purcellville,Virginia,20132,United States,,,,,Virginia,2026-02-22 21:29:36
92a64c1e-ceea-48a8-8d68-5cf039b64cb0,"HistoryQuest, LLC",planning,,Morristown,New Jersey,07960-5298,United States,,,,,New Jersey,2026-02-22 21:29:36
71ac4b9f-1452-42e4-957d-c0075671f9ac,Hodad's Brewing Company,planning,,San Diego,California,92123,United States,-117.1627714,32.7174209,8582782770,,California,2026-02-22 21:29:36
f902bfca-fb32-4581-8b09-f3fb80ea731c,Hofbrauhaus Buffalo,planning,,Buffalo,New York,14221-4616,United States,,,7165631781,http://www.facebook.com/Hofbrauhaus-Buffalo-476335022466386/,New York,2026-02-22 21:29:36
8844a2f6-bf55-4d74-b7a6-efad8f6d7e0c,Holidaily Production Facility,planning,,Golden,Colorado,80403,United States,,,,,Colorado,2026-02-22 21:29:36
d249f969-0851-4831-9ae9-b7bbb8849da7,Home Brewing Co Of Pennsylvania,planning,,Conneaut Lake,Pennsylvania,16316,United States,,,4128603015,,Pennsylvania,2026-02-22 21:29:36
3f1aea69-e48b-4325-a181-43f69c6987e6,Honeymoon Brewery,planning,,Santa Fe,New Mexico,87501,United States,,,5059208379,http://www.honeymoonbrewery.com,New Mexico,2026-02-22 21:29:36
ff207d8f-3e3f-4e00-b29e-316b89314d2c,"Hop Head Farms Brewing, LLC",planning,,Baroda,Michigan,49101-9351,United States,,,,,Michigan,2026-02-22 21:29:36
6c7c38ab-4ed5-4939-8506-36b430a24df5,Hop Quest Brewing Company,planning,,Wheatfield,Indiana,46392,United States,,,2198636393,,Indiana,2026-02-22 21:29:36
393fa5cb-5e38-4984-b411-f76bc6865356,Hop Soul Brewery,planning,,Brunswick,Georgia,31520,United States,,,,http://www.hopsoulbrewery.com,Georgia,2026-02-22 21:29:36
d357d621-bbbc-4007-a5a3-b9bf6fb5f176,Hopped And Brewed,planning,,Austin,Texas,78681-7333,United States,,,5129225879,http://Hoppedandbrewed@gmail.com,Texas,2026-02-22 21:29:36
2f0b4ff8-1d26-4449-b278-e34df9e7aecb,Hops and Pops,planning,,Middleburg,Virginia,20117,United States,,,5406876539,,Virginia,2026-02-22 21:29:36
efd73076-9808-46b8-8a58-c490fca726df,"Hops, Bitters, And Mash",planning,,Allen Park,Michigan,48101-2539,United States,,,,,Michigan,2026-02-22 21:29:36
fb1c69b9-977d-4797-919c-e0358fb6bde4,Housatonic River Brewing,planning,,New Milford,Connecticut,06776-3404,United States,,,8609460266,http://www.housatonicriverbrewing.com,Connecticut,2026-02-22 21:29:36
bfa37b0d-5331-41c2-979b-ac68cfb07eeb,House 6 Brewing,planning,,Ashburn,Virginia,20147,United States,,,5855205710,http://www.house6brewing.com,Virginia,2026-02-22 21:29:36
24a24d6f-2fcc-46a3-85c6-96f2ef234307,"HRG Management, LLC",planning,,Hartford,Connecticut,06109,United States,,,,,Connecticut,2026-02-22 21:29:36
784d9af0-defa-4322-8121-cd8fe6ae7e19,Humboldt Springs Brewing Co,planning,,Eureka,California,95501,United States,-124.1636729,40.8020712,7074993050,,California,2026-02-22 21:29:36
2db716e2-28fb-4db3-95de-11a5d86a29d6,Hunyuck Brew Co.,planning,,Oakdale,Minnesota,55128-2276,United States,,,6514915066,http://www.hunyuckbrewco.com,Minnesota,2026-02-22 21:29:36
8dd50f12-b4db-4fc1-865a-345be886c67f,HWY 50 Brewery,planning,,Camino,California,95709,United States,-120.6749302,38.7382366,,http://www.hwy50brewery.com,California,2026-02-22 21:29:36
0f79930c-9395-4d3d-9611-a9b9f16c759a,Icebox Brewing LLC,planning,,Las Cruces,New Mexico,88007-4722,United States,,,5755267129,,New Mexico,2026-02-22 21:29:36
6edb4abe-eb25-493c-a514-519cce61a91b,IDK Beer Co,planning,,Lakewood,Colorado,80228-4251,United States,,,,,Colorado,2026-02-22 21:29:36
c6e87f2a-227c-4549-ab73-aafcb5fd1fef,ILL STYLEZ BREWING,planning,,Freeport,Illinois,61032-4761,United States,,,,,Illinois,2026-02-22 21:29:36
507ef015-aa10-4ec9-9f8a-0889e1bb3c9e,Immortal Brewing Company,planning,,Las Vegas,Nevada,89183-5893,United States,,,,http://www.immortalbrewco.com,Nevada,2026-02-22 21:29:36
1cf4be70-96b7-4c19-962a-917e758a2343,Imperium Brewing,planning,,Hickory,Pennsylvania,15340-1135,United States,,,4129991077,http://imperiumbrewing.com,Pennsylvania,2026-02-22 21:29:36
ef7d4225-1ebe-40a3-86d8-9cc79a1fc609,In the Woods Brewing and Spirits,planning,,Groveton,New Hampshire,03582,United States,,,,,New Hampshire,2026-02-22 21:29:36
5d027860-dc1f-407a-9d80-b887f6ec3b84,Incendiary Brewing Company,planning,,Winston Salem,North Carolina,27101,United States,,,3369999999,http://www.incendiarybrewing.com,North Carolina,2026-02-22 21:29:36
391b3231-8293-4030-a8ff-d0c2a2af6e0e,Incline Brewing,planning,,Larkspur,Colorado,80118-8721,United States,,,,,Colorado,2026-02-22 21:29:36
dc0256fa-9a1f-4758-a2c0-73175c17ae2d,Industry Brewery,planning,,Houston,Texas,77024-7146,United States,,,7138514130,,Texas,2026-02-22 21:29:36
220200a7-c8b3-481a-8c60-ede62fe291c0,"Intervention Brewing Company, LLC",planning,,Irving,Texas,75061-8826,United States,,,2147633070,,Texas,2026-02-22 21:29:36
f2d17fb9-2f1a-4654-88fc-105fa0600df3,Invictus Brewing Co,planning,,Blaine,Minnesota,55449,United States,,,6127234090,http://www.InvictusBrewingCo.com,Minnesota,2026-02-22 21:29:36
6b3c07c8-8505-440f-b7f8-bcfc389525ad,Iron Beard Brewing,planning,,Jersey City,New Jersey,07302-7433,United States,,,,,New Jersey,2026-02-22 21:29:36
7e10797c-320d-4fdf-940b-09550b0e8fc3,Ironwood Creek,planning,,Evans,Georgia,30809-8239,United States,,,,,Georgia,2026-02-22 21:29:36
35a9e0b9-bd35-45a5-9c18-d393d24e1998,Ivory Tower Brewery,planning,,Boone,North Carolina,28608-0001,United States,,,8282627847,http://ivorytowerscience.com,North Carolina,2026-02-22 21:29:36
246a9990-7ca0-46ff-b735-a564fabaf8eb,Jamestown Brewing Company,planning,,Jamestown,New York,14701-5110,United States,,,7168644257,,New York,2026-02-22 21:29:36
f60db593-2715-41e9-aa05-b8089f996e74,JGR Enterprises Inc,planning,,Omaha,Nebraska,68135-6215,United States,,,4028610174,,Nebraska,2026-02-22 21:29:36
e8c066e0-5d8a-485c-bedc-3ddd80d0129f,"Jigsaw Brewing, LLC",planning,,High Point,North Carolina,27260-5056,United States,,,,http://www.jigsawbrewing.com,North Carolina,2026-02-22 21:29:36
3a4dc5bd-ac82-444f-8869-cc2d8c38a41c,John Scott Brewing Co.,planning,,Trabuco Canyon,California,92679-5145,United States,-117.58938,33.6626232,7144702055,,California,2026-02-22 21:29:36
1b96abd4-d03f-4727-bc2b-686272e2b3ec,"Jovial Foods, Inc.",planning,,North Stonington,Connecticut,06359-1713,United States,,,8605350494,http://www.jovialfoods.com,Connecticut,2026-02-22 21:29:36
3c9cd3a2-f0b0-4a59-8a34-95f6c83fd1f1,Jurnee Brewing Company,planning,,Chantilly,Virginia,20152-2075,United States,,,,http://www.jurneebeers.com,Virginia,2026-02-22 21:29:36
6224f405-e903-4a89-96f7-c6d6e874eb56,Kanook Beer Company,planning,,Golden,Colorado,80403-2674,United States,,,3036188362,http://www.kanookbeer.com,Colorado,2026-02-22 21:29:36
0e970da0-ccda-4d50-a8bf-4e84181cc790,Kastaway Brewing Co,planning,,Katy,Texas,77493,United States,,,,,Texas,2026-02-22 21:29:36
4abee17c-99ad-42b6-ab38-348e1ec56c19,Keen Brewing,planning,,Jacksonville,Florida,32204-1806,United States,,,9044698266,,Florida,2026-02-22 21:29:36
e421437b-f78e-463b-8e75-760210be1021,Kensington Barrel Project,planning,,Philadelphia,Pennsylvania,19134,United States,,,16199488705,http://www.kensingtonbarrelproject.com,Pennsylvania,2026-02-22 21:29:36
cc49edfb-728e-44ad-a34b-187460ce8b1b,King Fox Brewery,planning,,Hialeah,Florida,33014-5231,United States,,,,,Florida,2026-02-22 21:29:36
9f58f6bd-ef5d-4581-9df7-c13fe9ff2018,Kings River Brewing Company,planning,,Clovis,California,93612-2825,United States,-119.7029194,36.8252277,5599060615,http://www.kingsriverbrewing.com,California,2026-02-22 21:29:36
97ece97b-b919-46b3-a063-cc5bbae50787,Kingston Standard Brewing Co.,planning,,Kingston,New York,12401,United States,,,,http://www.kingstonstandard.com,New York,2026-02-22 21:29:36
c343a4f2-8c31-4424-8ac6-ae514fe7f64e,Kismet Brewing Company,planning,,Westfield,Massachusetts,01085,United States,,,9789957711,http://www.kismetbrewing.com,Massachusetts,2026-02-22 21:29:36
de4d69d9-27e6-412f-8fd1-d32a1e05b4cc,Klaus Brewing Company,planning,,Houston,Texas,77065,United States,,,7134985004,http://www.klausbrewing.com,Texas,2026-02-22 21:29:36
cda79fca-998b-47aa-8659-d64f4e1ae6a1,Knox County Brewing Co.,planning,,Galesburg,Illinois,61401,United States,,,5126528793,http://www.knoxcobrewco.com,Illinois,2026-02-22 21:29:36
937fd8a2-c9ca-4112-b9c3-09586ea57408,KNURD Brewing Co,planning,,Oakmont,Pennsylvania,15139-2171,United States,,,3045509439,http://www.knurdbrewing.com,Pennsylvania,2026-02-22 21:29:36
b02f6b59-3f96-4f2b-a415-78047088d7f1,Krikelkay Brewing Company,planning,,Appomattox,Virginia,24522-4034,United States,,,4344263419,http://www.krikelkaybrewing.com,Virginia,2026-02-22 21:29:36
f5d6d218-1a4e-4c29-a0d9-76f79cbbf5a7,"Krogh's Brewing, LLC",planning,,Newton,New Jersey,07860-2349,United States,,,9732415391,http://www.kroghs.com,New Jersey,2026-02-22 21:29:36
a8506d30-21bf-4a06-929e-e12ca46e7a2c,LA Bodega Brewing Co,planning,,Whittier,California,90603-1207,United States,-118.0336975,33.9748932,,http://LABODEGABREWINGCO.COM,California,2026-02-22 21:29:36
5770e017-bc96-414f-9b13-58f94246266c,La Dona Cerveceria,planning,,Minneapolis,Minnesota,55405,United States,,,,http://www.dameladona.com,Minnesota,2026-02-22 21:29:36
9b2e8e78-6823-416c-8c7d-6a4dfd12ac0a,La Funke Brewing,planning,,Bulverde,Texas,78163-4156,United States,,,2104602083,http://www.lafunke.com,Texas,2026-02-22 21:29:36
09e6cf26-a3e1-40b1-8af2-72532439fdb2,Ladd & Lass Brewing,planning,722 NE 45th St,Seattle,Washington,98105,United States,-122.3197369,47.66164527,,http://www.laddandlassbrewing.com,Washington,2026-02-22 21:29:36
00745d83-0317-4c50-bb86-df7f6a98220b,Lake of the Woods Brewing Company,planning,,Williams,Minnesota,56686-4652,United States,,,8074682337,,Minnesota,2026-02-22 21:29:36
4d099da0-bbe4-4a93-8d4f-f9e2cc12653a,Lake St Brewing,planning,,Oak Park,Illinois,60302-1355,United States,,,7732512125,,Illinois,2026-02-22 21:29:36
1405d04f-3c3d-4c07-8fae-d7a9e7187c09,Land Run Craft Brewing Co.,planning,,El Reno,Oklahoma,73036-1019,United States,,,4056267176,,Oklahoma,2026-02-22 21:29:36
dcc25aca-8440-4542-a8b4-120d13f83527,Lawless Brewing,planning,,Los Angeles,California,90068-1436,United States,-118.2427669,34.0536834,8184567345,http://www.lawlessbeer.com,California,2026-02-22 21:29:36
6b105e5d-a0d6-4368-8766-5d1cc4bee458,LazyG Brewhouse,planning,,Prescott,Arizona,86303-4270,United States,-112.469518,34.5402813,4806951218,,Arizona,2026-02-22 21:29:36
7e2593a2-8276-4e06-84e5-e2e0869fbebc,Leaf & Hive,planning,,Santa Fe,New Mexico,87507-6203,United States,,,6024481294,http://www.leafandhive.com,New Mexico,2026-02-22 21:29:36
4f134c49-b755-42d5-ab99-0f091ee345d9,Lebanon Valley Craft Brewery,planning,,Lebanon,Pennsylvania,17046,United States,,,5134048600,,Pennsylvania,2026-02-22 21:29:36
aeb83fab-b449-41c6-aed0-a84b0f9abaac,Legacy Ale Works,planning,,Jacksonville,Florida,32258,United States,,,9043253195,http://www.legacyaleworks.com,Florida,2026-02-22 21:29:36
0c64f81d-9404-443f-83d4-8aa79babb415,Levitate,planning,,Mount Victory,Ohio,43340-8908,United States,,,3133849757,,Ohio,2026-02-22 21:29:36
c3a1c1a9-40ef-48d9-b003-01e68ec6e471,Lewistown Brewing Co,planning,,Lewistown,Montana,59457-8659,United States,,,4063500170,,Montana,2026-02-22 21:29:36
4af0aeca-09f1-423a-9492-cd0b0851255b,Liability Brewing Co.,planning,,Greenville,South Carolina,29609-5559,United States,,,,http://www.liabilitybrewing.co,South Carolina,2026-02-22 21:29:36
a1488112-9955-4caa-ba96-70c984ffbeb3,Limestone Creek Brewing Company,planning,,Manlius,New York,13104,United States,,,,,New York,2026-02-22 21:29:36
392b01d7-c957-4c47-ae57-24e179a809b7,Limitless Brewing,planning,,Lenexa,Kansas,66215-1260,United States,,,,http://www.limitlessbrewing.com,Kansas,2026-02-22 21:29:36
f467f19b-7b0e-4c26-8fce-ccd561324c0e,Lincoln and South Brewing Co.,planning,,Hilton Head Island,South Carolina,29928,United States,,,8434222847,http://www.lincolnandsouth.com,South Carolina,2026-02-22 21:29:36
25d09c9b-2aad-4f30-94ca-8d84ffddd93b,Lincoln Avenue Brewery,planning,,Pittsburgh,Pennsylvania,15202,United States,,,4124274078,,Pennsylvania,2026-02-22 21:29:36
a789a199-43c9-4863-91c0-02c51550397d,Lincoln Hill Farm,planning,,Canandaigua,New York,14424-8826,United States,,,5857529466,http://www.fingerlakingood.farm,New York,2026-02-22 21:29:36
cc7202c8-310e-4f38-962f-4eeff8179b56,Lindgren Craft Brewery,planning,,Duncannon,Pennsylvania,17020,United States,,,7175147884,,Pennsylvania,2026-02-22 21:29:36
e58c2377-08e3-44e0-828c-1fb5ac0535c0,Links Brewing Company,planning,,Pittsburgh,Pennsylvania,15212,United States,,,4123239774,,Pennsylvania,2026-02-22 21:29:36
e7b3d1f4-c290-4c1c-b430-16e3b9876122,Liter House,planning,,Indianapolis,Indiana,46220,United States,,,3176940580,,Indiana,2026-02-22 21:29:36
7cb2e78f-4ddc-4557-bc84-bda74063c090,Little Giant Brewery,planning,,Bradenton,Florida,34208-1139,United States,,,9419626650,,Florida,2026-02-22 21:29:36
249d0a17-9cc1-4d49-be20-89d4e33763da,Little House Brewing Company,planning,,Chester,Connecticut,06412-1342,United States,,,6128105315,http://www.littlehousebrewing.com,Connecticut,2026-02-22 21:29:36
53178b0b-00c3-463b-9423-25fe3cb223b1,Little Red Barn Brewing,planning,,Winsted,Connecticut,06098-1410,United States,,,8603873536,http://LRBbrewers.com,Connecticut,2026-02-22 21:29:36
2688cb2b-a937-42d7-a49f-3e1894a66021,Little Thistle Brewing,planning,,Rochester,Minnesota,55901,United States,,,5073584647,http://www.littlethistlebeer.com,Minnesota,2026-02-22 21:29:36
d790ba65-3bbe-453f-adaf-f5e2e2e21cc6,Little Vixen Brewing,planning,,Las Vegas,Nevada,89138-6120,United States,,,7759975936,,Nevada,2026-02-22 21:29:36
88c88a7e-8760-4d5f-9884-778aeba32e76,Littleton Brewing Company,planning,1201 W Littleton Blvd,Littleton,Colorado,80120,United States,-105.0021299,39.6135479,,https://www.littletonbrewco.com/,Colorado,2026-02-22 21:29:36
e5a8a40f-7285-4ab4-83d5-d0e4ceb39b3f,"Local Group Brewing Company, LLC.",planning,,Houston,Texas,77008-6844,United States,,,,,Texas,2026-02-22 21:29:36
b744848c-8e41-40f1-9ecb-e46ff290466c,Lock 15 Brewing Co,planning,,Akron,Ohio,44304-1035,United States,,,,http://www.lock15brewing.com,Ohio,2026-02-22 21:29:36
6b9b74b4-828f-488b-b860-06aa988d03e7,LogOff Brewing LLC,planning,,Carmichael,California,95608-5615,United States,-121.3222422,38.62709845,9165416677,,California,2026-02-22 21:29:36
83184b61-ebc9-46b8-903d-6516e9a63046,Long Branch Brewery,planning,,Long Branch,New Jersey,07740,United States,,,7325013025,,New Jersey,2026-02-22 21:29:36
d3b2774a-1d25-40a3-ba24-1bcecab3681e,Long Way Brewing,planning,,Radford,Virginia,24141-1403,United States,,,,,Virginia,2026-02-22 21:29:36
90b0b966-bd3e-4c8d-b0b2-4d4c6c4355ca,Loose Ends Brewing Company,planning,,Knoxville,Tennessee,37938-2162,United States,,,9372860803,,Tennessee,2026-02-22 21:29:36
1d44b1c0-1095-4636-bcd2-447a57ee658d,Lost Viking Brewing Company,planning,,Harwinton,Connecticut,06013,United States,,,2035256196,http://www.lostvikingbrew.com,Connecticut,2026-02-22 21:29:36
330d1efa-586a-43dd-ad93-613326719806,Lot 713 Craft Brewery,planning,,Riverside,California,92506-3208,United States,-117.3961623,33.9533546,,http://www.lot713.com,California,2026-02-22 21:29:36
54a64949-a029-4330-89ea-bf17eb7561bb,Loud Brewing Company,planning,,Duncannon,Pennsylvania,17020-1201,United States,,,7173190021,,Pennsylvania,2026-02-22 21:29:36
6f8be6c1-a236-4fce-931a-7011b0815372,"Louisa Brewing, LLC",planning,,Louisa,Virginia,23093-5715,United States,,,5409674873,http://www.louisabrewing.com,Virginia,2026-02-22 21:29:36
97782b4a-4cfc-4168-8f18-48ed9c10abf5,Lucky City Brewing Co.,planning,,Reidsville,North Carolina,27320-3810,United States,,,3364716758,http://www.luckycitybrewing.com,North Carolina,2026-02-22 21:29:36
c0e603fa-36fa-48e5-80fa-1008ba0af69e,Lucky Pigeon Brewing,planning,,Gorham,Maine,04038-2371,United States,,,,,Maine,2026-02-22 21:29:36
59736f54-303c-49d8-9daf-8080d3cff2ae,Lyons Den Brewing Co.,planning,,Wrentham,Massachusetts,02093,United States,,,,,Massachusetts,2026-02-22 21:29:36
7a9b2fa2-8e51-4a5c-98c0-a09d99303f39,MachineHead Brewing Co.,planning,,Clovis,California,93612,United States,-119.7029194,36.8252277,,,California,2026-02-22 21:29:36
f01c6462-20da-4cb6-ac2b-40996eb27016,Makers Craft Brewery,planning,,Norfolk,Virginia,23504-1905,United States,,,7576249024,http://www.makers.beer,Virginia,2026-02-22 21:29:36
90b5b8ad-037c-4372-96f4-5566dec973a2,Mallory Brewing,planning,,Houston,Texas,77018,United States,,,,https://www.facebook.com/profile.php?id=100063450295613,Texas,2026-02-22 21:29:36
7d87f747-3b19-4648-9f34-6c0f2ff07b34,Mandatory Fun Brewing,planning,,Marietta,Georgia,30064,United States,,,9517955337,http://www.vikingalchemist.com,Georgia,2026-02-22 21:29:36
d140a6a7-8618-4302-b7ca-d55880904a84,Maple Branch Craft Brewery,planning,,Fort Worth,Texas,76133-1226,United States,,,3149108854,https://www.maplebranchbrew.com/,Texas,2026-02-22 21:29:36
efb2d5d8-8c2c-4e53-adec-156c22f79eed,March Hare Brewing,planning,,Parker,Colorado,80134-3627,United States,,,3039606020,,Colorado,2026-02-22 21:29:36
e5f2a11d-9da7-40ad-b4c1-7ec2da6c7083,Mascher Brewing Co.,planning,,Aurora,Colorado,80014-8226,United States,,,8329482020,http://www.mascher.beer/,Colorado,2026-02-22 21:29:36
10dcbe08-3216-43ef-bddc-1a5235bf68f1,Maverick Ales & Lager,planning,,Chicago,Illinois,60612,United States,,,4086051508,http://www.maverickbrews.com,Illinois,2026-02-22 21:29:36
76768b9c-de50-4f63-a69a-2188a21fda51,McFleshman's Public House,planning,,Appleton,Wisconsin,54911-5840,United States,,,4056270167,http://www.mcfleshmans.com,Wisconsin,2026-02-22 21:29:36
2b9e1914-2432-418d-972d-78ccdff2072b,McHenry Brewing Company,planning,,McHenry,Illinois,60050,United States,,,8154032212,,Illinois,2026-02-22 21:29:36
d1ae1dec-b5f2-493d-bfc0-409d8d4f3101,McIntyre Brewing Company,planning,,Hermitage,Tennessee,37076,United States,,,4065291183,http://www.mcintyrebrew.com,Tennessee,2026-02-22 21:29:36
6896acbe-391c-4267-bcd0-4e1e9765ad39,"McOva Craft Beer Works, LLC",planning,,Castle Rock,Colorado,80104,United States,,,3035215027,,Colorado,2026-02-22 21:29:36
04ca6748-c9f5-4f3f-976f-ea9453c1b073,Mechanistic Brewing,planning,,Clarion,Pennsylvania,16214-2018,United States,,,,,Pennsylvania,2026-02-22 21:29:36
201479a3-680e-4f64-b6f4-ac8c81a4cc58,Memphis Filling Station,planning,,Memphis,Tennessee,38112-4938,United States,,,9014978109,http://www.memphisfillingstation.com,Tennessee,2026-02-22 21:29:36
53b5289a-b220-4c1a-8fe4-4d509fe6577d,Middle James Brewing Company,planning,,Pineville,North Carolina,28134,United States,,,,,North Carolina,2026-02-22 21:29:36
18bd0fc9-899e-4da7-a920-bfd640ba9081,Midriver Brewery,planning,,Cold Spring,New York,10516,United States,,,9146611790,,New York,2026-02-22 21:29:36
86f16af9-997d-47ee-adc8-fad50f57473d,Midwest Hop Producers LLC,planning,,Plattsmouth,Nebraska,68048-7233,United States,,,4022960633,http://www.midwesthopproducers.com,Nebraska,2026-02-22 21:29:36
cd685064-02d7-4276-b41c-363af29e81f2,Mine Shaft Brewing,planning,,Park City,Utah,84098-6724,United States,,,,http://www.mineshaftbrewingpc.com,Utah,2026-02-22 21:29:36
4552be6f-35d3-4cd5-b4ba-fde9785eb275,Misconduct Brewing,planning,,Carmel,Indiana,46033-9414,United States,,,,,Indiana,2026-02-22 21:29:36
9b62df32-e3f8-4f7e-a346-f5530a533a57,Missing Falls Brewery,planning,,Akron,Ohio,44311-1079,United States,,,3308086097,,Ohio,2026-02-22 21:29:36
c516f2aa-753b-484a-abb9-91312929211d,Mocama Brewing Company,planning,,Fernandina Beach,Florida,32034,United States,,,7062022077,http://www.mocama.com,Florida,2026-02-22 21:29:36
0203914c-a149-405a-8138-084ec3e5c1e4,Modern Romance Brewery,planning,,Durham,North Carolina,27703-5133,United States,,,9192594469,http://www.drinkmodern.com,North Carolina,2026-02-22 21:29:36
f663c1cc-0fca-4d22-9d98-5e36d10e9cb4,Monkey Wrench Brewing Company LLC,planning,,Snellville,Georgia,30078-6503,United States,,,6785212142,http://www.monkeywrenchbrewing.com,Georgia,2026-02-22 21:29:36
f92345b4-2f02-4cb6-b66f-66c1c460ac2a,Montclair Brewery,planning,,Montclair,New Jersey,07042-4038,United States,,,9737807513,http://www.montclairbrewery.com,New Jersey,2026-02-22 21:29:36
6b1fba4c-e5ae-4ffa-80d0-a4a2d0079ec8,Moriches Field Brewing Company,planning,,Center Moriches,New York,11934-2600,United States,,,6314495310,,New York,2026-02-22 21:29:36
37c52935-6621-428b-b1ee-fc8856b6dc1c,Mosaic Brewing,planning,,Lancaster,Ohio,43130-4308,United States,,,6149402500,http://www.double.edge.beer,Ohio,2026-02-22 21:29:36
ce476ba7-dc6c-4fae-a6b1-1b4a2a48fa96,Motobrewer,planning,,San Francisco,California,94112-1330,United States,-122.4192363,37.7792808,,http://www.motobrewer.com,California,2026-02-22 21:29:36
6941d5e5-667a-44ef-908e-ef167f9119eb,"Nacogdoches Brewing Company, Inc.",planning,,Nacogdoches,Texas,75964-8327,United States,,,9365604532,,Texas,2026-02-22 21:29:36
ccdbc69e-ab8d-4133-9897-7728cb066c4b,National Beer Museum Development Group,planning,,Pittsburgh,Pennsylvania,15212,United States,,,4123983236,http://www.BrewMuseum.com,Pennsylvania,2026-02-22 21:29:36
6c4dc675-17ad-4f13-afd5-d69438a709d8,NAZZ'D Brew Works and Pub,planning,,Pittsboro,North Carolina,27312,United States,,,9196042081,http://www.nazzdbrew.com,North Carolina,2026-02-22 21:29:36
05ce38c8-0c0b-4c51-93dc-ae5f5e98a625,Nevadan Brewing Company,planning,,Las Vegas,Nevada,89139-5939,United States,,,7028455768,http://nevadanbrewing.com,Nevada,2026-02-22 21:29:36
e316621b-7562-49c0-9f76-37a3af389eb8,New Barons Brewing Cooperative,planning,,Milwaukee,Wisconsin,53202-2821,United States,,,3147050016,http://www.newbaronsbrewing.com,Wisconsin,2026-02-22 21:29:36
93a19d3e-c4cf-480d-83da-74c6e41d07c7,New Belgium - The Woods At The Source,planning,,Denver,Colorado,80216-5021,United States,,,,http://www.newbelgium.com/Brewery/TheWoods,Colorado,2026-02-22 21:29:36
d550e8d8-a356-4188-bf71-8febfcb326f9,New Bremen Brewing Company,planning,,New Bremen,Ohio,45869-1328,United States,,,,http://www.gongoozlersbeer.com,Ohio,2026-02-22 21:29:36
c0b2baea-ccb7-4bd2-8793-9e2691a9a6ad,New Holland Brewing,planning,,Battle Creek,Michigan,49017,United States,,,,,Michigan,2026-02-22 21:29:36
bd61da27-2aa3-411f-aeff-6d141479c847,New Mexico State University Department Of Chemical,planning,,Las Cruces,New Mexico,88003,United States,,,5756461213,http://chme.nmsu.edu,New Mexico,2026-02-22 21:29:36
b2080e4b-22ae-4a79-b04c-933448cb98dc,New Realm Brewing,planning,,Virginia Beach,Virginia,23454,United States,,,,,Virginia,2026-02-22 21:29:36
285b5827-7b82-428b-856c-f12e3756c663,New Realm Brewing,planning,,Charlotte,North Carolina,28203,United States,,,,,North Carolina,2026-02-22 21:29:36
62dc4ca3-d24f-4ee5-bf94-f5517066bc30,Next Chapter Brewpub,planning,,Auburn,New York,13021-4620,United States,,,,http://www.nextchapterbrewpub.com,New York,2026-02-22 21:29:36
bae199e6-4672-41d7-9c0c-c3ecc42033da,North Fork Brewing Company,planning,,Riverhead,New York,11901-4615,United States,,,,,New York,2026-02-22 21:29:36
6873097b-bd2b-464f-84c1-3f88e07c63d1,Northern Harvest Brewing Company,planning,,Moriah,New York,12960-2306,United States,,,5184682337,http://www.northernharvest.beer,New York,2026-02-22 21:29:36
762d6bfd-e2ba-469e-b3f5-05817d0a2d96,Northwoods Brewing Co,planning,,Northwood,New Hampshire,03261,United States,,,2073516983,,New Hampshire,2026-02-22 21:29:36
b4be3337-2dfa-44af-affb-9f65903a61c8,Nostrum Brewing,planning,,Alexandria,Virginia,22303-2214,United States,,,,,Virginia,2026-02-22 21:29:36
e5b56c80-41a9-4101-aeec-ffb683617611,Oak Cliff Brewing Co,planning,,Dallas,Texas,75224-1305,United States,,,,,Texas,2026-02-22 21:29:36
8b3d8e4c-661d-446b-bc66-b1b738feca80,Oak Grove Brewing Company,planning,,Glendale,California,91208-1836,United States,-118.2462486,34.192912,8183199577,http://Www.oakgrovebrewingcompany.com,California,2026-02-22 21:29:36
4d8ee740-1b56-49f1-bb3f-ba452fc28401,Oakenbrau,planning,,Milwaukie,Oregon,97267-3838,United States,,,9715063126,http://www.oakenbrau.com,Oregon,2026-02-22 21:29:36
25beda23-8920-4a0a-a7a7-fd8b972ac1cd,Oaklyn Springs Brewery,planning,,Fuquay Varina,North Carolina,27526-5499,United States,,,9192800046,http://www.oaklynspringsbrewery.com,North Carolina,2026-02-22 21:29:36
1f49e95a-580d-4f3c-896d-d1ad0e3691e1,Obscurity,planning,,Elburn,Illinois,60119-7012,United States,,,,http://www.drinkobscurity.com,Illinois,2026-02-22 21:29:36
b891398a-d135-40b8-a824-58dcaa31048d,Ocean View Community Brewing Co.,planning,,Norfolk,Virginia,23503-4838,United States,,,7576514170,,Virginia,2026-02-22 21:29:36
d496c903-0a57-4e47-a859-3dd0aed44a71,OddPitch Brewing Co.,planning,,Missoula,Montana,59801-4473,United States,,,4063605363,http://www.oddpitch.com,Montana,2026-02-22 21:29:36
970d787c-1b48-4cf7-a213-0c1845db1391,Off Main Brewing,planning,,Davidson,North Carolina,28036-6945,United States,,,5124153075,http://OffMainBrewing.com,North Carolina,2026-02-22 21:29:36
3208af9a-4b72-4023-827c-8f41336a6227,Off The Cuff Brewing Company,planning,,West Brookfield,Massachusetts,01585-6023,United States,,,4132810525,,Massachusetts,2026-02-22 21:29:36
9dc287b2-c3b4-41d9-943f-eb24f2e4ce10,Ol' Shed Brewing Company,planning,,Mathis,Texas,78368-1738,United States,,,,,Texas,2026-02-22 21:29:36
df551d63-a1b6-4973-b329-999f41e4c337,Old 290 Brewery,planning,,Santa Ana,California,92704-7463,United States,-117.8732213,33.7494951,7145464255,,California,2026-02-22 21:29:36
7e345dad-f25e-4817-ac2c-5f941fbe6b3f,Old Country Brewing,planning,,Fairfield,California,94533-7790,United States,-122.0399663,38.2493581,,,California,2026-02-22 21:29:36
65c4f76c-6d0e-4e7f-a668-1e0eb8971506,Old Detroit Brewing Co,planning,,Bloomfield Hills,Michigan,48304-3817,United States,,,,,Michigan,2026-02-22 21:29:36
853b4f3f-35bd-48e7-a735-0e3364043a8a,Ombibulous Brewing Company,planning,,Fall Creek,Wisconsin,54742-4965,United States,,,7155779151,,Wisconsin,2026-02-22 21:29:36
666792cc-8e1e-4db4-8d1d-c59c01356838,On The Fly Brewing Company,planning,,Sunbury,Ohio,43074-9022,United States,,,6145618735,http://www.ontheflybrewing.com,Ohio,2026-02-22 21:29:36
460f7adb-fa4e-4c32-aa32-367065e140fc,One Allegiance Brewing,planning,,Chicago Ridge,Illinois,60415-1347,United States,,,,http://www.OneAllegiance.com,Illinois,2026-02-22 21:29:36
59764d11-cd2b-4d85-8e4c-a7d64cdc5754,One Well Brewing,planning,,Kalamazoo,Michigan,49001-5264,United States,,,2694599240,,Michigan,2026-02-22 21:29:36
3c51af37-1774-4cdc-8c6f-0a978af2fa7b,Opocofi Brewing Company,planning,,Franklin,Indiana,46131-8901,United States,,,,,Indiana,2026-02-22 21:29:36
91949951-a50a-430e-a009-59bc9124ed00,Orono Brewing Brewery & Draught Room,planning,,Orono,Maine,04473,United States,,,,,Maine,2026-02-22 21:29:36
35901770-f2e3-424c-b462-1deb0fa2da06,Out World Brewing,planning,,Longmont,Colorado,80503-7285,United States,,,,http://www.outworld.beer,Colorado,2026-02-22 21:29:36
de23fb6c-55b7-4e7d-a27f-dca9ce7816f0,"Outer Limits Brewing, LLC",planning,,Proctorsville,Vermont,05153-9518,United States,,,2072057076,,Vermont,2026-02-22 21:29:36
cc5bec77-94df-470f-bcaf-c2d9a5d091a7,Outerbelt Brewing Company,planning,,Carroll,Ohio,43112,United States,,,6143096796,http://www.outerbeltbrewing.com,Ohio,2026-02-22 21:29:36
b71e75ef-6458-4128-a39f-c3f6f0461e9d,Outland Brewing Company,planning,,Salem,New Hampshire,03079-1867,United States,,,,,New Hampshire,2026-02-22 21:29:36
3000da0a-9704-41be-b9e2-dad825b50e56,Outland Farm Brewery,planning,,Pittsfield,Maine,04967-5811,United States,,,2076168125,http://www.outlandfarmbrewery.com,Maine,2026-02-22 21:29:36
50e149c8-f205-4469-8f9c-27cc526fc78e,Outlaw Cigar / Gunslinger Saloon Brewing,planning,,Kansas City,Missouri,64151-2026,United States,,,8165052442,http://www.outlawcigar.com,Missouri,2026-02-22 21:29:36
cf838e5b-da1b-487b-aa7f-44af17e2e121,Outstate Brewing Company LLC,planning,,Fergus Falls,Minnesota,56537,United States,,,9702175026,http://www.oustatebrew.co,Minnesota,2026-02-22 21:29:36
bdd9f11c-9b60-4d1b-9dc9-c81cb6ba9301,Over Yonder Brewing Company,planning,,Golden,Colorado,80403-8590,United States,,,7203638089,,Colorado,2026-02-22 21:29:36
093abb2e-c49c-4581-ab52-3148c1494a61,Oviedo Brewing Co,planning,,Oviedo,Florida,32765-7426,United States,,,4075875400,http://www.facebook.com/OviedoBrewingCo,Florida,2026-02-22 21:29:36
7ea048a2-85e4-4443-b543-a62f1fe07ce9,Owls Rest Brewery,planning,,Malone,New York,12953-1517,United States,,,,,New York,2026-02-22 21:29:36
18703afa-900e-4dee-a6ab-08eb0034b8e2,Owls Roost Brewing,planning,,Wake Forest,North Carolina,27587-2958,United States,,,9197491428,,North Carolina,2026-02-22 21:29:36
e8524519-a341-4027-b4ab-331fcb328f8c,"Pacific Northwest Brewing Center, LLC",planning,,Everett,Washington,98208-3320,United States,,,,,Washington,2026-02-22 21:29:36
208fc2d7-7b2b-494f-a1ae-a3c1331f8c38,Pagan River Brewing Company,planning,,Smithfield,Virginia,23430-2301,United States,,,7574143247,http://www.paganriverbrewing.com,Virginia,2026-02-22 21:29:36
6baeae2b-3797-4e73-84ec-1687f7f669cc,Panther Creek Brews,planning,,Christiana,Tennessee,37037-5122,United States,,,6155891401,http://www.panthercreekbrews.com,Tennessee,2026-02-22 21:29:36
c7c2ba11-d41c-48a4-a5c5-fbd6977fe0c9,Pantomime Mixtures,planning,,Hector,New York,14841-9629,United States,,,6319442668,http://www.pantomimemxitures.com,New York,2026-02-22 21:29:36
b4364f80-3e30-40fc-bae8-00b3fa7b9c58,Pantown Brewing Company,planning,,Saint Cloud,Minnesota,56303-3047,United States,,,3209803100,http://www.pantownBrewing.com,Minnesota,2026-02-22 21:29:36
b96b43ff-31cd-46f3-8c14-e225aeec0841,Papa Marce's Cerveceria,planning,,Carlsbad,California,92008,United States,-117.3505966,33.1580933,8584146976,http://www.papamarces.com,California,2026-02-22 21:29:36
ceb076d0-abb4-41df-b085-6799d5356f13,Paper City Development LLC,planning,,Vicksburg,Michigan,49097,United States,,,6049961400,http://papercitymillworks.com,Michigan,2026-02-22 21:29:36
0f1246e4-cd74-4090-a807-e3cbbadac148,Paperback Brewing Company,planning,,Woodland Hills,California,91367-2912,United States,-118.6059197,34.1683386,,http://www.paperback.la,California,2026-02-22 21:29:36
5b34875f-fccf-447f-a85e-f363efe9e2d0,Paradox Brewery / Gateway To the Adirondacks,planning,,Schroon Lake,New York,12870,United States,,,,,New York,2026-02-22 21:29:36
a17858d1-e5aa-41c5-a429-8418b7890d9d,Paramount Brewing Company,planning,,Andover,Massachusetts,01810-5011,United States,,,6178691388,,Massachusetts,2026-02-22 21:29:36
add42f7c-059e-4ecc-81dd-2f7d3eabb800,Pedestrian Brewing,planning,,Lakewood,Ohio,44107-3309,United States,,,2162620740,http://pedestrian.beer,Ohio,2026-02-22 21:29:36
405503f6-a0f3-456b-b47b-eefd54cf0a43,Pennyweight Craft Brewing,planning,,Livermore,California,94550,United States,-121.7680531,37.6820583,5107541685,http://www.pennyweightbrew.com,California,2026-02-22 21:29:36
5ca8e3d6-f42d-4389-9854-fe521a3ce95c,Perfect Fool Brewing Company,planning,,Atlanta,Georgia,30319,United States,,,,,Georgia,2026-02-22 21:29:36
06cfb198-fc60-4119-bd71-813f5d4db893,Permission Brewing Company,planning,,Columbus,Ohio,43004,United States,,,6143530762,http://www.permissionbrewing.com,Ohio,2026-02-22 21:29:36
80f35301-8149-4307-affe-e6e4442b2df3,Pig Island Brewery,planning,,Bradford,Pennsylvania,16701-1304,United States,,,8143667612,,Pennsylvania,2026-02-22 21:29:36
88293b57-bdc4-4fb7-afb4-1de24a9e82e9,Pigeon Hill Brewery Production Facility,planning,,Muskegon,Michigan,49440-1109,United States,,,,,Michigan,2026-02-22 21:29:36
e9841166-8a2c-481b-8fbf-0a8c50bc31b6,Pilot Brewing,planning,,Charlotte,North Carolina,28205,United States,,,,,North Carolina,2026-02-22 21:29:36
a418742c-1196-4602-8a28-6f4f4203d82b,Pinehurst Brewery,planning,,Pinehurst,North Carolina,28374,United States,,,,,North Carolina,2026-02-22 21:29:36
3882eece-5d4c-4783-89dc-03717599fcdd,Pinehurst Resort,planning,,Pinehurst,North Carolina,28374,United States,,,9102358703,,North Carolina,2026-02-22 21:29:36
6bf22b2c-4836-4d2f-8f0a-88c5f40a0a56,Pinthouse Pizza Round Rock,planning,,Round Rock,Texas,78681,United States,,,,,Texas,2026-02-22 21:29:36
0c7ebfab-f995-4487-b59c-6c90f42d8298,Pondaseta Brewing Co.,planning,,Amarillo,Texas,79119,United States,,,,http://www.pondaseta.com,Texas,2026-02-22 21:29:36
46ee6aab-af12-44ff-aa5a-ed12944370fd,Presidential Brewing Co.,planning,,Portage,Michigan,49024,United States,,,2694689765,http://www.presidentialbrewing.com,Michigan,2026-02-22 21:29:36
a9dbe836-f39c-466c-8776-21caac8d433e,Propagation LLC,planning,,Saint Louis,Missouri,63104-2425,United States,,,,http://www.propagation.us,Missouri,2026-02-22 21:29:36
f66e0f8c-af6d-4f0b-a2f0-53f279062189,Pub Craught,planning,,Baton Rouge,Louisiana,70809-2228,United States,,,,,Louisiana,2026-02-22 21:29:36
512eb241-55cf-47bf-b949-824cc7fd7449,Raices Brewing Co,planning,,Denver,Colorado,80204,United States,,,2024237060,http://www.raicesbrewing.com,Colorado,2026-02-22 21:29:36
a2479685-7402-413d-8398-357db4a5aed8,Ramskeller,planning,,Fort Collins,Colorado,80523-0001,United States,,,9704911055,,Colorado,2026-02-22 21:29:36
9e9b2679-fc12-4095-b401-198f4a444525,Rancho De Lomi Brewing,planning,,Laporte,Colorado,80535-3021,United States,,,4156067246,,Colorado,2026-02-22 21:29:36
03fb287c-df2c-4d22-8e9f-2ab34dd74219,Rebelle Brewing,planning,,Noblesville,Indiana,46060,United States,,,,,Indiana,2026-02-22 21:29:36
f8dad557-f4a4-4ca0-ae18-b8b4411ca6ff,Red Bird,planning,,Waltham,Massachusetts,02453-5208,United States,,,7818915486,http://www.redbirdwaltham.com,Massachusetts,2026-02-22 21:29:36
92cd0320-bce3-42e4-babb-1192bd8bf678,Red Dirt Brewing Co,planning,,Oklahoma City,Oklahoma,73120-5133,United States,,,4058231632,,Oklahoma,2026-02-22 21:29:36
c0a352b5-37a4-4131-9e41-dc49df52747f,Red Iron Brewing Company,planning,,Lincoln,Nebraska,68501,United States,,,4028126242,http://redironbrewing.com,Nebraska,2026-02-22 21:29:36
f3fbeb9f-9f53-4d88-b137-44d3472f7af6,Red Truck Beer Company,planning,,Denver,Colorado,80216-3612,United States,,,,,Colorado,2026-02-22 21:29:36
66f14e6f-3988-4600-876f-c3ee155541ea,Reno Brewery,planning,,Reno,Nevada,89502-1807,United States,,,7756360014,http://www.renobrewery.com,Nevada,2026-02-22 21:29:36
ec12a82b-0ef5-411e-8c74-a1111ddaa2ca,Reverie Brewing Company,planning,,Newtown,Connecticut,06470,United States,,,,http://reveriebrewing.com,Connecticut,2026-02-22 21:29:36
78afc551-cb96-427b-972f-61840aa2636c,Rhythm River Brewing Company,planning,,Longmont,Colorado,80504-2226,United States,,,,http://www.rhythmriverbrewing.com,Colorado,2026-02-22 21:29:36
46a30b10-a4bb-43f1-9219-d0e6ffbde56f,Ridge Runner Brewing LLC,planning,,Wauseon,Ohio,43567-9294,United States,,,,,Ohio,2026-02-22 21:29:36
98952c82-f47d-437b-9a54-871736d5b9dc,Ritt Brewing Company,planning,,Chicago,Illinois,60634-2319,United States,,,8475618203,,Illinois,2026-02-22 21:29:36
50f46329-bc95-4781-b109-dd71958479b0,Rivals Brewing Company,planning,,middleburg hts,Ohio,44130,United States,,,3306316700,https://www.facebook.com/RivalsBrewingCo/,Ohio,2026-02-22 21:29:36
48f9049b-e240-4e4f-80ae-d6e2ec181912,River North Brewery - RiNo,planning,,Denver,Colorado,80205-2440,United States,,,7858656057,http://www.rivernorthbrewery.com,Colorado,2026-02-22 21:29:36
be7ced94-d8cd-47c2-8789-31a4010490bf,Roadrunner Abbey Brewing,planning,,Chandler,Arizona,85249-4724,United States,-111.8408489,33.3067132,4805708283,,Arizona,2026-02-22 21:29:36
82e2e95c-e46d-4f70-a656-deb90413d906,Rockaway Brewing Company,planning,,Arverne,New York,11692-1044,United States,,,7184826528,http://www.rockawaybrewco.com,New York,2026-02-22 21:29:36
7e433321-e973-4c14-bd87-62c1c92cca3c,Rogan Brewing Company,planning,,Duquesne,Pennsylvania,15110-1525,United States,,,4125455400,http://www.roganbrewing.com,Pennsylvania,2026-02-22 21:29:36
8257f37a-f991-4474-b93b-989af92e55d1,"Rohrer Brewing Company, LLC",planning,,Cookeville,Tennessee,38506-5601,United States,,,6155859700,http://rohrerbrewing.com,Tennessee,2026-02-22 21:29:36
6d95be92-78fd-4ea6-9584-5ff77345f84b,"RoosterBragh Brewing Company, LLC",planning,,Tallahassee,Florida,32312-8000,United States,,,8507924458,http://www.roosterbragh.com,Florida,2026-02-22 21:29:36
8a384697-2d0f-4677-94d5-a2eea2b7a0ca,Rosehill Brewing Co.,planning,,Tomball,Texas,77377-3534,United States,,,,,Texas,2026-02-22 21:29:36
c0217206-0b34-4205-8164-a587a1c6653a,Roundback Brewery LLC,planning,,Danville,Pennsylvania,17821-7746,United States,,,5708548067,http://roundbackbrewery.com,Pennsylvania,2026-02-22 21:29:36
646f5ed7-b512-4652-aa67-b981d3cfc266,Ruhlman Brewery/Our Ales,planning,2300 Harvey Gummel Rd,Hampstead,Maryland,21074-1033,United States,-76.9110908,39.6373751,,,Maryland,2026-02-22 21:29:36
dd223433-1a97-435a-9b7d-995390ffb806,Rural Brewing Company,planning,,Sturgeon Bay,Wisconsin,53590,United States,,,,http://www.ruralbrewingcompany.com,Wisconsin,2026-02-22 21:29:36
bf893977-4cd2-4fb2-bf23-087cf9da7d60,Sabbath Brewing,planning,,Atlanta,Georgia,30316,United States,,,,,Georgia,2026-02-22 21:29:36
cc9bb9b0-bdea-4c49-b437-711d7f3a4612,Sacred Lake Brewing,planning,,Herrin,Illinois,62948-6349,United States,,,,,Illinois,2026-02-22 21:29:36
f8ca57ef-0c93-41f3-a2dd-a309b7e046cc,Sacred Waters Brewing Company,planning,,Kalispell,Montana,59901-6641,United States,,,4062530746,http://www.sacredwatersbrewing.com,Montana,2026-02-22 21:29:36
2d16cfa0-c07b-4f6b-927f-597833014c26,Sager Beer Works,planning,,Rochester,New York,14607-1669,United States,,,5857520613,http://www.sagerbeerworks.com,New York,2026-02-22 21:29:36
73a9fd49-5bbb-421b-b62e-221eed613881,"SakeBrooklyn Brewing Co., LLC",planning,,Brooklyn,New York,11237-5263,United States,,,9294007253,http://www.sakebrooklyn.com,New York,2026-02-22 21:29:36
7f0a3ebf-1467-4a6c-af59-561fa81ff1d0,Saltmarsh Brewery,planning,,Foxboro,Massachusetts,02035-2299,United States,,,6177996627,http://adam@saltmarshbrewery.com,Massachusetts,2026-02-22 21:29:36
81ab1434-2c88-4803-9cf3-6f1339c785bf,San Jacinto Brewing Company,planning,,Montgomery,Texas,77316-9200,United States,,,2813808200,,Texas,2026-02-22 21:29:36
6e944425-d2e8-4005-8d04-2d68bacf6d73,Sand Mtn brewery,planning,,Section,Alabama,35771,United States,-85.986644,34.5789747,2564180658,http://Www.sandmtnbrewery.com,Alabama,2026-02-22 21:29:36
6b294403-76c6-411c-b991-6d9c853f514f,SanTan Brewing Co,planning,,Phoenix,Arizona,85014-2435,United States,-112.0773456,33.4485866,,,Arizona,2026-02-22 21:29:36
e948ab84-5a33-499b-9e34-203b6820fd3d,Savannah Beer Company,planning,,Savannah,Georgia,31410,United States,,,9124140187,,Georgia,2026-02-22 21:29:36
18f65032-7043-4c44-9df9-78a396be1572,Sawbriar Brewery,planning,,Lafayette,Louisiana,70501,United States,,,3373403308,http://www.sawbriarbrewery.com,Louisiana,2026-02-22 21:29:36
71ded1fd-3d39-42df-b7e3-15aa83ab2d88,Science,planning,,Phoenix,Arizona,85020-5620,United States,-112.0773456,33.4485866,,,Arizona,2026-02-22 21:29:36
e0cef7d4-acb0-4097-ac31-a54ea15c5ea6,Scissortail Brewing Co.,planning,,Bartlesville,Oklahoma,74003-7154,United States,,,9186949948,http://www.scissortailbrew.com,Oklahoma,2026-02-22 21:29:36
f15270cc-923b-439a-98de-03634439e101,Scottish Bloodline Brewing,planning,,Lowell,Massachusetts,01851-4638,United States,,,9784556163,http://Www.scottishbloodlinebrewing.com,Massachusetts,2026-02-22 21:29:36
dd5d5286-addb-4b10-86fd-4cc994d05850,Sean Patrick's Pub,planning,,San Marcos,Texas,78666-5590,United States,,,,,Texas,2026-02-22 21:29:36
09173c6a-63d6-435d-893a-d7fb2fff3f2d,Sedona Beer Company,planning,,Sedona,Arizona,86336-4170,United States,-111.7929891,34.8657757,,http://www.sedonabeerco.com,Arizona,2026-02-22 21:29:36
6a4851e9-4d90-4cdd-a96b-0b794f93e887,Seven Sirens Brewing Company,planning,,Bethlehem,Pennsylvania,18015,United States,,,4842396544,,Pennsylvania,2026-02-22 21:29:36
b9f88dc8-a3b6-40b5-9875-b16095b2993c,Sew Hop'd Brewery LLC,planning,,Huntley,Illinois,60142,United States,,,8476694501,http://www.sewhopd.com,Illinois,2026-02-22 21:29:36
a5252773-86c6-4b69-a224-8c9e07598c75,SFLBrewery In Planning,planning,,Weston,Florida,33326-4041,United States,,,,,Florida,2026-02-22 21:29:36
a9b450fc-d3d8-4437-9b51-1f945243f882,ShadowView Brewing,planning,,Woodstock,Illinois,60098-6911,United States,,,8477779323,http://www.shadowviewbrewing.com,Illinois,2026-02-22 21:29:36
99526c72-24a9-4027-bad0-a1e42218b60a,Side By Each Brewing Co,planning,,Auburn,Maine,04210-3739,United States,,,2073479920,,Maine,2026-02-22 21:29:36
07a4bba9-7707-4a04-839c-e341490377a1,Siren Rock Brewing Company,planning,,Rockwall,Texas,75087,United States,,,,,Texas,2026-02-22 21:29:36
5f6f3cb4-e720-4a25-885e-903f1341049a,Six Car Pub,planning,,Amarillo,Texas,79106,United States,,,8062206881,http://www.sixcarpub.com,Texas,2026-02-22 21:29:36
86c3526b-002e-4349-a570-ae6fe075f11b,Skipping Rock Beer Co.,planning,,Staunton,Virginia,24401-6122,United States,,,5402923417,http://www.skippingrockbeer.com,Virginia,2026-02-22 21:29:36
8890167c-6e54-45b2-9be3-a866eb3e6168,Slantways Brewing Company,planning,,The Woodlands,Texas,77381-4641,United States,,,,,Texas,2026-02-22 21:29:36
6d9698ed-f45d-451e-92d0-e3be563e3e1c,SlickFin Brewing Company LLC,planning,,Queensbury,New York,12804-9786,United States,,,,,New York,2026-02-22 21:29:36
054dc3c8-bca1-4a31-94c3-4fbf7c0f5567,Slow Play Brewing Company,planning,,Rock Hill,South Carolina,29730-3504,United States,,,,,South Carolina,2026-02-22 21:29:36
7baaf926-7eaf-4803-98b4-f7597e969a08,Soma Brewing LLC,planning,,South Orange,New Jersey,07079-1455,United States,,,9737151450,,New Jersey,2026-02-22 21:29:36
2df1aca7-cceb-4928-b5f5-5e2307d6cd38,Somers Point Brewing Company,planning,,Somers Point,New Jersey,08244-1822,United States,,,,,New Jersey,2026-02-22 21:29:36
1d5af320-379d-4812-b7c9-a2cfe9e3b22d,Sonder Brewing,planning,,Maineville,Ohio,45039-8103,United States,,,6303473323,http://www.sonderbrewery.com,Ohio,2026-02-22 21:29:36
47e7a620-d0fb-4dfa-8ae2-ce8cf0c3244c,Source Brewing,planning,,Colts Neck,New Jersey,07722-2430,United States,,,7327785184,http://www.sourcebrewing.com,New Jersey,2026-02-22 21:29:36
33b5dae7-7850-4d45-a7a5-8716f7bcb6c6,Southern Tier Brewing Co,planning,,Cleveland,Ohio,44115-1111,United States,,,,,Ohio,2026-02-22 21:29:36
c870f079-c22b-477a-9d05-40f2e40e56a7,Southern Yankee Beer Company,planning,,Houston,Texas,77073,United States,,,,http://southernyankeebeer.com,Texas,2026-02-22 21:29:36
08f12f3f-b6fa-45a3-ba43-782f34fd1de8,Splintercat Brewing,planning,,Corvallis,Oregon,97330-1348,United States,,,,,Oregon,2026-02-22 21:29:36
27d36dac-a058-47ee-ae9b-a73f7e440bef,Spring Mountain Brewing Company,planning,,Schwenksville,Pennsylvania,19473-1811,United States,,,,,Pennsylvania,2026-02-22 21:29:36
5e1b4f2a-5337-4def-8685-7c2584c8f1f9,SS Fermentations Ltd.,planning,,Montrose,Colorado,81401-3927,United States,,,9706184332,,Colorado,2026-02-22 21:29:36
977bad75-df98-4e2e-ad5a-ac2c6c22d120,Stache Rabbit Brewing Company,planning,,Austin,Texas,78727-5907,United States,,,,,Texas,2026-02-22 21:29:36
87465738-6b69-49d2-9879-f330924a1d25,Stacked Deck Brewing,planning,,Saint Paul,Minnesota,55101-1712,United States,,,6512145448,http://www.stackeddeckbrewing.com,Minnesota,2026-02-22 21:29:36
e8875dc6-aa58-4c97-90d5-7b5c4fa07d83,Stained Glass Beerworks,planning,,Houston,Texas,77066-2310,United States,,,7134529337,http://www.stainedglassbeerworks.com,Texas,2026-02-22 21:29:36
58d2b5a4-e234-44fb-b51b-3a4322ab1329,Star B Ranch,planning,,Ramona,California,92065-6714,United States,-116.8675132,33.035378,,,California,2026-02-22 21:29:36
03667e97-bece-4519-80c1-0aafc0f90403,Stargazer Brewing Company,planning,,Coatesville,Pennsylvania,19320,United States,,,6102096346,,Pennsylvania,2026-02-22 21:29:36
436846b7-4538-4d89-b919-2396c7f00ab8,State 48 Barrel and Lager House,planning,,Scottsdale,Arizona,85260-1924,United States,-111.8992365,33.5091215,,,Arizona,2026-02-22 21:29:36
6260eac2-6949-4c19-aec9-739c2cdcf849,State 48 Brewery,planning,,Phoenix,Arizona,85003-1626,United States,-112.0773456,33.4485866,,,Arizona,2026-02-22 21:29:36
c04f39d4-df5f-48d4-9645-148072eeb9f5,Steam Theory Brewing Co,planning,,Dallas,Texas,75212-4101,United States,,,,http://www.steamtheorybrewing.com,Texas,2026-02-22 21:29:36
259c6bad-d77b-4e96-99ba-78873517c6ca,Steel Hands Brewing,planning,,Cayce,South Carolina,29033-3439,United States,,,8039200592,,South Carolina,2026-02-22 21:29:36
4142b73a-3079-4c57-ac64-9577f134a13b,Stein Brewing Company,planning,,Mount Vernon,Ohio,43050-3323,United States,,,,http://www.SteinBrewCo.com,Ohio,2026-02-22 21:29:36
17086f05-6d04-4e38-8924-8b16ad921480,Stellwagen Beer Company,planning,,Marshfield,Massachusetts,02050,United States,,,7817899162,http://www.stellwagenbeer.com,Massachusetts,2026-02-22 21:29:36
5edf4546-8f83-48c9-8d15-52899b67a2b4,Stoik Beer Company,planning,,Delta,Colorado,81416,United States,,,,http://www.stoikbeer.com,Colorado,2026-02-22 21:29:36
a93eb7a0-8cfe-4d36-9368-115a290c47c9,Stoker's Brewing Company,planning,,Tamaqua,Pennsylvania,18252-1405,United States,,,,,Pennsylvania,2026-02-22 21:29:36
e9659928-655c-42e1-bf69-bf9a3fcb673f,"Storytellers Brewery and Meet House, LLC",planning,,Corona,California,92880-1798,United States,-117.5664449,33.8752945,9092475710,http://www.storytellersbrewery.com,California,2026-02-22 21:29:36
5623e30f-2e4e-44ba-924b-52e4c4551609,Stover Brewing,planning,,San Diego,California,92124-1426,United States,-117.1627714,32.7174209,6193634677,http://www.stoverbrewing.com,California,2026-02-22 21:29:36
a85eb847-20ed-421e-b887-0a040f71a0b1,Straight Shot Brewing,planning,,Poquoson,Virginia,23662-0000,United States,,,,,Virginia,2026-02-22 21:29:36
4e84c26e-4850-4bee-898d-fcdffd88b881,Strikhedonia Brewing Company LLC,planning,,Saint Charles,Illinois,60174-4591,United States,,,,,Illinois,2026-02-22 21:29:36
99deb304-2fa2-4236-a1cb-81524c7492ce,Stronghouse Brewery,planning,,Telluride,Colorado,81435,United States,,,,,Colorado,2026-02-22 21:29:36
6b730aef-f353-4f27-94c4-b45a2db292c6,Studebaker Brewing Company,planning,,South Bend,Indiana,46601,United States,,,5742349077,http://www.studebakerbrewingco.com,Indiana,2026-02-22 21:29:36
120a1b1e-f09a-4e2f-8f10-2b9a7342d3bd,Sun King Brewing Co,planning,,Fishers,Indiana,46037,United States,,,,,Indiana,2026-02-22 21:29:36
64203bc5-a848-4d03-a025-01b0df322b3b,Sun Up Brewing Company 330,planning,,Phoenix,Arizona,85012,United States,-112.0773456,33.4485866,,,Arizona,2026-02-22 21:29:36
acd12d74-76fe-4c74-ad0a-977b67f6d4f7,Suncreek Brewery,planning,,Clermont,Florida,34711-2135,United States,,,4078508810,http://www.suncreekbrewery.com,Florida,2026-02-22 21:29:36
47c31369-8b35-4cac-bfb3-db39daf73ea5,Super Brewing Company LLC,planning,,Portland,Oregon,97202,United States,,,5037193435,,Oregon,2026-02-22 21:29:36
f69603de-05b8-45b0-8212-38a36c45b432,Super Fun Time Brewing Company,planning,,Bangor,Pennsylvania,18013-9244,United States,,,6105974402,,Pennsylvania,2026-02-22 21:29:36
3be10da6-c43b-4b9f-b9c9-ce43299ded2d,Surfridge Brewing Company,planning,,El Segundo,California,90245-4209,United States,-118.383179,33.912594,3108470283,http://www.surfridgebrewery.com,California,2026-02-22 21:29:36
51a67223-d853-4316-bf42-eb38eca9121f,Sweet Mercy Brewing Co.,planning,,Miami,Florida,33143,United States,,,3057999260,http://www.sweetmercybrewing.com,Florida,2026-02-22 21:29:36
a5800400-36c4-47f2-b289-1eff24c0218f,Sweet Thursday Beer Co,planning,,Brooklyn,New York,11215-6020,United States,,,9176133980,http://www.sweetthursdaybeer.com,New York,2026-02-22 21:29:36
2542f084-1083-47e9-aab3-f059cc0042fe,Tabol Brewing,planning,704 Dawn St,Richmond,Virginia,23222,United States,,,8043035528,http://tabolbrewing.com/taste,Virginia,2026-02-22 21:29:36
cb8f9bf5-9928-481f-8700-3bb86a34b170,Tabula Rasa Brewing,planning,,Jacksonville,Florida,32204-1705,United States,,,,,Florida,2026-02-22 21:29:36
84851d4b-2539-48f2-a1e9-af83be1e7c4c,Tack Brewing,planning,,Oakland,California,94618-1534,United States,-122.2713563,37.8044557,8054044861,http://www.tackbrewing.com,California,2026-02-22 21:29:36
20095f2b-d1bc-401d-959b-f078135940f6,TaleSpinner Craft Brewery,planning,,Nashua,New Hampshire,03062-1033,United States,,,6032339636,http://www.talespinnerbrew.com,New Hampshire,2026-02-22 21:29:36
9daf19fc-e958-48d7-b232-53661abf49fe,Tall City Brewing Co.,planning,,Midland,Texas,79703-5137,United States,,,4327708679,,Texas,2026-02-22 21:29:36
9dfec154-bfdf-4489-9cfc-ed3a5611c15c,Tannery Run Brew Works,planning,,Ambler,Pennsylvania,19002-4407,United States,,,2156131113,http://www.tanneryrun.com,Pennsylvania,2026-02-22 21:29:36
692ad7e4-2bd7-452d-a0e2-08c9cc43ae0d,Tantrum Brewing Company,planning,,Cleveland,Georgia,30528-7804,United States,,,7068090808,http://www.tantrumbeer.com,Georgia,2026-02-22 21:29:36
e6308f1f-f1e9-4fcf-8441-d6e789d613a6,TAPS Brewery and Barrel Room,planning,,Tustin,California,92780-7302,United States,-117.826166,33.7458511,,,California,2026-02-22 21:29:36
dbfbb11d-200e-4b5e-95f2-de7205a8aef2,Tarantula Hill Brewing Company,planning,,Thousand Oaks,California,91360,United States,-118.9105877,34.17142715,6199951731,,California,2026-02-22 21:29:36
a60a0bc4-dcdf-4a43-bda3-17b4db6f7291,Teachers Lounge Brewing,planning,,Denver,Colorado,80210-3349,United States,,,3038685142,http://www.eachersloungebrewing.com,Colorado,2026-02-22 21:29:36
538a9de0-db76-4d2e-af6d-8a3db700b6bf,Teeccino Brewing Company,planning,,Carpinteria,California,93013-2905,United States,-119.5184564,34.3988838,8059660999,http://www.teeccino.com,California,2026-02-22 21:29:36
86918223-e1ea-49a1-89a5-86ba31c4c93a,Tenacious Brewing Company,planning,,San Diego,California,92101,United States,-117.1627714,32.7174209,,,California,2026-02-22 21:29:36
0ba3f3ba-fd0d-4328-8932-664701461504,The Berghoff Restaurant,planning,,Chicago,Illinois,60603-5502,United States,,,3126176283,http://www.berghoff.com,Illinois,2026-02-22 21:29:36
3141c2ff-c808-4ef7-a8bf-77abe27fda02,The Blue Heron Brewery,planning,,Hinckley,Ohio,44233,United States,,,,http://www.bookblueheron.com,Ohio,2026-02-22 21:29:36
0362e61c-eec8-4420-8c1a-406131162923,The Blue Poppy Brewery,planning,,Yorba Linda,California,92886-7300,United States,-117.8249705,33.8901096,,,California,2026-02-22 21:29:36
a3307ec6-4c65-49fb-85e2-8fc48bd2b95c,The Common Beer Company,planning,,Mason,Ohio,45040,United States,,,5136580170,https://commonbeercompany.com/,Ohio,2026-02-22 21:29:36
c368a4c0-8cf7-4bfb-9f64-257afa2bc416,"The Feinics Company, Inc.",planning,,Pollock Pines,California,95726-9751,United States,-120.5776645,38.7497125,9163003049,,California,2026-02-22 21:29:36
e453ccc9-949f-4194-9257-05b54018e698,The Food Works,planning,,Brooklyn,New York,11206,United States,,,6178512133,http://www.thefoodworks.com,New York,2026-02-22 21:29:36
dceed539-92fe-42e7-8ca6-09eef06e3a2b,The Humble Pint,planning,,Round Rock,Texas,78681-5504,United States,,,5129475913,http://www.humblepint.com,Texas,2026-02-22 21:29:36
aa332036-3ce5-47dc-aa9b-73b2b457b3d3,The Jolly Fox Brewery,planning,,Pittsburg,Kansas,66762,United States,,,,http://Www.thejollyfoxbrrewery.com,Kansas,2026-02-22 21:29:36
b4bad111-e8f4-45ac-bb74-c3dbac3cdceb,"The Levee Brewing Company, Inc",planning,,Valdese,North Carolina,28690,United States,,,8383901041,http://www.theleveepub.com,North Carolina,2026-02-22 21:29:36
64bfb175-46f6-421c-9771-7fffb984c4c7,The Lost Druid,planning,,Atlanta,Georgia,30307-2758,United States,,,,,Georgia,2026-02-22 21:29:36
68665875-96c0-42b1-b729-eab3498fddb3,The Other One Brewing Co.,planning,2305 Philadelphia Ave,Ocean City,Maryland,21842,United States,-75.077305,38.3527894,4102893329,https://www.theotheronebrewing.com/,Maryland,2026-02-22 21:29:36
64187393-244a-4e18-8fae-9628e3979dac,The Pour Farm,planning,,Union,Maine,04862,United States,,,5083805372,http://www.thepourfarm.com,Maine,2026-02-22 21:29:36
29d07a78-b6dd-457d-9d29-887fc809ddeb,The Southern Growl,planning,,Greer,South Carolina,29650-1285,United States,,,,http://www.thesoutherngrowl.com,South Carolina,2026-02-22 21:29:36
e7113db6-8cc9-40b3-a17e-fceb42d28fa8,The Split Batch Brewery,planning,,Buford,Georgia,30519-2236,United States,,,4049834303,http://www.splitbatchbrewery.com,Georgia,2026-02-22 21:29:36
82cf46b2-ab8d-4efd-9f75-a3e910c9a9bb,There Does Not Exist,planning,,San Luis Obispo,California,93401,United States,-120.6596156,35.2827525,,http://www.theredoesnotexist.com,California,2026-02-22 21:29:36
e56e71b6-8a59-47b5-a4ee-b91451ad4d81,Think Tank Brew Lab,planning,,Greenville,South Carolina,29607,United States,,,,http://www.thinktankbrewlab.com,South Carolina,2026-02-22 21:29:36
261457bf-6164-49da-b03e-88ce62b1ce17,Third Eye Brewery,planning,,Cincinnati,Ohio,45246,United States,,,,http://www.thirdeyebrewingcompany.com,Ohio,2026-02-22 21:29:36
33253e4f-6acd-4cf7-8ed6-2fbabee79b2b,Third Nature Brewing Co.,planning,,Rockford,Michigan,49341,United States,,,,,Michigan,2026-02-22 21:29:36
27564880-047a-443c-a11b-848da3b04c62,"Three Empires Brewing Company, LLC",planning,,Pearland,Texas,77584,United States,,,,,Texas,2026-02-22 21:29:36
72466771-4af4-4da5-a120-06081eda08d8,Timberyard Brewing Co.,planning,,East Brookfield,Massachusetts,01515,United States,,,4135526048,http://timberyardbrewing.com,Massachusetts,2026-02-22 21:29:36
82e6bab6-2ba9-4942-bf6b-5d5791a0b52e,Timnath Beerwerks,planning,,Timnath,Colorado,80547,United States,,,9702224131,,Colorado,2026-02-22 21:29:36
96c943e8-92bb-48bd-8cd0-bb818ea3145b,To Share Brewing Company,planning,,Manchester,New Hampshire,03104,United States,,,3012376579,http://www.tosharebrewing.com,New Hampshire,2026-02-22 21:29:36
dbdef60f-fa3c-42a4-8536-5b4c85c946b9,Tobacco Wood Brewing Company,planning,,Oxford,North Carolina,27565,United States,,,9199391909,,North Carolina,2026-02-22 21:29:36
c947eb60-863c-4676-9961-6c52ba387fb9,Tom's Urban Kitchen and Brewery,planning,,Denver,Colorado,80249-6310,United States,,,3035826039,,Colorado,2026-02-22 21:29:36
4497e1be-0cb7-4778-90ff-a910b56659e3,Topsy Turvy,planning,,Hampshire,Illinois,60140-9449,United States,,,8477787070,,Illinois,2026-02-22 21:29:36
93271344-d85f-41c0-89f1-f57daf704d4c,Torg Brewery,planning,,Minneapolis,Minnesota,55432,United States,,,7636390539,http://www.torgbrewery.com,Minnesota,2026-02-22 21:29:36
543f9be5-b99f-4537-a641-67ecc55ca1a8,Tortugo Brewing Company,planning,,Inglewood,California,90302-3308,United States,-118.3550377,33.96185,,,California,2026-02-22 21:29:36
8ee26476-e33e-4940-95f9-75bb761d5324,Touchstone Brewing Company,planning,,Sacramento,California,95811-0618,United States,-121.4943996,38.5815719,4155701391,,California,2026-02-22 21:29:36
9c55c622-8dbc-40ff-bfda-02e71952c2fc,Trace Brewing,planning,,Nashville,Tennessee,37221-3967,United States,,,,,Tennessee,2026-02-22 21:29:36
abcd1ceb-8283-4d5f-aeb9-bda3778067c7,Trail Dog Brewing Co.,planning,,Novato,California,94945-3318,United States,-122.5681191,38.1061979,4157580411,http://traildogbrewing.com,California,2026-02-22 21:29:36
477bfcda-4e96-4f41-a17b-3b1d0407eae0,Transmission Brewing Company,planning,,Oxnard,California,93030-8231,United States,-119.1803818,34.1976308,8054076133,http://jonkercarey@gmail.com,California,2026-02-22 21:29:36
1a25fc20-de4d-4e06-aed5-0013bc2446ee,Transport Brewery,planning,,Shawnee,Kansas,66203-2749,United States,,,,http://www.transportbrewery.com,Kansas,2026-02-22 21:29:36
e41000c2-f355-4cad-ab5c-bd1b96185861,Trap Rock Brewing Co.,planning,,Saint Croix Falls,Wisconsin,54024,United States,,,,http://traprockbrewing.com,Wisconsin,2026-02-22 21:29:36
2043d4a7-0356-4c97-bc40-739598829e90,Traust Brewing Co.,planning,,Charlotte,North Carolina,28205,United States,,,9805053111,http://www.traustbrewing.com,North Carolina,2026-02-22 21:29:36
b65eb539-cf66-424a-8e8b-bce335a3295b,Triune Brewing Company,planning,,Leavenworth,Washington,98826-1413,United States,,,5095483300,,Washington,2026-02-22 21:29:36
0c579f50-de3e-4b39-b404-cb2dec4227df,Trolley Barn Brewery,planning,,Quakertown,Pennsylvania,18951,United States,,,2154998959,http://www.trolleybarnpublicmarket.com,Pennsylvania,2026-02-22 21:29:36
bee37e69-0e10-4076-849a-fd6ee2d5f35f,Tucked Away Brewing,planning,,Manassas,Virginia,22010,United States,,,9373712176,,Virginia,2026-02-22 21:29:36
ffe5f5cd-242c-4da3-96ed-d8468a342284,Turn 2 Brewing Company Inc.,planning,,Sebring,Florida,33872-9253,United States,,,,http://www.turn2brew.com,Florida,2026-02-22 21:29:36
5891a22a-ac15-4646-a0bb-4b9127899213,"Tusculum Holdings, LLC",planning,,Boerne,Texas,78006-2334,United States,,,3612286227,http://www.tusculumbrewing.com,Texas,2026-02-22 21:29:36
e1bdce52-7dc7-4377-a5c2-4506452da993,Tuthilltown Spirits,planning,,Gardiner,New York,12525-5528,United States,,,8452551527,,New York,2026-02-22 21:29:36
6c0d332d-0cb5-4b00-aa81-d04650eefe9a,TUYA SuperBrewing Co.,planning,,Santa Cruz,California,95062-1411,United States,-122.0297182,36.974201,8444878892,http://www.tuyasuperbrew.com,California,2026-02-22 21:29:36
6a8fdfd9-8419-4e4a-828e-0dea8bcf5bcb,TWIN SISTERS,planning,,San Antonio,Texas,78210,United States,,,2108186515,,Texas,2026-02-22 21:29:36
29d82828-d18f-4ad7-9e7c-88bd7a652a7b,Twisted Bine Beer Co.,planning,,Mount Joy,Pennsylvania,17552-1424,United States,,,7179178577,,Pennsylvania,2026-02-22 21:29:36
e151bd5e-806b-44d0-aa9e-c321f7a566b9,Two Docs Brewing Co.,planning,,Lubbock,Texas,79401,United States,,,,http://twodocsbrewing.com,Texas,2026-02-22 21:29:36
5cccb3f6-eb09-4a57-9709-d6ea09547e9c,Two Dude Brew,planning,,Clearlake,California,95422-8159,United States,-122.6263728,38.9582307,7075337600,,California,2026-02-22 21:29:36
8b8dec5f-62d9-4970-8425-446c9f72026f,Two Knights Brewing,planning,,Austin,Texas,78701-3720,United States,,,5124176561,,Texas,2026-02-22 21:29:36
8d0e0a59-2799-4825-a275-bb109dc0fc10,Uncrafted Territory Brewing Company,planning,,Beaver Dam,Kentucky,42320-1915,United States,,,2707753131,,Kentucky,2026-02-22 21:29:36
bb57eee2-6d46-4318-a503-e3b003f9a5b6,Under Pressure Brewing Company,planning,,Plymouth,Minnesota,55442-3211,United States,,,6128509779,http://www.underpressurebrewing.com,Minnesota,2026-02-22 21:29:36
6cb41bae-ffe9-4d38-b89c-b272be7070aa,Underbite Brewing,planning,,Knoxville,Tennessee,37909-1079,United States,,,,,Tennessee,2026-02-22 21:29:36
a645a825-1f6a-4b58-884b-cc3b88276a73,Unified Beerworks,planning,,Ballston Lake,New York,12019-1734,United States,,,5184284185,http://unified-beerworks.com,New York,2026-02-22 21:29:36
83e8ad76-de1e-4d1d-9b78-05acc55b343c,Unify Brewing Company,planning,,Glenwood Springs,Colorado,81601-3215,United States,,,8164566374,http://www.UnifyBrewing.com,Colorado,2026-02-22 21:29:36
b1ef75c0-ad17-4e34-aaf1-761af30aee08,Union House Brewing LLC,planning,,Plum City,Wisconsin,54761-0055,United States,,,,,Wisconsin,2026-02-22 21:29:36
0101bc6d-8868-4673-9ed5-f15c5e545b96,Union Works Brewery LLC,planning,,Humboldt,Kansas,66748-1050,United States,,,,,Kansas,2026-02-22 21:29:36
00ea9c67-130c-4fa0-9b92-8cfb2b6ca81f,"Unnamed Beer Company, LLC",planning,,Boulder,Colorado,80301,United States,,,,http://www.unnamedbeer.com,Colorado,2026-02-22 21:29:36
d6349994-f0fb-4b87-a49d-b1647f711e26,Upslope Brewing Company,planning,,Boulder,Colorado,80301,United States,,,3033961898,,Colorado,2026-02-22 21:29:36
e10497e6-85a6-4ed8-a643-80696a566375,Upward Brewing Co.,planning,,Livingston Manor,New York,12758-,United States,,,8457980471,http://www.upwardbrewing.com,New York,2026-02-22 21:29:36
7b2fe435-2c61-4045-a631-c87c309ca8c2,Uranus Brewery,planning,,Saint Robert,Missouri,65584,United States,,,5735282924,http://www.UranusMissouri.com,Missouri,2026-02-22 21:29:36
716c0a61-1880-4229-a2bf-41f061eb6d69,Urban Renewal Brewery,planning,,Chicago,Illinois,60640,United States,,,7744874619,http://www.urbanrenewbrew.com,Illinois,2026-02-22 21:29:36
9b0f39aa-f7db-4378-a80c-7cfc88541776,Ursa Minor Brewing,planning,,Duluth,Minnesota,55806,United States,,,2182690537,http://www.ursaminorbrewing.com,Minnesota,2026-02-22 21:29:36
032e8235-e88f-4a5c-97a5-77e536a29e2d,Van Der Brew,planning,,Winthrop,Maine,04364-1253,United States,,,2074411102,,Maine,2026-02-22 21:29:36
78cb7d62-ff5b-4e03-a5fc-0553b9fa3428,Vanport Brewing Company,planning,,Portland,Oregon,97211-2907,United States,,,5032670219,,Oregon,2026-02-22 21:29:36
376af0a3-abdd-42e8-850d-0635374c2e86,Velveteen Brewing Co,planning,,Mamaroneck,New York,10543-4719,United States,,,,,New York,2026-02-22 21:29:36
add3dcfb-12fd-4d9f-be5d-5119961df9ce,Vibrant Shore Brewing Company,planning,,Virginia Beach,Virginia,23451-2005,United States,,,8082805895,,Virginia,2026-02-22 21:29:36
affe57b1-0891-4df3-aef1-28a3546e6571,Vitamin Sea Brewing,planning,,Hull,Massachusetts,02045-2907,United States,,,7815894569,,Massachusetts,2026-02-22 21:29:36
ba813e75-fa19-44a3-bab2-7927849962c2,Vivio's Food,planning,,Detroit,Michigan,48207-4516,United States,,,3133931711,http://www.viviosdetroit.com,Michigan,2026-02-22 21:29:36
70fe5224-37e2-431e-81ef-8b28168d4da4,Von Ebert Brewing,planning,14021 NE Glisan St,Portland,Oregon,97230,United States,-122.5187026,45.52726898,,,Oregon,2026-02-22 21:29:36
4435d82d-70bf-4e0d-90df-d9b849ed8931,Walter Station Brewery,planning,,Phoenix,Arizona,85034-1820,United States,-112.0773456,33.4485866,2674216316,http://www.walterstation.beer,Arizona,2026-02-22 21:29:36
4bf53592-21c4-46b8-96a8-595144ed971d,Wandering Griffin,planning,,Beavercreek,Ohio,45324-9095,United States,,,9379565216,http://www.wanderinggriffin.com,Ohio,2026-02-22 21:29:36
8e46e558-55b6-4c93-bf99-2ba3f2ba2a59,Waypost Brewing Co.,planning,,Fennville,Michigan,49408,United States,,,6169162362,http://waypostbeer.com,Michigan,2026-02-22 21:29:36
9fa40256-171d-4372-ab21-1d87863f677c,Weilbacher Brewery,planning,,New Braunfels,Texas,78130-5104,United States,,,5126637507,http://www.weilbacherbeer.com,Texas,2026-02-22 21:29:36
d2c47650-77bb-4a11-bf6d-7be3103014d0,Westbound and Down,planning,,Denver,Colorado,80204,United States,,,7205023121,,Colorado,2026-02-22 21:29:36
00950932-b737-4232-a18b-84106a891c93,Westlake Brewing Company,planning,,Dallas,Texas,75226-1607,United States,,,8779942337,http://www.westlakebeer.com,Texas,2026-02-22 21:29:36
6121940c-efce-406a-aa66-192515c4a63b,"Westslope Brewing, LLC",planning,,Lolo,Montana,59847-9757,United States,,,4065316959,http://www.westslopebrewing.com,Montana,2026-02-22 21:29:36
c63f9f73-f694-4668-8e90-977ec08e1604,Westwind Brewery Co.,planning,,Elkhart,Indiana,46514-2204,United States,,,5742745073,http://www.westwindbrewery.com,Indiana,2026-02-22 21:29:36
8dfd9c89-ac49-475c-8caa-b210120a8229,Wheatland Spring Brewery,planning,,Alexandria,Virginia,22314-4308,United States,,,,,Virginia,2026-02-22 21:29:36
35279122-92ea-403b-a946-dbc578ce4bcd,Whirling Skirmish Brewing Company,planning,,Scottsdale,Arizona,85254-2513,United States,-111.8992365,33.5091215,6023592489,,Arizona,2026-02-22 21:29:36
debc3cf5-e1c4-4de1-adb0-d6bd5f001ec3,Whiskey Point Brewing Company,planning,,Beaver Island,Michigan,49782-5105,United States,,,2313737842,http://www.whiskeypointbrewing.com,Michigan,2026-02-22 21:29:36
6d1e42ff-6f59-4a31-afa2-e9fbdbb5661f,Whistleing Springs Brewing Company / Dark Hills Brewery,planning,,Lowell,Arkansas,72745-9294,United States,-94.1307587,36.2553543,4792836365,http://www.darkhillsbrew.com,Arkansas,2026-02-22 21:29:36
d1cb2052-1155-4415-bb79-0d293a714de3,White Clay Brewing Company,planning,,Landenberg,Pennsylvania,19350-1540,United States,,,,,Pennsylvania,2026-02-22 21:29:36
0b7dfe2c-2617-4aa6-9578-9aa1bc63e71f,White Raven Brewing,planning,,Warsaw,Indiana,46582-8089,United States,,,5747030643,http://www.whiteravenbrewing.com,Indiana,2026-02-22 21:29:36
bb868abb-212b-4862-a8b2-0077272c9dfc,Whitis AleWorks,planning,,Houston,Texas,77069-3424,United States,,,,,Texas,2026-02-22 21:29:36
a299a563-434d-45ea-babc-0e0b3b0434ec,Whitman Brewing Company,planning,,Saratoga Springs,New York,12866,United States,,,6317868701,http://www.whitmanbrewing.com,New York,2026-02-22 21:29:36
86217917-be17-4445-8056-4f8b734200af,Wicked Monkey Brewing Co,planning,,Marana,Arizona,85653-8154,United States,-111.2157091,32.4446988,,,Arizona,2026-02-22 21:29:36
729eb0a6-cc43-408e-9f9d-e35321d65261,Wild East Brewing Co.,planning,,Brooklyn,New York,11215-5511,United States,,,,http://www.wildeastbrewing.com,New York,2026-02-22 21:29:36
8d18bc5f-91ae-48b4-8333-b2858f1649fb,Wild Hordeum Brewing Co.,planning,,Titusville,Florida,32796-2357,United States,,,7274886300,,Florida,2026-02-22 21:29:36
9fff553d-8ede-435a-ab11-01b8bbed9b18,Willcott Brewing Company,planning,,Holton,Kansas,66436-1703,United States,,,7853381611,http://www.willcottbrewing.com,Kansas,2026-02-22 21:29:36
b0b1336f-c352-46cb-9bc7-d1be23916f48,Wilmington Brew Works,planning,,Wilmington,Delaware,19802-2542,United States,,,3027574971,http://www.wilmingtonbrewworks.com,Delaware,2026-02-22 21:29:36
d5a5e1ba-5fde-4c6a-b2e2-d0cb96757489,Wizards of Williams Hops Garden and Craft Brewery,planning,,Williams,Oregon,97545,United States,,,5414156191,,Oregon,2026-02-22 21:29:36
8af9aa93-cf66-48a2-b1fc-c354ad102e5f,Wolf Brewing Company,planning,,Harrisburg,Pennsylvania,17112-1550,United States,,,7176452752,http://www.wolfbrewingco.com,Pennsylvania,2026-02-22 21:29:36
e58f2bb3-b382-4000-9977-ac2f5030da96,Wonky Brew Factory,planning,,Aurora,Illinois,60506-5749,United States,,,,,Illinois,2026-02-22 21:29:36
449f255b-3b62-4cce-95f7-03fd57e76c9e,Woodbine Farm Brewery,planning,,Manassas,Virginia,20112,United States,,,5712057460,http://Woodbinefarmandbrewery.com,Virginia,2026-02-22 21:29:36
c346bd50-0c32-4700-816e-b8aa8d111630,Wooden Robot,planning,,Charlotte,North Carolina,28203-4263,United States,,,7723594993,,North Carolina,2026-02-22 21:29:36
2d4ca2bd-4f74-4623-8c93-2564ebd9e2b9,Woodhouse Blending & Brewing,planning,,Santa Cruz,California,95060-,United States,-122.0297182,36.974201,6198889489,,California,2026-02-22 21:29:36
0106f90d-19de-4031-bbed-ed732be5a9ae,Woodland Republic Brewing & Blending,planning,412 5th St,Rapid City,South Dakota,57701-2742,United States,-103.2244639,44.08150095,,http://woodlandrepublicbrewing.com,South Dakota,2026-02-22 21:29:36
eb859746-2153-4704-bae9-a39ba7e725c7,Woods Cabin Brewery,planning,,Yarrow Point,Washington,98004,United States,,,4258945483,,Washington,2026-02-22 21:29:36
7bbe8ee2-c1ed-458f-923a-93d6e2dea8db,World's End Brewpub,planning,,Grand Lake,Colorado,80447,United States,,,3035515637,http://www.ourplacebrewhaus.com,Colorado,2026-02-22 21:29:36
b39f4d9c-8aa9-48d9-9c07-e26da7557ea3,Yaxx Brewing Company,planning,,Waco,Texas,76712-3284,United States,,,8014730669,,Texas,2026-02-22 21:29:36
aa43f7b4-5ece-4fd5-9dac-9eb81124ddf0,York Beach Beer Company,planning,,York,Maine,03902,United States,,,,,Maine,2026-02-22 21:29:36
6b4ce9ea-b66c-455a-b284-8a629b7f8fc8,Young's Brewing,planning,,Wexford,Pennsylvania,15090,United States,,,,,Pennsylvania,2026-02-22 21:29:36
