id,name,brewery_type,address_1,city,state_province,postal_code,country,longitude,latitude,phone,website_url,state,processed_at
7c669ae6-460d-476b-bc56-0b4d566a152c,4 Stitch Brewing Co - Brewery & Taproom,taproom,16709 9th Ave SE,Mill Creek,Washington,98012-6309,United States,-122.21991381534,47.84671432549,4252247583,https://www.4stitchbrewing.com,Washington,2026-02-22 21:29:36
025dbb4f-15b3-483e-b78a-348914fa0136,49th State Brewing Co - Ted Stevens,taproom,5000 W International Airport Rd,Anchorage,Alaska,99502-1023,United States,-149.99057054233,61.177175621109,9077432504,https://www.49thstatebrewing.com/ted-stevens,Alaska,2026-02-22 21:29:36
e062c040-4ff9-46f1-9f3d-172626694cb0,7 Seas Brewing Co - Gig Harbor,taproom,2905 Harborview Dr,Gig Harbor,Washington,98335-1910,United States,-122.577347,47.328217,2535148129,https://www.7seasbrewing.com/gig-harbor,Washington,2026-02-22 21:29:36
ddca4439-e425-4bf9-9944-3033551d7e76,Atlas Brew Works - Navy Yard,taproom,1201 Half St SE Ste 120,Washington,District of Columbia,20003-4563,United States,-77.007736915344,38.875527731946,2025252001,https://atlasbrewworks.com/pages/navy-yard,District of Columbia,2026-02-22 21:29:36
cdc43a52-ef7a-4907-bb8e-300416c03f01,Badass Brews,taproom,98 N 1st E St,Green River,Wyoming,82935-4216,United States,-109.46636513206,41.528514045356,13078716737,https://www.facebook.com/profile.php?id=100088288374921&mibextid=hIlR13,Wyoming,2026-02-22 21:29:36
47db24a0-64ed-4311-b59a-7e3b0183ae2b,Bale Breaker & Yonder Cider Taproom,taproom,826 NW 49th St,Seattle,Washington,98107-3614,United States,-122.367488,47.664897,5095577668,https://www.bbycballard.com/,Washington,2026-02-22 21:29:36
45e5c569-1abb-496c-a961-9d2f2686b2d3,Bestens Brewery Ltd,taproom,Church Lane,Horsham,West Sussex,RH13 6LU,England,-0.26049,51.041848,1403892556,https://www.bestensbrewery.co.uk/,West Sussex,2026-02-22 21:29:36
c1b16bee-8dc2-4b8f-ae1a-3f9134183d29,Birmingham District Brewing,taproom,2201 2nd Ave SvSte 102,Birmingham,Alabama,35233-2303,United States,-86.800083617111,33.512227971511,2052025779,https://www.birminghamdistrictbrewing.com,Alabama,2026-02-22 21:29:36
054cbb4c-2427-493a-98d6-00e3d3baeb1e,Blue Raven Brewery,taproom,209 E 18th St,Cheyenne,Wyoming,82001-4507,United States,-104.81996920028,41.157018313336,3073691978,https://www.blueravenbrewery.com,Wyoming,2026-02-22 21:29:36
243eba27-3da2-4016-b24b-b83d3e4da5da,Braided River Brewing Company,taproom,420 St Louis St,Mobile,Alabama,36602-2522,United States,-88.0484051963,30.692783670095,2513016879,https://www.braidedriverbrewing.com,Alabama,2026-02-22 21:29:36
2ebb09a1-929b-4a1b-8f02-0a5536728b3c,Brolly Brewing,taproom,Fittleworth Road,Billinghurst,West Sussex,RH14 0ES,England,-0.521971,51.010214,7720847017,https://www.brollybrewing.co.uk/,West Sussex,2026-02-22 21:29:36
bf564a44-8658-46d4-9456-b21321d4b166,Camp Colvos Brewing - Tacoma,taproom,2104 Commerce St,Tacoma,Washington,98402-1212,United States,-122.43725981349,47.242891328278,2533145704,https://campcolvos.com,Washington,2026-02-22 21:29:36
6df522c7-de96-4790-a66a-510f9591b7a2,Chainline Brewing Company - Chainline Station,taproom,604 5th Pl S,Kirkland,Washington,98033-6673,United States,-122.19816854523,47.670639091347,4255424550,https://chainlinebrewing.com,Washington,2026-02-22 21:29:36
6b564b4d-bdfb-456a-b845-6e28d5c67d78,Crooked Run Fermentation,taproom,550 Morse St NE #120,Washington,District of Columbia,20002-8455,United States,-76.997879361079,38.907330452348,2023559010,https://crookedrunfermentation.com/washington-dc,District of Columbia,2026-02-22 21:29:36
bb8e4f8e-3197-4ce7-9ee5-41f3f8f2c192,Dark Star Brewing Co Ltd,taproom,Star Road,Horsham,West Sussex,RH13 8RA,England,-0.304978,50.957145,1403713085,https://www.darkstarbrewing.co.uk/,West Sussex,2026-02-22 21:29:36
4c507b39-6134-4932-8515-7004e4d5876f,District Brewing - Ferndale,taproom,2000 Main St,Ferndale,Washington,98248-4035,United States,-122.58975789629,48.846822336495,3603920808,https://www.districtbrewco.com/ferndale,Washington,2026-02-22 21:29:36
b29882fe-e037-4e4a-a164-eb76723893ac,Dog and Pony Brewing Company,taproom,5427 Binder Rd,Cashmere,Washington,98815-9690,United States,-120.47773889783,47.508453646467,5092640800,https://www.facebook.com/DogAndPonybrewing,Washington,2026-02-22 21:29:36
5332111a-ac33-4b19-a2a5-38dbc205b36f,Fast Fashion Brewing - Lower Queen Anne,taproom,16 Roy St,Seattle,Washington,98109-4018,United States,-122.35597126075,47.625587077247,2064202569,https://themasonryseattle.com/fast-fashion-lqa-tasting-room,Washington,2026-02-22 21:29:36
5591fbd3-5000-439c-b685-5a785829aa08,Firebird Brewing Company Ltd,taproom,Lynwick Street,Horsham,West Sussex,RH12 3UW,England,-0.45414,51.09654,1403823180,https://firebirdbrewing.com/,West Sussex,2026-02-22 21:29:36
4236bf9c-5c3a-4486-9922-47329c33df32,Franklin's Brewing Co,taproom,Highfield Farm,Lewes,East Sussex,BN8 5AR,England,0.089645,50.903057,1273814447,https://www.franklinsbrewery.co.uk/,East Sussex,2026-02-22 21:29:36
a1529e15-15c5-404c-a483-96c923e4ccaf,Fremont Brewing Co - Columbia City Urban Beer Garden,taproom,3808 S Edmunds St #1730,Seattle,Washington,98118-1730,United States,-122.285032403,47.559025815262,2064202407,https://www.fremontbrewing.com/columbia-city-urban-beer-garden,Washington,2026-02-22 21:29:36
1f55e196-b3b9-4e4c-a227-cfe03e56b570,Fremont Brewing Co - Fremont Urban Beer Garden,taproom,1050 N 34th St,Seattle,Washington,98103-8843,United States,-122.34438475881,47.649149020365,2064202407,https://www.fremontbrewing.com/fremont-urban-beer-garden,Washington,2026-02-22 21:29:36
611fcd19-986e-442c-8fbf-0a41aca20a7f,Future Primitive Brewing Company - Alki Beach Bar,taproom,2536 Alki Ave SW,Seattle,Washington,98116-3013,United States,-122.40683073483,47.580281006304,,https://www.futureprimitivebeer.com,Washington,2026-02-22 21:29:36
f75b8bf1-6fc4-467b-ba8e-cdb09b515042,Goldmark Craft Beers LTd,taproom,The Vinery,Arundel,West Sussex,BN18 9PY,England,-0.507102,50.84058,1903297838,https://goldmarkbeers.co.uk/?v=79cba1185463,West Sussex,2026-02-22 21:29:36
a42cdc23-92ae-4234-a13a-86a3c1af3d8d,Growler Bay Brewing Co,taproom,224 Galena Dr,Valdez,Alaska,99686-3716,United States,-146.35576887116,61.12802549231,9078354222,https://growlerbaybrewing.com,Alaska,2026-02-22 21:29:36
68b44b70-0241-49e7-a83c-270fafe3f9c7,Kauai Island Brewery - Koloa Village,taproom,5460 Koloa Rd Ste I-102,Koloa,Hawaii,96756-9421,United States,-159.46375881751,21.904193100926,8083207979,https://kauaiislandbrewing.com/koloa-village,Hawaii,2026-02-22 21:29:36
793f55c2-e8d8-4e30-91d6-e92d649adcc7,Kissingate Brewery,taproom,Church Lane,Horsham,West Sussex,RH13 6LU,England,-0.26049,51.041848,1403891335,http://www.kissingate.co.uk/,West Sussex,2026-02-22 21:29:36
6de99c22-214e-47a7-907b-5e4055e389b4,Lahaina Brewing Company - Upcountry,taproom,30 Kupaoa St Unit 101,Makawao,Hawaii,96768-6216,United States,-156.33074725987,20.821970474656,8086334477,https://lahainabrew.com/pages/upcountry,Hawaii,2026-02-22 21:29:36
ee3b005d-b4df-418a-8151-c28da97a3731,Lanikai Brewing Co - Volcano,taproom,19-4005 Haunani Rd,Volcano,Hawaii,96785,United States,-155.23551483292,19.428645629499,,https://www.lanikaibrewing.com,Hawaii,2026-02-22 21:29:36
4791280b-8d59-4ae5-9bd4-36911124cb09,Missing Link Brewery Ltd,taproom,Selsfield Road,East Grinstead,West Sussex,RH16 4QS,England,-0.070719,51.079995,7515336785,https://missinglinkbrewing.com/,West Sussex,2026-02-22 21:29:36
fb6f1000-2807-4e81-ae94-649bc859fbbe,Ola Brew Co - Hilo,taproom,1177 Kilauea Ave,Hilo,Hawaii,96720-4297,United States,-155.086797,19.707123,,https://www.olabrewing.com,Hawaii,2026-02-22 21:29:36
74ecf1e8-780b-4fdf-a910-722bb60f8abb,Ola Brew Co - Kona,taproom,74-5598 Luhia St Ste A,Kailua Kona,Hawaii,96740-3151,United States,-155.07667210407,19.711806683615,8087310917,https://www.olabrewco.com/hilotaproom,Hawaii,2026-02-22 21:29:36
92398e11-aee4-469d-a522-52ff39843cd8,Perkiomen Valley Brewery,taproom,101 Walnut St,Green Lane,Pennsylvania,18054,United States,-75.4716647,40.3381909,2158726424,http://www.perkiomenvalleybrewery.com,Pennsylvania,2026-02-22 21:29:36
86b5a710-4d68-4937-8350-3af75ca30e15,Postdoc Brewing - Kenmore,taproom,7204 NE 175th St,Kenmore,Washington,98028-3561,United States,-122.2440866,47.7571424,4259495295,https://www.postdocbrewing.com,Washington,2026-02-22 21:29:36
80ebf698-3075-4896-b205-cde24a5a2b91,Red Bear Brewing Co,taproom,209 M St NE,Washington,District of Columbia,20002-3406,United States,-77.002399999789,38.906515476314,2028496130,http://www.redbear.beer,District of Columbia,2026-02-22 21:29:36
b4f12b40-2c65-4c05-995e-1fdd7d5bb473,Right Proper Brewing Company - Eckington,taproom,1625 Eckington Pl NE,Washington,District of Columbia,20002-2129,United States,-77.003871561079,38.91206953991,2024502739,https://www.rightproperbrewing.com/eckington,District of Columbia,2026-02-22 21:29:36
bd91872c-4602-496d-bc4f-696118394f99,Silver Gulch Brewing Co - Anchorage,taproom,5000 W International Airport Rd,Anchorage,Alaska,99502,United States,-149.98284637329,61.173909023811,9072481048,https://silvergulch.com/anchorage,Alaska,2026-02-22 21:29:36
9f0a5c89-d187-4b92-aeb7-ae6937fd4c59,Stahoo's Brewery and Taproom,taproom,1015 E C St,Casper,Wyoming,82601-2124,United States,-106.311616377,42.854939790534,3072470464,http://www.stahoosbrewery.com,Wyoming,2026-02-22 21:29:36
27853f3a-ed0f-48d9-bce7-4bc73989d658,The Beak Brewery Limited,taproom,South Street,Lewes,East Sussex,BN8 6JL,England,0.024917,50.868313,1273473094,https://beakbrewery.com/,East Sussex,2026-02-22 21:29:36
cf1497a1-7064-4107-a8f9-8e8b40a01029,The Three Legs Brewing Co,taproom,Udimore Road,Rye,East Sussex,TN31 6BX,England,0.611331,50.945341,7939997622,http://www.thethreelegs.co.uk/,East Sussex,2026-02-22 21:29:36
c508ae1d-6ec9-4975-bb8e-46f6509c7ef2,Tongue River Brewing Company,taproom,530 US-14,Ranchester,Wyoming,82839-5017,United States,-107.15706277448,45.057703011972,13076551901,https://www.trbrew.com,Wyoming,2026-02-22 21:29:36
a271f4cf-e0bd-4720-85ef-324b805973eb,True Story Brewing,taproom,5510 Crestwood Blvd,Birmingham,Alabama,35212-4131,United States,-86.747627063764,33.529683881405,2055934144,https://truestorybrewing.com,Alabama,2026-02-22 21:29:36
637f25db-22ec-4376-ac90-c723340287c1,UnBarred Brewery,taproom,Elder Place,Brighton,East Sussex,BN1 4GF,England,-0.138599,50.832867,1273894563,https://www.unbarredbrewery.com/,East Sussex,2026-02-22 21:29:36
59a9423c-98a7-410d-8584-fe4e1c8bd48d,Valdez Brewing,taproom,141 Galena Dr,Valdez,Alaska,99686,United States,-146.35308101164,61.128612336934,9078354123,https://valdezbrewing.com,Alaska,2026-02-22 21:29:36
c2bb4039-7e82-4456-99c7-9ce22327d06d,Westby Edge Brewing,taproom,714 W 20th St,Cheyenne,Wyoming,82001-3402,United States,-104.81533827185,41.172439136714,3073691555,https://www.westbyedge.com,Wyoming,2026-02-22 21:29:36
