id,name,brewery_type,address_1,city,state_province,postal_code,country,longitude,latitude,phone,website_url,state,processed_at
63baab9a-b561-4eff-8619-f95290a61b77,21st Amendment Brewery,regional,2010 Williams St Unit A,San Leandro,California,94577-2334,United States,-122.1772928,37.71130036,5105952111,http://www.21st-Amendment.com,California,2026-02-22 21:29:36
ac2f41ed-e1e8-4586-aa78-253543db7714,4 Hands Brewing Co,regional,1220 S 8th St,Saint Louis,Missouri,63104-3610,United States,-90.19762012,38.61526593,3144361559,http://www.4handsbrewery.com,Missouri,2026-02-22 21:29:36
75eff8e1-7c25-483a-a2b2-49ecdbf16d31,5 Lamps Brewery,regional,84-87 Camden St.,Dublin,Dublin,D02 DH36,Ireland,-6.26585621,53.33596635,,https://the5lampsbrewery.com/home/,Dublin,2026-02-22 21:29:36
c074ba4c-0b31-4344-a85a-7930df7fb410,Abita Brewing Co,regional,166 Barbee Rd,Covington,Louisiana,70433-8651,United States,-90.056477,30.481981,9858933143,http://www.abita.com,Louisiana,2026-02-22 21:29:36
d065903f-f9fc-4e4c-a64d-9b69905431b5,Alaskan Brewing Co.,regional,5429 Shaune Dr,Juneau,Alaska,99801-9540,United States,-134.4918763,58.35681231,9077805866,http://www.alaskanbeer.com,Alaska,2026-02-22 21:29:36
091edbcc-f9fc-484e-9c04-c18ed505e2ac,Alchemist Cannery,regional,35 Crossroad,Waterbury,Vermont,05676-9003,United States,,,8022447744,http://www.alchemistbeer.com,Vermont,2026-02-22 21:29:36
c812aa3f-208b-49e2-a1e6-96cae8943605,Ale Asylum,regional,2002 Pankratz St,Madison,Wisconsin,53704-4024,United States,-89.35416285,43.12046815,6086633926,http://www.aleasylum.com,Wisconsin,2026-02-22 21:29:36
f8097dbc-c8e6-4068-9540-5c4bd4ac0bcf,AleSmith Brewing Co,regional,9990 Alesmith Ct,San Diego,California,92126-4200,United States,-117.1495496,32.88858458,8585499888,http://www.alesmith.com,California,2026-02-22 21:29:36
8a7a2bc0-0f42-4889-94ef-7f8f647268fa,Allagash Brewing Co,regional,50 Industrial Way,Portland,Maine,04103-1270,United States,-70.3179518,43.7030951,2078785385,http://www.allagash.com,Maine,2026-02-22 21:29:36
6889b781-b8f6-4a5a-a1ef-ab3e4c72aed9,Alltech's Lexington Brewing,regional,475 Angliana Ave,Lexington,Kentucky,40508-3134,United States,-84.51599645,38.04950651,8592552337,http://www.Kentuckyale.com,Kentucky,2026-02-22 21:29:36
55bbdf14-e891-4572-9ed2-9c6bf25edda9,Anderson Valley Brewing Co,regional,17700 CA-253,Boonville,California,95415,United States,-123.3560542,39.00141731,7078952337,http://www.avbc.com,California,2026-02-22 21:29:36
70fc7667-dda2-4cf0-ae7e-cbb43b5c43c4,Atwater Brewing Co,regional,237 Joseph Campau St,Detroit,Michigan,48207-4107,United States,-83.072904,42.4190883,3138779205,http://www.atwaterbeer.com,Michigan,2026-02-22 21:29:36
e8f104ff-0e7e-429d-b3da-ae6655830e8c,August Schell Brewing Co,regional,Schells Park/1860 Schell Rd,New Ulm,Minnesota,56073,United States,,,5073545528,http://www.schellsbrewery.com,Minnesota,2026-02-22 21:29:36
9a280fbb-adee-484a-876b-50e71235a711,Austin Beerworks,regional,3001 Industrial Ter,Austin,Texas,78758-7609,United States,-97.72984444,30.3795705,5128212494,http://www.austinbeerworks.com,Texas,2026-02-22 21:29:36
3bde4342-bfc1-49cb-9b40-7fb1aef26886,Avery Brewing Co,regional,4910 Nautilus Ct N,Boulder,Colorado,80301-3242,United States,-105.2047652,40.0625835,,,Colorado,2026-02-22 21:29:36
7006a17a-74da-497a-ba35-2338c7efbb25,Aviator Brewing Company,regional,209 Technology Park Ln,Fuquay Varina,North Carolina,27526-9311,United States,-78.8073896,35.61695983,9195672337,http://www.aviatorbrew.com,North Carolina,2026-02-22 21:29:36
72b7fb2e-ebb2-4f46-8c85-758c6707d42a,Bale Breaker Brewing Company,regional,1801 Birchfield Rd,Yakima,Washington,98901-9577,United States,-120.435573,46.57685541,5094244000,http://www.balebreaker.com,Washington,2026-02-22 21:29:36
299656e1-ccc9-4659-8fe8-e62b86be62eb,Batzen,regional,Via Andreas Hofer 30,Bolzano,Bolzano,39100,Italy,46.501855459782,11.357376358549,390471050950,https://www.batzen.it/brauerei/,Bolzano,2026-02-22 21:29:36
8fb49b63-7bf4-489e-ab18-bf77a99dfc34,"Baxter Brewing Co, LLC",regional,130 Mill St,Lewiston,Maine,04240-7774,United States,-70.219607,44.09567728,2073336769,http://www.baxterbrewing.com,Maine,2026-02-22 21:29:36
c316f64a-b4d1-40f5-a5b3-65cc2498cbc5,Bear Republic Brewing Co,regional,345 Healdsburg Ave,Healdsburg,California,95448-4105,United States,-122.8713046,38.6110317,7074332337,http://www.bearrepublic.com,California,2026-02-22 21:29:36
13209af8-ee4b-40f6-8396-17ecb6ff09ff,Bear Republic Brewing Co - Production facility,regional,110 Sandholm Ln Ste 10,Cloverdale,California,95425-4439,United States,-123.0108285,38.78169817,7078942722,http://www.bearrepublic.com,California,2026-02-22 21:29:36
8617a78e-e352-479d-adfd-8c1cb2aef36a,Belching Beaver Brewery,regional,1334 Rocky Point Dr,Oceanside,California,92056-5864,United States,-117.292416,33.2139275,7607321415,,California,2026-02-22 21:29:36
753c642c-4239-427f-a7e1-7c8d2d4f28e3,"Bell's Brewery, Inc",regional,8938 Krum Ave,Galesburg,Michigan,49053-9558,United States,,,2693822338,http://www.bellsbeer.com,Michigan,2026-02-22 21:29:36
8b43bd7c-41f0-4865-a9cf-0d82a7b53dcb,Bent Paddle Brewing Co,regional,1912 W Michigan St,Duluth,Minnesota,55806-2135,United States,-92.1219171,46.7676912,2182792722,http://www.bentpaddlebrewing.com,Minnesota,2026-02-22 21:29:36
3cbbbfeb-a69b-4cea-be92-f7ae2808a1eb,Berkshire Brewing Co Inc,regional,12 Railroad St,South Deerfield,Massachusetts,01373-0096,United States,-72.61025086,42.47779797,4136656600,http://www.Berkshire-Brewing.com,Massachusetts,2026-02-22 21:29:36
9f87a804-b9ce-4264-9cc1-c8f6edfdb83f,Big Sky Brewing Co,regional,5417 Trumpeter Way,Missoula,Montana,59808-8680,United States,-114.0730248,46.9224156,4065492777,http://www.bigskybrew.com,Montana,2026-02-22 21:29:36
8f291173-eb33-4277-96a6-81a3a1b32709,BJ's Brewhouse,regional,602 E Central Ave,Temple,Texas,76501-4319,United States,-97.33525536,31.09509964,7145002400,,Texas,2026-02-22 21:29:36
b4f332ec-a7a0-4acb-8d19-9c4073a4b84e,Blues City Brewing Co,regional,5151 E Raines Rd,Memphis,Tennessee,38118-7026,United States,-89.8874019,35.0350188,6087854200,http://www.citybrewing.com,Tennessee,2026-02-22 21:29:36
a7928f72-0201-4c7e-bb72-a83016945a2e,Boston Beer Co - DBA Samuel Adams Brewing Co,regional,1625 Central Pkwy,Cincinnati,Ohio,45214-2423,United States,-84.5207651,39.11257,6173685000,http://www.samueladams.com,Ohio,2026-02-22 21:29:36
9de1818b-9215-4043-a36b-d1dce42776ae,Boulder Beer Co,regional,2880 Wilderness Pl,Boulder,Colorado,80301-5401,United States,-105.2480158,40.026439,,,Colorado,2026-02-22 21:29:36
8aa463ce-a1d9-44ce-9e1a-36f16ff8fdf4,Boulevard Brewing Co,regional,2501 Southwest Blvd,Kansas City,Missouri,64108-2345,United States,-94.59682307,39.08196355,8164747095,http://www.boulevard.com,Missouri,2026-02-22 21:29:36
8e2d0758-3a90-41e6-ae8b-14e673e8a383,Breakside Brewery & Taproom,regional,5821 SE International Way,Milwaukie,Oregon,97222-4633,United States,-122.6032529,45.4317535,5037196475,http://www.breakside.com,Oregon,2026-02-22 21:29:36
42684296-1506-42cc-a14c-1cd31a69bfc4,"Brew Hub, LLC",regional,3900 Frontage Rd S,Lakeland,Florida,33815-3205,United States,,,8636987600,http://www.brewhub.com,Florida,2026-02-22 21:29:36
ece3c7b9-4049-4a2d-b24e-d805797f9c3b,Brewery Ommegang,regional,656 County Highway 33,Cooperstown,New York,13326-4737,United States,-74.855063,42.753418,8005441809,http://www.ommegang.com,New York,2026-02-22 21:29:36
e635be49-6e8e-4697-a457-f8febe304d66,BridgePort Brewing Co,regional,1318 NW Northrup St,Portland,Oregon,97209-2808,United States,-122.6848601,45.53133335,5032417179,http://www.bridgeportbrew.com,Oregon,2026-02-22 21:29:36
5ec37fdc-66c6-42ba-b23e-e985eb0c6558,Brooklyn Brewery,regional,79 N 11th St #1 Brewers Row,Brooklyn,New York,11249-1913,United States,,,7184867422,http://www.brooklynbrewery.com,New York,2026-02-22 21:29:36
da14fe75-eedf-47d8-a83f-7c2d23932637,Browar Lwówek,regional,Traugutta 7,Lwówek Śląski,dolnośląskie,59-600,Poland,15.5841981,51.109468,,,dolnośląskie,2026-02-22 21:29:36
b26c3126-b9f8-450a-994d-1f19f3bf1262,Browar Profesja,regional,Kwidzyńska 6E,Wrocław,dolnośląskie,51-416,Poland,17.0946435,51.1297761,,,dolnośląskie,2026-02-22 21:29:36
95e49f64-c6ad-476e-8012-c87463562f18,Browar Stu Mostów,regional,Jana Długosza 2/6,Wrocław,dolnośląskie,51-162,Poland,17.0592865,51.1318701,,,dolnośląskie,2026-02-22 21:29:36
e07b6621-ed3a-4aaf-ad46-81b0f4d44fee,Capital Brewery Co Inc,regional,7734 Terrace Ave,Middleton,Wisconsin,53562-3163,United States,-89.51657978,43.09489645,6088367100,http://www.capitalbrewery.com,Wisconsin,2026-02-22 21:29:36
38973645-52f6-4b59-9f8b-8b88730e3ff9,Captain Lawrence Brewing Co,regional,444 Saw Mill River Rd Ste 100,Elmsford,New York,10523-1031,United States,-73.839113,41.03486,9147412337,http://www.captainlawrencebrewing.com,New York,2026-02-22 21:29:36
3b1a5b42-5517-4da1-b1ee-93b3e3bce99d,Catawba Brewing Co,regional,212 S Green St,Morganton,North Carolina,28655-3525,United States,-81.68543695,35.74471934,8284306883,http://www.CatawbaBrewing.com,North Carolina,2026-02-22 21:29:36
4ef7f47b-2152-427e-89a8-bc3326630ed4,Central Waters Brewing Co,regional,351 Allen St,Amherst,Wisconsin,54406-8954,United States,-89.27970182,44.4422503,7158242739,http://www.centralwaters.com,Wisconsin,2026-02-22 21:29:36
cee664ba-c129-45ea-a00e-8fad713dcea0,Christian Moerlein Brewing Co,regional,1621 Moore St,Cincinnati,Ohio,45202-6438,United States,-84.51533432,39.11322509,5138276025,http://www.christianmoerlein.com,Ohio,2026-02-22 21:29:36
1eff0c5d-93dc-4b96-acec-cdcfd85b6769,Cigar City Brewing Co,regional,3924 W Spruce St,Tampa,Florida,33607-2441,United States,-82.509195,27.959172,8133486363,http://www.cigarcitybrewing.com,Florida,2026-02-22 21:29:36
5476e31e-0ce8-4fdf-9502-ef3e89d34832,City Brewing Co,regional,925 3rd St S,La Crosse,Wisconsin,54601-4411,United States,-91.25335046,43.80435523,6087854200,http://www.citybrewery.com,Wisconsin,2026-02-22 21:29:36
d4cd9789-f251-4b02-ba16-000fc8dc50b4,Colonial Brewing Company,regional,89 Bertie Street,Port Melbourne,VIC,3207,Australia,144.9370538,-37.8285701,61386444044,http://www.cbco.beer/,VIC,2026-02-22 21:29:36
bbcde627-f506-4691-952b-2cf82d65addd,Columbus Brewing Co,regional,2555 Harrison Rd,Columbus,Ohio,43204-3511,United States,-83.0692897,39.9675898,6142243626,http://www.columbusbrewing.com,Ohio,2026-02-22 21:29:36
ff07eef9-fd76-4909-9f8b-e3d690dab516,Community Beer Co,regional,1530 Inspiration Dr # 200,Dallas,Texas,75207-3703,United States,-96.81658792,32.79177896,,,Texas,2026-02-22 21:29:36
95a442ca-6893-4e6a-abc2-1c51f125fefa,Coronado Brewing Co,regional,170 Orange Ave,Coronado,California,92118-1409,United States,-117.1791416,32.6873641,6194374452,http://www.coronadobrewingcompany.com,California,2026-02-22 21:29:36
8e3d6cd2-c95c-432e-963d-2f0c4beb5dfd,Coronado Brewing Co - Production Facility,regional,170 Orange Ave,San Diego,California,92118-1409,United States,-117.094383,32.753124,6192752215,,California,2026-02-22 21:29:36
ca8bfb14-81cf-4c1c-8cd6-78b99cf7b1bd,Crazy Mountain Brewing Co,regional,471 Kalamath St,Denver,Colorado,80204-5019,United States,-105.0002926,39.72361171,9709263009,http://www.crazymountainbrewery.com,Colorado,2026-02-22 21:29:36
9ff5bda3-04ed-48cc-8d63-9c2799a12a42,Creature Comforts Brewing Co.,regional,271 W Hancock Ave,Athens,Georgia,30601-2727,United States,-83.380087,33.95919871,7064101043,http://www.creaturecomfortsbeer.com,Georgia,2026-02-22 21:29:36
f4512d6a-51fd-4e2d-b601-f4666490f0a0,Creature Comforts Production Facility At Southern Mill,regional,355 Oneta St Bldg A100,Athens,Georgia,30601,United States,,,,,Georgia,2026-02-22 21:29:36
731ea370-dfdb-4e79-a63f-b7acd4e32481,Crux Fermentation Project,regional,50 SW Division St,Bend,Oregon,97702-1600,United States,-121.3079657,44.05092629,5413887558,http://www.cruxfermentation.com,Oregon,2026-02-22 21:29:36
ed77e7da-44ac-45b2-bb8c-10285691a58f,D. G. Yuengling and Son Inc,regional,500 Mahantongo St,Pottsville,Pennsylvania,17901,United States,-76.198585,40.682674,5706224141,http://www.yuengling.com,Pennsylvania,2026-02-22 21:29:36
9cb69d16-aaf2-4692-b06f-877f2d69ec8c,D. G. Yuengling and Son Inc,regional,310 Mill Creek Ave,Pottsville,Pennsylvania,17901-8692,United States,-76.1832368,40.6982044,2156319461,http://www.yuengling.com,Pennsylvania,2026-02-22 21:29:36
285cd494-30a4-4dd7-8034-5c0c648cde0a,D. G. Yuengling and Son Inc,regional,11111 N 30th St,Tampa,Florida,33612-6439,United States,-82.42608918,28.04767978,8139728552,http://www.yuengling.com,Florida,2026-02-22 21:29:36
1cd1dfd7-851b-4912-9bfe-2828dddc6540,DC Brau Brewing Company,regional,3178 Bladensburg Rd NE Ste B,Washington,District of Columbia,20018-2214,United States,-76.960092198147,38.929772465303,2026218890,http://www.dcbrau.com,District of Columbia,2026-02-22 21:29:36
1998961a-6504-470f-af2a-15cef23e71b0,Deep Ellum Brewing Co,regional,2821 Saint Louis St,Dallas,Texas,75226-1904,United States,-96.78156845,32.78062733,2148883322,http://www.deepellumbrewing.com,Texas,2026-02-22 21:29:36
9e06a19e-312b-4d45-b264-cecf6e51a783,Deschutes Brewery,regional,901 SW Simpson Ave,Bend,Oregon,97702-3118,United States,-121.3246184,44.04780638,5413858606,http://www.deschutesbrewery.com,Oregon,2026-02-22 21:29:36
281e6980-e2e2-4493-9896-3517e8cafe21,Dogfish Head Craft Brewery,regional,6 Cannery Village Ctr,Milton,Delaware,19968-1308,United States,-75.31158206,38.76691205,3026841000,http://www.dogfish.com,Delaware,2026-02-22 21:29:36
44684d87-a612-43d1-9eda-afd9357f3af1,Donegal Brewing Company,regional,Unit 1 Erneside Business Park,Ballyshannon,Donegal,F94 Y2NE,Ireland,-8.2142367,54.4977199,353719852434,https://mcmbrands.ie/beer/,Donegal,2026-02-22 21:29:36
8f19cd9b-a675-473d-8493-42fd6b12c38e,Drake's Brewing Co.,regional,1933 Davis St Ste 177,San Leandro,California,94577-1256,United States,-122.1791401,37.71493644,5105682739,http://www.drinkdrakes.com,California,2026-02-22 21:29:36
f5bcfd6a-160a-4d65-a5b7-834564023123,Dry Dock Brewing Co - North Dock,regional,2801 Tower Rd,Aurora,Colorado,80011-3508,United States,-104.772404,39.758038,3034005606,http://www.drydockbrewing.com,Colorado,2026-02-22 21:29:36
375f4801-e257-44f8-af0c-1e4bb3804b20,Evolution Craft Brewing Co,regional,200 Elmwood St,Salisbury,Maryland,21804-5522,United States,-75.595254,38.361979,4432602337,http://www.evolutioncraftbrewing.com,Maryland,2026-02-22 21:29:36
e47d18ae-4f7c-4c27-8a28-feae3c16d541,Fat Head's Brewery,regional,,Middleburg Heights,Ohio,44130-2472,United States,,,2168980242,http://www.fatheads.com,Ohio,2026-02-22 21:29:36
888304f6-73fc-44ee-99f4-bf7c04cd39b8,Fiddlehead Brewing,regional,6305 Shelburne Rd,Shelburne,Vermont,05482-4437,United States,-73.2326193,44.3660621,8023992994,http://www.fiddleheadbrewing.com,Vermont,2026-02-22 21:29:36
c40afcb2-b873-44c5-93e8-5d718be8830c,Fieldwork Brewing Co,regional,1160 6th St,Berkeley,California,94710-1247,United States,-122.3022147,37.88157297,5108981203,http://www.fieldworkbrewing.com,California,2026-02-22 21:29:36
860d5477-e4ed-4c74-afc9-66e02056855f,Figueroa Mountain Brewing,regional,45 Industrial Way,Buellton,California,93427-9565,United States,-120.2022226,34.61068975,8056942252,http://www.figmtnbrew.com,California,2026-02-22 21:29:36
209ae692-2dc3-45bd-baf5-6a2ef68c1a6e,Firestone Walker Brewing Co,regional,1400 Ramada Dr,Paso Robles,California,93446-3993,United States,-120.6943059,35.59606059,8052255911,http://www.firestonebeer.com,California,2026-02-22 21:29:36
4748ee56-1199-47ee-87c2-2d9d9250885f,Florida Beer Co,regional,200 Imperial Blvd,Cape Canaveral,Florida,32920-4245,United States,-80.611259,28.398461,3217284114,http://www.floridabeer.com,Florida,2026-02-22 21:29:36
e2b339ba-8984-497a-ba6b-91882dec1515,Flying Dog Brewery,regional,4607 Wedgewood Blvd,Frederick,Maryland,21703-7120,United States,-77.42679107,39.3628322,3016947899,http://www.flyingdogbrewery.com,Maryland,2026-02-22 21:29:36
d2a781ba-48b3-4a49-8202-cafdde5fbd8d,Flying Fish Brewing Co,regional,900 Kennedy Blvd,Somerdale,New Jersey,08083-1031,United States,-75.02089526,39.85394176,8565043442,http://www.flyingfish.com,New Jersey,2026-02-22 21:29:36
231bb644-13a6-4731-b570-459ba212b3f9,Folksbier,regional,101 Luquer St # 103,Brooklyn,New York,11231-3308,United States,-74.00099132,40.6779358,,http://www.folksbier.com,New York,2026-02-22 21:29:36
d9bbc65e-3c8c-4dd6-8489-e16a8fd46888,Foothills Brewing Co,regional,3800 Kimwell Dr,Winston Salem,North Carolina,27103-6708,United States,-80.32680515,36.04816426,3363544030,http://www.foothillsbrewing.com,North Carolina,2026-02-22 21:29:36
f71ae900-2020-454b-a23e-925d7e5dbb4f,Fort George Brewery,regional,1483 Duane St,Astoria,Oregon,97103-3819,United States,-123.8274681,46.1883837,5033257468,http://www.fortgeorgebrewery.com,Oregon,2026-02-22 21:29:36
4431b884-6f1c-495c-8b78-ab3ad0cc9ba1,Fort Point Beer Company,regional,644 Mason St,San Francisco,California,94129-1600,United States,-122.4102278,37.78946124,4159064021,http://www.fortpointbeer.com,California,2026-02-22 21:29:36
195e9808-a949-4f43-ad81-c6da0529fc96,Founders Brewing Co,regional,456 Charlotte St,Detroit,Michigan,48201-2640,United States,-83.0605729,42.34299565,,,Michigan,2026-02-22 21:29:36
e4da6e5d-1e64-4701-ab21-786b0f3a1ff4,Founders Brewing Co,regional,235 Grandville Ave SW,Grand Rapids,Michigan,49503-4037,United States,-85.6765753,42.9524964,6167761195,http://www.foundersbrewing.com,Michigan,2026-02-22 21:29:36
687105f2-ab5e-41b4-adad-73daabd7c087,Founders Brewing Production Facility,regional,900 Hynes Ave SW,Grand Rapids,Michigan,49507-1085,United States,-85.67523323,42.94662234,,,Michigan,2026-02-22 21:29:36
a59a6f78-d894-4d75-835d-1415f6a333ce,Fremont Brewing Co,regional,3409 Woodland Park Ave N,Seattle,Washington,98103-8925,United States,-122.3444367,47.64919175,2064202407,http://www.fremontbrewing.com,Washington,2026-02-22 21:29:36
681f435e-7b73-4e4e-8621-bc1016fde942,Full Sail Brewing Co,regional,506 Columbia St,Hood River,Oregon,97031-2000,United States,-121.5165301,45.71036091,5413862281,http://www.fullsailbrewing.com,Oregon,2026-02-22 21:29:36
6e7d8fda-f517-4aa8-ade3-19d145857052,Fulton Beer,regional,2540 2nd St NE,Minneapolis,Minnesota,55418-3412,United States,-93.26664,45.046388,6128760904,http://www.fultonbeer.com,Minnesota,2026-02-22 21:29:36
d9ab395a-affc-4c9d-bb05-244aeda12cdf,Galway Bay Brewery,regional,Carrowmoneash,Oranmore,Galway,H91 FA31,Ireland,-8.9290923,53.2817059,353861700458,http://www.galwaybaybrewery.com/,Galway,2026-02-22 21:29:36
af7a4a16-fac8-4174-ae07-050ae5f09f81,Galway Hooker Brewery,regional,Deerpark,Oranmore,Galway,H91 DX6N,Ireland,-8.9290923,53.2817059,35391483912,http://www.galwayhooker.ie/,Galway,2026-02-22 21:29:36
34ee7dba-496b-42ca-bf2a-ff24f89ae3eb,Georgetown Brewing Co,regional,5200 Denver Ave S,Seattle,Washington,98108-2246,United States,-122.3256809,47.5552618,2067668055,http://www.georgetownbeer.com,Washington,2026-02-22 21:29:36
26b96041-d01d-4ec8-95a2-d0bb1d050455,GoodLife Brewing Company,regional,70 SW Century Ave 100-464,Bend,Oregon,97701,United States,-121.3302942,44.05138311,5417280749,http://www.goodlifebrewing.com,Oregon,2026-02-22 21:29:36
4aa4af0b-4ec9-4681-b671-a7f231e27e14,Gordon Biersch Brewing Co,regional,357 E Taylor St,San Jose,California,95112-3105,United States,-121.8841169,37.3567304,4082781008,http://www.gordonbiersch.com,California,2026-02-22 21:29:36
8d07cc1f-6941-4ee7-8fbe-6ce91eb7b098,Great Divide Brewing Co,regional,2201 Arapahoe St,Denver,Colorado,80205-2512,United States,-104.9885279,39.7539229,3032969460,http://www.greatdivide.com,Colorado,2026-02-22 21:29:36
5c7ca72a-568e-4586-b3cb-10043ee53764,Great Lakes Brewing Co,regional,1947 W 28th St,Cleveland,Ohio,44113-3422,United States,-81.70571113,41.48405803,2167714404,http://www.greatlakesbrewing.com,Ohio,2026-02-22 21:29:36
f2a06d1e-b89f-40c2-9a52-938dc502ac9b,Green Flash Brewing Co,regional,6550 Mira Mesa Blvd,San Diego,California,92121-4100,United States,-117.113975,32.9167796,8586220085,http://www.greenflashbrew.com,California,2026-02-22 21:29:36
49cf8feb-2997-4da6-99ba-6c2228ffaab1,Half Acre Beer Co,regional,4257 N Lincoln Ave,Chicago,Illinois,60618-2953,United States,-87.6820201,41.9591945,7737548488,http://www.halfacrebeer.com,Illinois,2026-02-22 21:29:36
58f92618-b1c1-4737-b628-13abdfc7e0d9,Hangar 24 Craft Brewery,regional,1710 Sessums Dr,Redlands,California,92374-1909,United States,-117.1419134,34.0831712,9093891400,http://www.hangar24brewery.com,California,2026-02-22 21:29:36
3b88a2c7-a7be-48e9-9da9-590482876f57,Harpoon Brewery,regional,306 Northern Ave Ste 2,Boston,Massachusetts,02210-2367,United States,-71.0348293,42.3465637,6175749551,http://www.harpoonbrewery.com,Massachusetts,2026-02-22 21:29:36
f5157980-ddcd-4b1e-ad28-c3430ab6126f,Harpoon Brewery - Vermont,regional,336 Ruth Carney Dr,Windsor,Vermont,05089-9419,United States,-72.40380616,43.51478045,8026745491,http://www.harpoonbrewery.com,Vermont,2026-02-22 21:29:36
856b578f-849c-463b-85e8-6e1ad852d960,Heavy Seas Beer,regional,4615 Hollins Ferry Rd Ste B,Baltimore,Maryland,21227-4624,United States,-76.678423,39.2320564,4102477822,http://www.hsbeer.com,Maryland,2026-02-22 21:29:36
7e73a2ce-ff58-462d-9230-5277d17bb597,Hermitage Brewing Company,regional,1627 S 7th St,San Jose,California,95112-5932,United States,-121.8665257,37.31531409,4082910966,http://www.hermitagebrewing.com,California,2026-02-22 21:29:36
4b013cfb-62b1-441a-b301-5f1d26c2b48c,Highland Brewing Co,regional,12 Old Charlotte Hwy Ste H,Asheville,North Carolina,28803-9419,United States,,,8282993816,http://www.highlandbrewing.com,North Carolina,2026-02-22 21:29:36
c63bd7c9-1614-4494-8893-077f4e21151e,Indeed Brewing Co,regional,711 15th Ave NE Ste 102,Minneapolis,Minnesota,55413-3103,United States,,,6128435090,http://www.indeedbrewing.com,Minnesota,2026-02-22 21:29:36
17e75f2d-a365-4ad0-99a7-4e5b4ca3088c,Independence Brewing,regional,3913 Todd Ln Ste 607,Austin,Texas,78744-1061,United States,-97.7361012,30.2111313,5127070099,http://www.independencebrewing.com,Texas,2026-02-22 21:29:36
783cf348-6a53-404f-99f6-eac225d1334d,Ipswich Ale Brewery,regional,2 Brewery Pl,Ipswich,Massachusetts,01938-1196,United States,,,9783563329,http://www.ipswichalebrewery.com,Massachusetts,2026-02-22 21:29:36
56289e78-9880-4933-ad9e-e59365be2837,Iron Horse Brewery,regional,1621 Vantage Hwy,Ellensburg,Washington,98926-9001,United States,-120.5200004,47.00287945,5099333134,http://www.ironhorsebrewery.com,Washington,2026-02-22 21:29:36
315fd733-fd6e-4619-af95-98ef88bfba74,Ithaca Beer Co,regional,122 Ithaca Beer Dr,Ithaca,New York,14850-8813,United States,,,6072730766,http://www.ithacabeer.com,New York,2026-02-22 21:29:36
6299623b-bae2-4152-88a5-47e5b63bb4f8,Jack's Abby Brewing,regional,100 Clinton St,Framingham,Massachusetts,01702-6748,United States,-71.4109021,42.2800852,5088720900,http://www.jacksabbybrewing.com,Massachusetts,2026-02-22 21:29:36
4e3b6909-1ec5-4ffe-b86a-d4ddaa7ef86f,Karl Strauss Brewing Co,regional,5985 Santa Fe St,San Diego,California,92109-1623,United States,-117.231429,32.832579,8582732739,http://www.karlstrauss.com,California,2026-02-22 21:29:36
ea45c0c1-0366-4353-be3e-0562f6564ab0,Kettle House Brewing Co.,regional,605 Coldsmoke Ave,Bonner,Montana,59823-8504,United States,,,4067281660,http://www.kettlehouse.com,Montana,2026-02-22 21:29:36
26b358f9-89c5-483a-97e4-0bb511b8a77f,Knee Deep Brewing Co,regional,13395 New Airport Rd Ste H,Auburn,California,95602-7419,United States,-121.0799931,38.95200534,5307974677,http://www.kneedeepbrewing.com,California,2026-02-22 21:29:36
e1223484-9724-4c6b-ad35-68373f26d91e,Kona Brewing Co - Kona Brewery,regional,74-5588 Pawai Pl,Kailua Kona,Hawaii,96740-1615,United States,-155.99946924641,19.642952162406,8083314331,https://konabrewinghawaii.com/locations/kona-brewery,Hawaii,2026-02-22 21:29:36
fad85278-37f6-437b-b9bc-825f20882475,Lakefront Brewery Inc,regional,1872 N Commerce St,Milwaukee,Wisconsin,53212-3701,United States,-87.9051723,43.0547874,4143728800,http://www.lakefrontbrewery.com,Wisconsin,2026-02-22 21:29:36
e5453b50-8dfe-4aee-9cea-d8c4bc5f282b,Left Hand Brewing Company,regional,1265 Boston Ave,Longmont,Colorado,80501-5809,United States,-105.1168403,40.158688,3037720258,http://www.lefthandbrewing.com,Colorado,2026-02-22 21:29:36
085c4b9a-9c7c-433e-ad8e-1160d002f847,"Lion Brewery Inc, The",regional,700 N Pennsylvania Ave,Wilkes Barre,Pennsylvania,18705-2451,United States,-75.859363,41.254896,5708238801,http://www.lionbrewery.com,Pennsylvania,2026-02-22 21:29:36
de0ba3c4-611e-49b4-b136-a6c074b36c4c,Live Oak Brewing Co,regional,1615 Crozier Ln,del Valle,Texas,78617-2129,United States,,,5123852299,http://www.liveoakbrewing.com,Texas,2026-02-22 21:29:36
dfec0210-90f3-4ada-af1e-b4543f19423b,Lonerider Brewing Co,regional,8816 Gulf Ct Ste 100,Raleigh,North Carolina,27617-4628,United States,-78.76254395,35.90357415,9194428004,http://www.loneriderbeer.com,North Carolina,2026-02-22 21:29:36
95fc1431-cef6-4551-b221-cc6fa0fedba4,Long Trail Brewing Co,regional,5520 US Route 4 Jct. Route 4 & 100A,Bridgewater Corners,Vermont,05035,United States,,,8026725011,http://www.longtrail.com,Vermont,2026-02-22 21:29:36
8f160bf6-649a-4365-8703-372aed64eca3,Lord Hobo Brewing Co,regional,5 Draper St,Woburn,Massachusetts,01801-4521,United States,-71.12892319,42.47603755,7812810809,http://lordhobobrewing.com,Massachusetts,2026-02-22 21:29:36
f811f1bc-0d7c-4a83-bb70-e4b44eacdc8e,"Lost Coast Brewery and Cafe - Table Bluff Brewing, Inc.",regional,617 4th St,Eureka,California,95501-1013,United States,-124.1648141,40.80302047,7074454480,http://www.lostcoast.com,California,2026-02-22 21:29:36
6fea98ab-5ca3-4876-a1da-d0004045a00d,Mac and Jacks Brewery Inc,regional,17825 NE 65th St Ste B110,Redmond,Washington,98052-4995,United States,-122.1026326,47.66431006,4255589697,https://www.macandjacks.com,Washington,2026-02-22 21:29:36
337b4c62-2460-4ae7-b271-d022058469cc,MadTree Brewing,regional,3301 Madison Rd,Cincinnati,Ohio,45209-1132,United States,-84.4239715,39.1563725,5138368733,http://www.madtreebrewing.com,Ohio,2026-02-22 21:29:36
b54b16e1-ac3b-4bff-a11f-f7ae9ddc27e0,MadTree Brewing 2.0,regional,5164 Kennedy Ave,Cincinnati,Ohio,45213,United States,-84.4137736,39.1885752,5138368733,http://www.madtreebrewing.com,Ohio,2026-02-22 21:29:36
f781db23-6391-4db3-a70e-885517e9a6d8,Magic Hat Brewing Co/ North American Breweries,regional,5 Bartlett Bay Rd,South Burlington,Vermont,05403-7727,United States,-73.21616773,44.42808692,8026582739,,Vermont,2026-02-22 21:29:36
90ecf47b-00b7-4b34-8ce3-2a704d6eddd6,Marble Brewery - Production,regional,111 Marble Ave NW,Albuquerque,New Mexico,87102-2315,United States,-106.6467287,35.0928224,5052432739,http://www.marblebrewery.com,New Mexico,2026-02-22 21:29:36
458bd9fd-c86a-49ec-b0c3-bf0a3370e85b,Melvin Brewing,regional,624 County Road 101,Alpine,Wyoming,83128-0314,United States,-111.03831502351,43.165320030658,3076540426,http://www.melvinbrewing.com,Wyoming,2026-02-22 21:29:36
6fdaf0f7-d914-4314-b744-eae724453c6e,Melvin Brewing,regional,110 Hilltop Village Center Dr,Eureka,Missouri,63025,United States,-90.649695,38.52826,6365499231,http://www.melvinbrewing.com,Missouri,2026-02-22 21:29:36
65621b87-399c-4756-915a-4a0b8f2fb89b,Mighty Squirrel,regional,1 David Ortiz Dr,Boston,Massachusetts,02215,United States,-71.101228347381,42.347239312681,8575575700,http://www.mightysquirrel.com,Massachusetts,2026-02-22 21:29:36
f856d961-d228-4dce-aa16-57eef43e6298,Mighty Squirrel Brewing Co.,regional,411 Waverley Oaks Rd,Waltham,Massachusetts,02452,United States,-71.201097572517,42.387657733538,7818399242,http://www.mightysquirrel.com,Massachusetts,2026-02-22 21:29:36
b3731fa3-236f-46f9-bc36-d3556d32b4d1,Minhas Craft Brewery,regional,1208 14th Ave,Monroe,Wisconsin,53566-2055,United States,-89.641509,42.59863051,6083289120,http://www.minhasbrewery.com,Wisconsin,2026-02-22 21:29:36
579aa3fb-9386-4a0e-b617-8b4d72cd5075,Modern Times Beer,regional,3725 Greenwood St,San Diego,California,92110-4441,United States,-117.206153,32.754233,6195469694,http://www.moderntimesbeer.com,California,2026-02-22 21:29:36
c228637b-e211-45fd-9736-b838197cb25e,Mother Earth Brew Co LLC,regional,2055 Thibodo Rd Ste H,Vista,California,92081-7991,United States,-117.2203174,33.16794678,7605428868,http://www.motherearthbrewco.com,California,2026-02-22 21:29:36
add015c9-2bb1-4047-a365-8b9f3b263fc5,Mother Earth Brewing,regional,311 N Herritage St,Kinston,North Carolina,28501-4823,United States,,,2522082437,http://www.motherearthbrewing.com,North Carolina,2026-02-22 21:29:36
f30c94db-0f97-492d-be18-e0e0d362e360,Narragansett Brewing Co - Pawtucket,regional,461 Main St,Pawtucket,Rhode Island,02860-2913,United States,-71.38847715,41.87668875,4014378970,http://www.narragansettbeer.com,Rhode Island,2026-02-22 21:29:36
68fc2bdf-4401-4dc0-a3c0-2a8a29189e6e,Natty Greene's Brewing Co,regional,1918 W Gate City Blvd,Greensboro,North Carolina,27403-2615,United States,-79.7923996,36.0646259,3362741373,http://www.nattygreenes.com,North Carolina,2026-02-22 21:29:36
bbf8905d-9def-4a8f-b24b-91d3e6cdccd9,Neshaminy Creek Brewing Co,regional,909 Ray Ave,Croydon,Pennsylvania,19021-7510,United States,-74.90222455,40.08537673,2154587081,http://www.neshaminycreekbrewing.com,Pennsylvania,2026-02-22 21:29:36
de5ee7c1-54e0-4d20-960a-b825a76ddc9e,New Belgium Brewing Co,regional,21 Craven St,Asheville,North Carolina,28806-,United States,-82.57194293,35.5879302,8885989552,http://www.newbelgium.com,North Carolina,2026-02-22 21:29:36
1b0bf444-c830-4958-922c-5c1b46fe37f5,New Belgium Brewing Co,regional,500 Linden St,Fort Collins,Colorado,80524-2457,United States,-105.0678422,40.59335825,9702210524,http://www.newbelgium.com,Colorado,2026-02-22 21:29:36
c33c63b9-317d-4f75-a5ea-fc492766cae9,New Glarus Brewing Co,regional,2400 State Highway 69,New Glarus,Wisconsin,53574,United States,-89.6312918,42.8095311,6085275850,http://www.newglarusbrewing.com,Wisconsin,2026-02-22 21:29:36
c141e061-ebed-4b52-8ab6-3b5d53955f18,New Holland Brewing Co,regional,66 E 8th St,Holland,Michigan,49423-3504,United States,-86.10411872,42.79010355,6163556422,http://www.newhollandbrew.com,Michigan,2026-02-22 21:29:36
7228225d-87b3-450e-bb6d-838d21e0975f,New Holland Brewing Co - Production Facility,regional,690 Commerce Ct,Holland,Michigan,49424-2913,United States,,,6165102259,,Michigan,2026-02-22 21:29:36
9cac1034-004e-42e5-803a-20051f1f79f3,Night Shift Brewing - Lovejoy Wharf,regional,1 Lovejoy Wharf,Boston,Massachusetts,02114,United States,-71.059706849229,42.367662536249,,,Massachusetts,2026-02-22 21:29:36
b5e1df63-f7fe-4350-b724-f55935e77638,"Night Shift Brewing, Inc",regional,87 Santilli Hwy,Everett,Massachusetts,02149-1906,United States,-71.0677001,42.4059393,6172944233,http://www.nightshiftbrewing.com,Massachusetts,2026-02-22 21:29:36
482a6631-2632-46e5-bea1-834d1d7474c4,Ninkasi Brewing Co,regional,155 Blair Blvd,Eugene,Oregon,97402-4146,United States,-123.1108891,44.05734326,5413442739,http://www.ninkasibrewing.com,Oregon,2026-02-22 21:29:36
34b3f37c-5c35-4afa-a10f-590b88a055f1,NoDa Brewing Co - NE,regional,2921 N Tryon St,Charlotte,North Carolina,28206-2762,United States,-80.7190968,35.3342735,7044511394,http://www.nodabrewing.com,North Carolina,2026-02-22 21:29:36
e8c22d10-8479-4770-917a-7d9788a8e515,North American Breweries,regional,445 Saint Paul St,Rochester,New York,14605-1726,United States,-77.6143245,43.16481717,5855461030,,New York,2026-02-22 21:29:36
8ded24ab-ee4b-4ae5-89aa-279f870c5f99,North Coast Brewing Co Inc.,regional,455 N Main St,Fort Bragg,California,95437-3215,United States,-123.8057604,39.44618406,7079642739,http://www.northcoastbrewing.com,California,2026-02-22 21:29:36
63fd2c11-5530-4de9-8fe2-8fbf65e3a49f,Odell Brewing Co,regional,800 E Lincoln Ave,Fort Collins,Colorado,80524-2507,United States,-105.0633327,40.5895239,9704989070,http://www.odellbrewing.com,Colorado,2026-02-22 21:29:36
b0c49961-4100-48e8-af7c-943e3ff99644,Old Yale Brewing Company,regional,33738 Laurel Street,Abbotsford,British Columbia,V2S 1X2,Canada,-122.293923,49.0464884,16043922011,http://www.oldyalebrewing.com/,British Columbia,2026-02-22 21:29:36
b3b08e37-95c0-4756-9ad5-2a6388705534,Oskar Blues Brewery - Brevard,regional,342 Mountain Industrial Dr,Brevard,North Carolina,28712-5122,United States,-82.7069595,35.2536956,3037760724,http://www.oskarblues.com,North Carolina,2026-02-22 21:29:36
5a28cd92-6aeb-4cac-a24f-2260802b07b7,Oskar Blues Brewery & Tasty Weasel Tap Room,regional,1800 Pike Rd Unit B,Longmont,Colorado,80501-6794,United States,,,3037760724,http://www.oskarblues.com,Colorado,2026-02-22 21:29:36
1cbec9c9-522a-4d61-9848-34f8d9230a99,Otter Creek Brewing Co,regional,793 Exchange St,Middlebury,Vermont,05753-1193,United States,-73.17075772,44.03315644,8023880727,http://www.ottercreekbrewing.com,Vermont,2026-02-22 21:29:36
b034d427-7a64-48be-8a6f-2708542e9072,Pacific Western Brewery - Burnaby,regional,3876 Norland Avenue,Burnaby,British Columbia,V5G 4T9,Canada,-122.974695,49.249219,16044212119,http://www.pwbrewing.net/,British Columbia,2026-02-22 21:29:36
a13c0d84-fe5e-4857-a8ca-bcc2f13fc962,Pacific Western Brewery - Prince George,regional,641 N Nechako Rd.,Prince George,British Columbia,V2K 4M4,Canada,-122.7837232,53.9292889,12505622424,http://www.pwbrewing.net/,British Columbia,2026-02-22 21:29:36
7157dd7f-0dd1-4d2e-a87c-a153a762a691,Palmetto Brewing Co,regional,289 Huger St Bldg B,Charleston,South Carolina,29403-4560,United States,,,8439370903,http://www.palmettobrewery.com,South Carolina,2026-02-22 21:29:36
f7036951-96e0-4f03-b3e7-f56351d36eda,Pelican Brewing Company,regional,33180 Cape Kiwanda Dr,Pacific City,Oregon,97135-8012,United States,-123.9695724,45.21550832,5039657007,http://www.pelicanbrewery.com,Oregon,2026-02-22 21:29:36
745138de-12aa-4167-9302-1fb84642e899,Perrin Brewing Company,regional,5910 Comstock Park Dr NW,Comstock Park,Michigan,49321-8256,United States,,,6165511957,http://www.perrinbrewing.com,Michigan,2026-02-22 21:29:36
d6058fcd-e918-4063-bd15-b96f4feade20,PFriem Family Brewers,regional,707 Portway Ave Ste 101,Hood River,Oregon,97031-1218,United States,-121.51797,45.714751,5413210490,http://www.pfriembeer.com,Oregon,2026-02-22 21:29:36
ad83acf3-671c-404e-8b55-785f230286d7,Pizza Port - Bressi Ranch,regional,2730 Gateway Rd,Carlsbad,California,92009-1730,United States,-117.2510773,33.12807761,7607071655,http://www.pizzaport.com,California,2026-02-22 21:29:36
7de092fc-38a2-438d-8f0e-8bd0101bfad1,Pizza Port Carlsbad,regional,571 Carlsbad Village Dr,Carlsbad,California,92008-2304,United States,-117.3477152,33.1598703,7607207007,http://www.pizzaport.com,California,2026-02-22 21:29:36
2cbfe2ea-677a-4c4d-95b1-349556953fa2,Platform Beer Co,regional,4125 Lorain Ave,Cleveland,Ohio,44113-3718,United States,-81.7140045,41.4799605,2162021386,http://platformbeer.co,Ohio,2026-02-22 21:29:36
626290ac-7473-4368-9ee8-e71b2f28027f,Port City Brewing Co.,regional,3950 Wheeler Ave,Alexandria,Virginia,22304-6409,United States,-77.10149229,38.80803165,7037972739,http://www.portcitybrewing.com,Virginia,2026-02-22 21:29:36
9265aaad-fabe-40a4-bec6-656338eb04b9,Portland Brewing/North American Breweries,regional,2730 NW 31st Ave,Portland,Oregon,97210-1718,United States,-122.713089,45.54176525,5032267623,http://www.portlandbrewing.com,Oregon,2026-02-22 21:29:36
eb13cc36-c81f-4518-9b84-24e7ea268d85,Rahr and Sons Brewing Co,regional,701 Galveston Ave,Fort Worth,Texas,76104-3355,United States,-97.327292,32.7371,8178109266,http://www.rahrbrewing.com,Texas,2026-02-22 21:29:36
1f8b4200-5b3d-4b9f-b6a9-e10f29aec438,Real Ale Brewing Co,regional,231 San Saba Ct,Blanco,Texas,78606-4810,United States,-98.4128525,30.113319,8308332534,http://www.realalebrewing.com,Texas,2026-02-22 21:29:36
1b22d595-585c-4818-8e8d-6e62b5ca1d2c,Red Oak Brewing Co,regional,6901 Konica Dr,Whitsett,North Carolina,27377-9787,United States,,,3362993649,http://www.redoakbrewery.com,North Carolina,2026-02-22 21:29:36
8a15b08c-cf17-45ad-aff1-a07804e26e36,Redhook Brewery,regional,714 E Pike St,Seattle,Washington,98122-4697,United States,-122.3227119,47.6144468,4254833232,http://www.redhook.com,Washington,2026-02-22 21:29:36
1db452cf-edd7-4eed-bba1-6f92e000da67,Revolution Brewing,regional,3340 N Kedzie Ave,Chicago,Illinois,60618-5722,United States,-87.707534,41.9289777,7735882267,http://www.revbrew.com,Illinois,2026-02-22 21:29:36
6e5f19f9-b0cb-424d-ac2a-828ea580bddd,Rhinegeist Brewery,regional,1910 Elm St,Cincinnati,Ohio,45202-7751,United States,-84.51992076,39.1172,5133811356,http://www.rhinegeist.com,Ohio,2026-02-22 21:29:36
c4099a64-9be0-4e03-9f24-218c35acd747,Rockwell Beer Company,regional,1320 S Vandeventer Ave,Saint Louis,Missouri,63110,United States,-90.251576,38.625572,3142561657,http://www.rockwellbeer.com,Missouri,2026-02-22 21:29:36
12d83cb7-1e03-493e-805e-dad7ee012c3f,Rogue Ales Brewery,regional,2320 SE Osu Dr,Newport,Oregon,97365-5261,United States,-124.0564639,44.62865838,5032413800,http://rogue.com,Oregon,2026-02-22 21:29:36
33645666-10c9-4704-956e-ae006c29abb2,Russian River Brewing Co,regional,725 4th St,Santa Rosa,California,95404-4407,United States,-122.7116607,38.4418139,7075452337,http://www.russianriverbrewing.com,California,2026-02-22 21:29:36
611a3d39-d0a2-4020-b9ce-87cbc545ad0d,Saint Arnold Brewing Co,regional,2000 Lyons Ave,Houston,Texas,77020-2028,United States,-95.34846656,29.77112745,7136869494,http://www.saintarnold.com,Texas,2026-02-22 21:29:36
a7fd2fe1-0473-4e71-ac50-2c8a9eeed67e,Samuel Adams Pennsylvania Brewing Co,regional,7880 Penn Dr,Breinigsville,Pennsylvania,18031-1508,United States,,,6103956811,,Pennsylvania,2026-02-22 21:29:36
3a366221-e927-47b5-a137-a553b82c3245,Santa Fe Brewing Co,regional,35 Fire Place,Santa Fe,New Mexico,87508-4493,United States,-106.0515883,35.59654205,5054243333,http://www.santafebrewing.com,New Mexico,2026-02-22 21:29:36
85619fb4-6a1c-48b5-8280-4962b2eb67df,SanTan Brewing Co,regional,8 S San Marcos Pl,Chandler,Arizona,85225-7862,United States,-111.8423459,33.3032436,4809178700,http://www.santanbrewing.com,Arizona,2026-02-22 21:29:36
9d2d554a-e0e4-49d9-9fc7-617440346398,Saranac Brewery / Matt Brewing Co,regional,811 Edward St,Utica,New York,13502-4001,United States,-75.24414622,43.10355567,3156242400,http://www.saranac.com,New York,2026-02-22 21:29:36
e918f066-b632-4423-96cf-b46c3aa3cf47,"Schlafly Beer/The Saint Louis Brewery, LLC",regional,2100 Locust St,Saint Louis,Missouri,63103-1616,United States,-90.20969425,38.63298865,3142412337,http://www.schlafly.com,Missouri,2026-02-22 21:29:36
e1cf911d-240b-4393-9a85-9b70efb965ca,Schlafly Bottleworks,regional,1 Schlafly Plz,Saint Louis,Missouri,63143-2454,United States,,,3142412337,http://www.schlafly.com,Missouri,2026-02-22 21:29:36
c69231e2-6ff1-4d14-a940-02a8b551d03b,Schlafly Bottleworks Maplewood,regional,7260 Southwest Ave,Maplewood,Missouri,63143,United States,-90.314774,38.613184,3142412337,http://www.schlafly.com,Missouri,2026-02-22 21:29:36
136e3e55-0345-4951-96b6-de63339426b5,Shipyard Brewing Co,regional,86 Newbury St,Portland,Maine,04101-4219,United States,-70.24862314,43.6615851,2077610807,http://www.shipyard.com,Maine,2026-02-22 21:29:36
3463ed54-79e2-46ff-8626-acdd29dc08ba,Short's Brewing Co - Production Facility,regional,211 Industrial Park Dr,Elk Rapids,Michigan,49629-9452,United States,,,2314982300,http://www.shortsbrewing.com,Michigan,2026-02-22 21:29:36
91799fbb-6b2d-449b-a0aa-0ac579692489,Sierra Nevada Brewing Co,regional,100 Sierra Nevada Way,Mills River,North Carolina,28732-8608,United States,,,,http://www.sierranevada.com,North Carolina,2026-02-22 21:29:36
70e66be3-fd92-4db0-86f3-0f05807cc4e2,Sierra Nevada Brewing Co,regional,1075 E 20th St,Chico,California,95928-6722,United States,-121.8098801,39.7257632,5308933520,http://www.sierranevada.com,California,2026-02-22 21:29:36
0ce428f9-4c60-4536-9423-96a0017813d7,Silver City Brewery,regional,206 Katy Penman Ave,Bremerton,Washington,98312-4301,United States,-122.6780101,47.56156065,3608131487,http://www.silvercitybrewery.com,Washington,2026-02-22 21:29:36
2524a546-408c-47f3-bcb5-ad4be41ab69f,Sixpoint Brewery,regional,40 Van Dyke St,Brooklyn,New York,11231-1529,United States,-74.01191761,40.67397255,3472278676,http://www.sixpoint.com,New York,2026-02-22 21:29:36
867284df-ee7d-4e01-9df8-c8143cdf3f20,SKA Brewing,regional,"225 Girard, Bodo Park",Durango,Colorado,81303-6827,United States,,,,,Colorado,2026-02-22 21:29:36
acd3da61-7841-48bf-9d0e-5ac89915e9dc,Sly Fox Brewing Co,regional,331 Circle of Progress Dr,Pottstown,Pennsylvania,19464-3811,United States,-75.66632314,40.26338927,4845248210,http://www.slyfoxbeer.com,Pennsylvania,2026-02-22 21:29:36
338a035d-fe33-4406-8d9b-0acb0eb96f41,Smithwick's (Diageo),regional,44 Parliament St,Kilkenny,Kilkenny,R95 VK54,Ireland,-7.2562989,52.6543719,353567786377,https://www.smithwicksexperience.com/,Kilkenny,2026-02-22 21:29:36
34475681-5cf6-41d4-9fb2-89be9c894fa4,Smuttynose Brewing Co,regional,105 Towle Farm Rd,Hampton,New Hampshire,03842-1806,United States,-70.85354155,42.94551535,6034364026,http://www.smuttynose.com,New Hampshire,2026-02-22 21:29:36
d60a6feb-13cc-4b3f-b501-a784512982ec,Southern Tier Brewing Co,regional,2072 Stoneman Cir,Lakewood,New York,14750-9779,United States,,,7167635479,http://www.southerntierbrewing.com,New York,2026-02-22 21:29:36
23df1166-5226-4808-ab4c-6ebf216ccc4c,Spoetzl Brewery,regional,603 E Brewery St,Shiner,Texas,77984-0368,United States,,,3615943383,http://www.shiner.com,Texas,2026-02-22 21:29:36
87832f67-9efa-4d30-9a10-f52fce61d062,Starr Hill Brewery LLC,regional,5391 Three Notch D Rd,Crozet,Virginia,22932-3181,United States,,,4348235671,http://www.starrhill.com,Virginia,2026-02-22 21:29:36
608d1bd1-4164-484d-851a-8b83f958a211,Stevens Point Brewery,regional,2617 Water St,Stevens Point,Wisconsin,54481-5248,United States,-89.57398078,44.51026271,7153449310,http://www.pointbeer.com,Wisconsin,2026-02-22 21:29:36
985764fc-a5cf-4634-8bf3-e89dde5e6531,Stone Barrel Brewing Company,regional,Bluebell Avenue,Dublin,Dublin,D12 NPF9,Ireland,-6.3506651,53.3308805,353862381267,http://www.stonebarrelbrewing.ie/,Dublin,2026-02-22 21:29:36
d955991a-9377-4f2c-baf3-b561a72bf895,Stone Brewing Co,regional,2120 Harmony Grove Rd,Escondido,California,92029-2053,United States,-117.11565,33.109969,7602947866,http://www.stonebrewing.com,California,2026-02-22 21:29:36
444ce3b3-4111-485a-9158-e54d61909650,Stone Brewing Co- Richmond,regional,4300 Williamsburg Ave,Richmond,Virginia,23231-1225,United States,-77.414763,37.5241103,8044895902,http://www.stonebrewing.com/visit/outposts/richmond,Virginia,2026-02-22 21:29:36
d2d86e25-5932-4c58-b430-f8ea60e9e72f,Straub Brewery,regional,303 Sorg St,Saint Marys,Pennsylvania,15857-1592,United States,-78.55352821,41.42586622,8143356518,http://www.straubbeer.com,Pennsylvania,2026-02-22 21:29:36
339e0d58-5766-4c4f-ab24-d3a3477f42ad,Sullivan's Brewing Company,regional,15 John Street Lower,Kilkenny,Kilkenny,R95 H2CE,Ireland,-7.2511279,52.652832,353567797980,https://www.sullivansbrewingcompany.com/,Kilkenny,2026-02-22 21:29:36
e436d990-d5b4-4771-ba9b-a77531a5b0c1,Summit Brewing Co,regional,910 Montreal Cir,Saint Paul,Minnesota,55102-4246,United States,-93.13959808,44.91398765,6512657800,http://www.summitbrewing.com,Minnesota,2026-02-22 21:29:36
3e2d9646-099d-4b01-b619-d40d3a45fdbe,Sun King Brewing Co,regional,135 N College Ave,Indianapolis,Indiana,46202-3801,United States,-86.1449174,39.8095687,3176023702,,Indiana,2026-02-22 21:29:36
c54d9149-0b2f-45f0-bf12-36860e56a1da,Surly Brewing Company,regional,4811 Dusharme Dr,Brooklyn Ctr,Minnesota,55429-3940,United States,-93.32438943,45.04294225,7635353330,http://www.surlybrewing.com,Minnesota,2026-02-22 21:29:36
f187921a-c59d-47f2-a40a-b1d3bfccc0e0,Surly Brewing Company,regional,520 Malcolm Ave SE,Minneapolis,Minnesota,55414-3312,United States,,,7635353330,,Minnesota,2026-02-22 21:29:36
618e8cbb-8c2c-4617-b973-633443bc4c21,SweetWater Brewing Co,regional,195 Ottley Dr NE,Atlanta,Georgia,30324-3924,United States,-84.38107219,33.80802235,4046912537,http://www.sweetwaterbrew.com,Georgia,2026-02-22 21:29:36
45d47b1f-2968-4adb-848c-f46e0d43362f,Switchback Brewing Co,regional,160 Flynn Ave,Burlington,Vermont,05401-5400,United States,-73.22068075,44.45680085,8026514114,http://www.switchbackvt.com,Vermont,2026-02-22 21:29:36
069a5770-2241-4f0d-b635-c0f61825a1fd,Tallgrass Brewing Co,regional,5960 Dry Hop Cir,Manhattan,Kansas,66503-9815,United States,-96.6792762,39.1428736,7855371131,http://www.tallgrassbeer.com,Kansas,2026-02-22 21:29:36
b8428a9b-a712-4d05-8c6c-c585b4125371,The Florida Brewery,regional,202 Gandy Rd,Auburndale,Florida,33823-2726,United States,,,8639651825,http://www.floridabrewery.com,Florida,2026-02-22 21:29:36
e2fde1d1-117d-4d92-8e0d-ad638d9d8152,The Franciscan Well Brewery,regional,Riverpark House,Cork,Cork,T12 HW3W,Ireland,-8.4755419,51.9005854,35316294101,http://www.franciscanwellbrewery.com/en/index,Cork,2026-02-22 21:29:36
5de171b9-729f-4203-bdb5-33aca95fdd46,The Olde Mecklenburg Brewery,regional,4150 Yancey Rd,Charlotte,North Carolina,28217-1738,United States,-80.88195345,35.18741705,7045255644,http://www.oldemeckbrew.com,North Carolina,2026-02-22 21:29:36
d6548df7-6909-4410-84b6-ca15e02821ab,Third Street Brewhouse,regional,219 Red River Ave N,Cold Spring,Minnesota,56320-1624,United States,-94.42888016,45.45859495,3206853690,http://www.thirdstreetbrewhouse.com,Minnesota,2026-02-22 21:29:36
a72dd018-8329-4112-b81e-05efb191ca47,Three Floyds Brewing Co,regional,9750 Indiana Pkwy,Munster,Indiana,46321-4004,United States,,,2199223565,http://www.3floyds.com,Indiana,2026-02-22 21:29:36
1c0e323d-45ab-4d0c-9f27-8e8a62df3703,Tree House Brewery,regional,129 Sturbridge Rd,Charlton,Massachusetts,01507-5330,United States,-72.0125532,42.1366948,4139491891,http://www.treehousebrew.com,Massachusetts,2026-02-22 21:29:36
c03a12eb-9a25-4841-8f41-e78d0053fa3d,Trillium Brewing,regional,110 Shawmut Rd,Canton,Massachusetts,02021-1412,United States,-71.1527702,42.1847202,6174538745,http://www.trilliumbrewing.com,Massachusetts,2026-02-22 21:29:36
bf19789e-0711-4e0e-80e7-98a0084c1388,Troegs Brewing Co,regional,200 E Hershey Park Dr,Hershey,Pennsylvania,17033-2719,United States,,,7175341297,http://www.troegs.com,Pennsylvania,2026-02-22 21:29:36
239ded16-d444-429b-b6d7-fd30631c05d1,Trumer Brewery,regional,1404 4th St,Berkeley,California,94710-1323,United States,-122.3030265,37.87686526,5105261160,http://www.trumer-international.com,California,2026-02-22 21:29:36
5c8ee4a7-a254-4325-9715-1110c71753d3,Two Brothers Brewing Co,regional,30W315 Calumet Ave W,Warrenville,Illinois,60555-1565,United States,,,6303934800,http://www.TwoBrothersBrewing.com,Illinois,2026-02-22 21:29:36
0c45746b-fe2f-4171-b1e7-181027857e22,Two Roads Brewing Co,regional,1700 Stratford Ave,Stratford,Connecticut,06615-6419,United States,-73.151247,41.184374,2033352010,http://www.tworoadsbrewing.com,Connecticut,2026-02-22 21:29:36
611f8c45-a929-433d-b1a1-a590f85c456f,Uinta Brewing Co,regional,1722 S Fremont Dr,Salt Lake City,Utah,84104-4215,United States,-111.954182,40.732607,8014670909,http://www.uintabrewing.com,Utah,2026-02-22 21:29:36
9a6ed651-787f-47de-9f0a-1a4fc3fb5d15,Upland Brewing Co - Bloomington Brewpub,regional,350 W 11th St,Bloomington,Indiana,47404-3720,United States,-86.53747927,39.173423,8123362337,http://www.uplandbeer.com,Indiana,2026-02-22 21:29:36
ece6204a-29eb-47e1-868d-55c2a78bc06c,Upslope Brewing Company - Lee Hill,regional,1501 Lee Hill Rd Unit 20,Boulder,Colorado,80304-5602,United States,,,3033961898,http://www.upslopebrewing.com,Colorado,2026-02-22 21:29:36
f336bf99-b21e-41ae-8c4a-717e66d35b93,Urban Chestnut Brewing Co,regional,4465 Manchester Ave,Saint Louis,Missouri,63110-2113,United States,-90.261143,38.626662,3142220143,http://www.urbanchestnut.com,Missouri,2026-02-22 21:29:36
968d9c63-9c9b-4456-bb34-4c5b0eb255c0,Utah Brewers Cooperative,regional,1735 S 300 W,Salt Lake City,Utah,84115-1802,United States,-111.8993199,40.73267145,8014668855,http://www.wasatchbeers.com,Utah,2026-02-22 21:29:36
1b8122fc-3b03-49c0-9ae2-e344a3510030,Victory Brewing Co,regional,420 Acorn Ln,Downingtown,Pennsylvania,19335-3040,United States,,,6108730881,http://www.victorybeer.com,Pennsylvania,2026-02-22 21:29:36
392b4940-7333-4a2e-9e64-3b12e0290354,Victory Brewing Co,regional,3127 Lower Valley Rd,Parkesburg,Pennsylvania,19365-9617,United States,,,6108730881,http://www.victorybeer.com,Pennsylvania,2026-02-22 21:29:36
5f6a874b-33de-4387-928e-b095e03a58f8,Wachusett Brewing Co,regional,175 State Rd E,Westminster,Massachusetts,01473-1208,United States,-71.87294016,42.55783542,9788749965,http://www.wachusettbrew.com,Massachusetts,2026-02-22 21:29:36
c4176795-13f1-4e5c-8da8-275447df6cdf,Westbrook Brewing Co,regional,510 Ridge Rd,Mount Pleasant,South Carolina,29464-7811,United States,,,8436549114,http://www.westbrookbrewing.com,South Carolina,2026-02-22 21:29:36
8bc44d8f-07dd-4118-aecd-0bf08f70c26b,Western Pennsylvania Brewing Co,regional,119 Jefferson St,Latrobe,Pennsylvania,15650,United States,-79.38989645,40.31903018,,http://www.citybreiwng.com,Pennsylvania,2026-02-22 21:29:36
aa40cdb4-5b17-46fb-94e5-b972f6cc0b86,Weyerbacher Brewing Co,regional,905 Line St Ste G,Easton,Pennsylvania,18042-7379,United States,,,6105595561,http://www.weyerbacher.com,Pennsylvania,2026-02-22 21:29:36
401d45ca-4c04-4bf6-af19-55b45748ef91,Wicklow Wolf Brewing Company,regional,Wicklow Wolf,Bray,Wicklow,A63 A243,Ireland,-6.1109949,53.0842111,35315676993,http://www.wicklowwolf.com/,Wicklow,2026-02-22 21:29:36
d1258a62-3169-4548-95d9-3c4e539bce4d,Widmer Brothers Brewing,regional,929 N Russell St,Portland,Oregon,97227-1733,United States,-122.6762983,45.54109529,5032812437,,Oregon,2026-02-22 21:29:36
16a14354-1767-4c6d-ae83-d0d069c1275e,Wisconsin Brewing Co,regional,1079 American Way,Verona,Wisconsin,53593-9384,United States,-89.50895494,42.9688832,6088481079,http://www.wisconsinbrewingcompany.com,Wisconsin,2026-02-22 21:29:36
1a86c24c-f5bf-4aad-90a2-71db07f18b6c,Yards Brewing Co,regional,901 N Delaware Ave,Philadelphia,Pennsylvania,19123-3110,United States,-75.1324016,39.9655175,2156342600,http://www.yardsbrewing.com,Pennsylvania,2026-02-22 21:29:36
dfad1416-6baf-4bdd-9001-99a54fee5870,Yazoo Brewing Co,regional,910 Division St,Nashville,Tennessee,37203-4111,United States,-86.78355595,36.15090195,6158914649,http://www.yazoobrew.com,Tennessee,2026-02-22 21:29:36
