id,name,brewery_type,address_1,city,state_province,postal_code,country,longitude,latitude,phone,website_url,state,processed_at
00fdce16-e1dd-4678-87f2-45550f9083e1,212 Brewing Company,contract,21476 Route 23,Davenport,New York,13750,United States,,,2123779050,,New York,2026-02-22 21:29:36
9fdb80f1-a96f-4dc4-80a2-5b0d9a246916,3 Beards Beer Company,contract,4 Main St,Williamsburg,Massachusetts,01096,United States,-72.7305059,42.3923659,6173837039,http://www.3beardsbeer.com,Massachusetts,2026-02-22 21:29:36
5858b701-9e27-44e6-8ab8-b950b72c4181,51st Ward Beer Company,contract,323 N Washington St,Westmont,Illinois,60559-1512,United States,-87.981157,41.804494,7732205899,,Illinois,2026-02-22 21:29:36
9c7b9f2a-6deb-44a1-9b3e-f83952a4db38,Abbey Brewing Co,contract,1115 16th St,Miami Beach,Florida,33139-2441,United States,-80.1402943,25.7890381,3055388110,,Florida,2026-02-22 21:29:36
b52bfb27-345f-4add-bfc3-1b6fc67ab55b,Acidulous Brewing Company,contract,6712 S Independence St,Littleton,Colorado,80128-4046,United States,-105.1059543,39.5383949,3039952895,,Colorado,2026-02-22 21:29:36
49e805d3-70e3-4c21-81d6-d21e290ffefe,AdMerk Corp. Inc.,contract,20 F St NW,Washington,District of Columbia,20001-6700,United States,-77.0094205,38.89742205,6172028069,http://www.paugustin.com,District of Columbia,2026-02-22 21:29:36
abe71cdf-8c92-4be2-adac-902d1a14e7bb,Alpenglow Beer Co,contract,,Lafayette,California,94549-4621,United States,-122.1180201,37.8857582,,http://www.buckwildbrew.com,California,2026-02-22 21:29:36
810e0e7c-293a-4e3e-a557-13691d30d399,Alphabet City Brewing Co,contract,96 Avenue C Frnt 4,New York,New York,10009-7055,United States,,,9143566809,http://www.acbnyc.com,New York,2026-02-22 21:29:36
5e4e7f13-1e56-4715-b575-37522b595062,American Badass Beer,contract,1401 Abbott St Corktown,Detroit,Michigan,48216-1946,United States,,,,http://www.americanbadassbeer.com,Michigan,2026-02-22 21:29:36
4c92654b-a82a-4a9a-8c3f-fc03886a0be7,American Honor Beer Co,contract,700 N Pennsylvania Ave,Wilkes Barre,Pennsylvania,18705-2451,United States,-75.859363,41.254896,,http://www.BoondoggleBeer.com,Pennsylvania,2026-02-22 21:29:36
3929eda4-926c-46cd-ab20-cb5c9e6f7caf,Angry Scotsman Brewing,contract,704 W Reno Ave,Oklahoma City,Oklahoma,73102-2434,United States,-97.6002769,35.4644206,4056737713,http://www.angryscotbrew.com,Oklahoma,2026-02-22 21:29:36
6caf8832-1b1d-468a-a01e-87c9f82dcad7,Armada Brewing,contract,250 Bradley Street,East Haven,Connecticut,06512,United States,-72.87397563,41.29004301,4754413759,http://www.armadabeer.com,Connecticut,2026-02-22 21:29:36
d95ce7ad-97be-4a46-a9a0-85260f2bef4f,Around the Bend Beer Co.,contract,811 N Oak Park Ave,Oak Park,Illinois,60302-1538,United States,-87.79493034,41.90015593,3129522339,http://www.atbbeerco.com,Illinois,2026-02-22 21:29:36
03df12a0-f2ff-4c37-b862-e6df31123b74,B9 Beverages Inc,contract,404 5th Ave # 7.055,New York,New York,10018-2797,United States,,,,,New York,2026-02-22 21:29:36
092efaaf-02ab-4ac6-a9c3-6269af54ddeb,Backlash Beer Co,contract,,Boston,Massachusetts,02215,United States,,,,http://backlashbeer.com/,Massachusetts,2026-02-22 21:29:36
ac773861-5642-46b6-98c5-ad065ee9b4df,Bad Water Brewing,contract,4216 N Brown Ave,Scottsdale,Arizona,85251-3914,United States,-111.9244743,33.49726157,5207459175,http://www.badwaterbrewing.com,Arizona,2026-02-22 21:29:36
17d563f1-e620-4a74-8d39-3486312454f2,Baltimore Washington Beer Works,contract,2500 Grays Rd,Dundalk,Maryland,21222,United States,-76.4644662,39.2446743,4438476223,http://www.ravenbeer.com,Maryland,2026-02-22 21:29:36
b630a613-c4e9-4d35-a437-beef57df6fd7,Battle BornÂ® Beer,contract,100 N Arlington Ave Ste 100,Reno,Nevada,89501-1233,United States,,,8183173128,http://battleborn.beer,Nevada,2026-02-22 21:29:36
713bb4bb-a85b-490f-aae2-9d08fcdc094f,Beaver Beer Co,contract,307 Greens Farms Rd,Westport,Connecticut,06880-6227,United States,-73.311685,41.12587,,http://www.beaverbeer.com,Connecticut,2026-02-22 21:29:36
d5fd0450-160c-444f-a9b3-e027aed21cf4,Beer By Design Brewery,contract,11490 Jackson St,Thornton,Colorado,80233-2533,United States,-104.9417886,39.9285623,3035172202,http://www.beerbydesign.com,Colorado,2026-02-22 21:29:36
4d71267a-d27f-4322-afc6-403e860fc107,Beer Church Brewing Company,contract,24 S Whittaker St,New Buffalo,Michigan,49117-1820,United States,-86.74311848,41.79322148,2192413876,http://www.beerchurchbrewing.com,Michigan,2026-02-22 21:29:36
ccad31bf-f381-4f58-a204-993f59e3029f,Beer Hound Brewery,contract,201 Waters Pl Apt 102,Culpeper,Virginia,22701-3102,United States,,,5403175327,,Virginia,2026-02-22 21:29:36
ebb8c392-eddb-44c8-9561-44f9186b8518,Belfast Bay Brewing Co,contract,100 Searsport Ave,Belfast,Maine,04915-7221,United States,-68.9880177,44.4309432,2074608654,http://www.belfastbaybrewing.com,Maine,2026-02-22 21:29:36
f0570db4-92b3-4b86-8b98-9628d917ffcc,Big Rock Chop House & Brewery,contract,245 S Eton St,Birmingham,Michigan,48009-6577,United States,-83.19603911,42.54693868,2486477774,http://www.bigrockchophouse.com,Michigan,2026-02-22 21:29:36
0b8ab2be-1d15-4a60-8bd2-e526a6615567,Bird Brain Brewing Company,contract,435 Nikki Ter SE,Leesburg,Virginia,20175-8962,United States,-77.54348368,39.09389489,,,Virginia,2026-02-22 21:29:36
7e37544f-5e87-4652-95db-e946e58ae9ed,Bison Brewing Co,contract,1627 S 7th St,San Jose,California,95112-5932,United States,-121.8665257,37.31531409,5108125996,http://bisonbrew.com,California,2026-02-22 21:29:36
b58ed0a2-769a-4923-b0f6-360bff09ab8c,Boak Brewing Co,contract,262 Wanaque Ave Rear,Pompton Lakes,New Jersey,07442-2116,United States,,,9735706381,http://www.boaks.com,New Jersey,2026-02-22 21:29:36
b47c0e0d-23bf-4306-96eb-20f69302a63e,Bolero Snort Brewery,contract,65 Railroad Ave,Ridgefield Park,New Jersey,07660-1321,United States,-74.02983351,40.86058569,2018193527,http://www.bolerosnort.com,New Jersey,2026-02-22 21:29:36
c4476467-ca84-4c96-807f-9c91efefdd17,Bombastic Brewing,contract,11100 N Airport Rd,Hayden,Idaho,83835,United States,-116.8105485,47.772517,,http://www.bombasticbrewing.com,Idaho,2026-02-22 21:29:36
f09bda30-0156-41cf-ba7d-1625ff37dad0,Boondoggle Brewing,contract,553 Maple St,Wethersfield,Connecticut,06109-3732,United States,-72.66458677,41.6838887,8603367366,http://www.boondogglebeers.com,Connecticut,2026-02-22 21:29:36
e23c476c-0f42-4d31-9a59-0fe5a809c76f,Bottle Tree Beer Co,contract,10 N Trade St Apt A,Tryon,North Carolina,28782-3476,United States,,,8642660133,http://www.bottletree.net,North Carolina,2026-02-22 21:29:36
2d36ca84-78df-4614-8f48-69f58bb4e556,Braven Brewing Company,contract,362 Jefferson St # 320,Brooklyn,New York,11237-2312,United States,-73.92464725,40.70559895,9292956673,http://www.bravenbrewing.com,New York,2026-02-22 21:29:36
cd7c55be-0a82-43f9-bba7-b43eff43c24d,Brewed By Gnomes,contract,1735 SE 33rd Ave,Portland,Oregon,97214-5024,United States,-122.6308531,45.51021595,,,Oregon,2026-02-22 21:29:36
79ccf31c-2e69-4b6b-b63c-5f84093a0050,Brewtality,contract,930 McLaughlin Ave,San Jose,California,95122-2611,United States,-121.8541694,37.3331712,3104023349,http://www.brewtality.com,California,2026-02-22 21:29:36
28862a02-5d35-4a4a-833b-acd94dfbb4a0,Bright Penny Brewing Company,contract,309 W Graham St,Mebane,North Carolina,27302-2311,United States,-79.27030152,36.09926877,,http://www.brightpennybrewing.com,North Carolina,2026-02-22 21:29:36
23905042-9078-410a-a3f5-0ede37924815,California Wild Ales,contract,4204 Sorrento Valley Blvd,San Diego,California,92121-1446,United States,-117.2146488,32.905002,,,California,2026-02-22 21:29:36
2682641e-3fa6-4700-b9ed-87ded91e1ca5,Capitol City Brewing Co,contract,2 Massachusetts Ave NE,Washington,District of Columbia,20002-4945,United States,-77.0082686,38.8979293,2028422337,http://www.capcitybrew.com,District of Columbia,2026-02-22 21:29:36
fdeb1948-d245-4ab5-986f-5b5e42e5633b,Castle Point Brewery,contract,200 Garden St C/O Red Bridge Homes,Hoboken,New Jersey,07030-3793,United States,,,9185328525,http://www.castlepointbrewery.com,New Jersey,2026-02-22 21:29:36
a134143f-1c86-4a90-8ded-458aaed9a374,Cayucos Brewing Co,contract,136 Ocean Front Ln,Cayucos,California,93430-1649,United States,-120.9021884,35.44711022,8059951993,http://www.cayucosbeer.com,California,2026-02-22 21:29:36
ecbd7424-8f25-4db0-af5e-8334991c2983,Chagrin Beer Company,contract,178 E Washington St,Chagrin Falls,Ohio,44022-2978,United States,-81.38518067,41.42999722,2166451739,,Ohio,2026-02-22 21:29:36
e01090fe-7c0c-42b6-ab1a-7f47b734dab9,Charter Oak Brewing Company LLC,contract,39B Shelter Rock Rd,Danbury,Connecticut,06810-7043,United States,-73.40421711,41.3961903,2036165268,http://www.charteroakbrewing.com,Connecticut,2026-02-22 21:29:36
468df106-530f-47c1-956a-8544beb7c6d6,Chau Tien Beer Company,contract,,Fairfield,California,94533-0244,United States,-122.0399663,38.2493581,7072808044,http://www.paleale.com,California,2026-02-22 21:29:36
3c820163-0cdf-4f61-a2d7-bb294da08380,Chicago Beer Company,contract,1140 W Randolph St,Chicago,Illinois,60607-1619,United States,-87.65589165,41.88434,7732448696,http://www.chicagobeerco.com,Illinois,2026-02-22 21:29:36
088d36c6-2be1-4c07-8da1-d8c64f5800de,Clayton Brewing Co,contract,661 W Arrow Hwy,San Dimas,California,91773-2936,United States,-117.826752,34.1066017,9093944900,http://www.claytonbrewingco.com,California,2026-02-22 21:29:36
1b88bddd-2c59-40db-b4de-91da36b0db0f,Common Block Brewing Company,contract,315 E 5th Street,Medford,Oregon,97501,United States,-122.872489,42.32896155,5413262277,http://www.commonblockbrewing.com,Oregon,2026-02-22 21:29:36
728019cb-061f-45e9-b3af-6b8ea811258d,CRAFT 64,contract,6922 E Main St,Scottsdale,Arizona,85251-4312,United States,-111.9319271,33.493153,4809460542,http://www.craft64.com,Arizona,2026-02-22 21:29:36
f1ad22f6-3935-4c9c-8bc5-25352671145a,Craft Artisan Ales,contract,,Pacific Grove,California,93950-7093,United States,-121.9155906,36.6174432,8317177543,,California,2026-02-22 21:29:36
8e1f3d7d-6e4a-433d-bdd8-4528d1613f26,Crazy Williez Brewery,contract,546 Silver St,Ilion,New York,13357,United States,,,,,New York,2026-02-22 21:29:36
8360b304-8e43-49e6-ae58-d66e12df2c3e,Cross Plains Brewery Inc.,contract,2109 Hickory St,Cross Plains,Wisconsin,53528-9700,United States,-89.65293922,43.11427765,6087983911,http://www.essersbest.com,Wisconsin,2026-02-22 21:29:36
82d6623d-c9e3-4d5f-a2ae-82d175bf00e6,De La Vegaâs Pecan Grill and Brewery,contract,500 S Telshor Blvd,Las Cruces,New Mexico,88011-4613,United States,-106.7374222,32.3019659,5755211099,http://www.pecangrill.com,New Mexico,2026-02-22 21:29:36
6d646324-bf6f-49c8-b9d9-e2d2cf508e2f,Department Coffee,contract,1940 N 30th Rd,Hollywood,Florida,33021-4401,United States,-80.16836199,26.02618324,3235382955,http://www.depatmentcoffee.com,Florida,2026-02-22 21:29:36
e4895f5c-e308-4d17-893f-2f86bb50868d,Destination Brewing Company,contract,2708 Lawrence Drive,Austin,Texas,78734,United States,,,5129659858,http://www.destinationbrewing.co,Texas,2026-02-22 21:29:36
e4054c02-8992-4c0c-8954-89f0d6ebaead,Dog Tag Brewing,contract,2042 Stadium Dr Ste 2,Bozeman,Montana,59715-0710,United States,,,,http://www.dogtagbrewing.org,Montana,2026-02-22 21:29:36
cc134379-14ee-4246-9535-ae117501b9af,Dos Luces Brewery,contract,1236 S Broadway,Denver,Colorado,80210-1504,United States,-104.9874923,39.6830067,3037254527,http://www.dosluces.com,Colorado,2026-02-22 21:29:36
a776c995-076a-4562-8434-467f01f3818a,Dr Jekyll's Craft Beer,contract,825 Cambridge Ct,Pasadena,California,91107-1977,United States,-118.0798642,34.16059077,3102738339,http://www.drjekylls.com,California,2026-02-22 21:29:36
c8a34b95-8a72-4f56-8c50-c790c01261ff,Dubuque Star Brands / Otter Tail Brewery,contract,132 Sheridan St,Muscatine,Iowa,52761-5543,United States,-91.02937536,41.43346737,,,Iowa,2026-02-22 21:29:36
450263c6-c95c-426c-aee9-c82f5ec11fbb,Duquesne Brewing of Pittsburgh,contract,932 W North Ave,Pittsburgh,Pennsylvania,15233-1606,United States,-80.01790691,40.45346755,4128312779,,Pennsylvania,2026-02-22 21:29:36
b691e779-d2ff-46dc-9171-46b99a9043e1,Dyckman Beer Co,contract,,Bronx,New York,10451,United States,,,,http://www.dyckmanbeerco.com,New York,2026-02-22 21:29:36
381795a6-ff78-48b4-a49c-b46ed2ed423f,Earlybird Brewing Company,contract,737 Bolivar Rd Ste 4100,Cleveland,Ohio,44115-1259,United States,,,,http://www.earlybirdbrewing.com,Ohio,2026-02-22 21:29:36
3b7796a9-c125-4743-8c60-f4a847264ed3,Egan & Sons,contract,118 Walnut St,Montclair,New Jersey,07042-3852,United States,-74.21181832,40.81768748,9737441413,http://www.eganandsons.com,New Jersey,2026-02-22 21:29:36
46c262c0-2b6f-42d6-84df-1da1a1656095,Einstok Beer Company,contract,12381 Wilshire Blvd Suite 105,Los Angeles,California,90025,United States,-118.4704166,34.0423497,4242180179,http://einstokbeer.com,California,2026-02-22 21:29:36
42536ff0-a7a8-4e41-8706-3411f1590482,Elk Valley Brewing,contract,1210 N Hudson Ave,Oklahoma City,Oklahoma,73103,United States,-97.5189497,35.4804596,4056006438,http://elkvalleybrew.com,Oklahoma,2026-02-22 21:29:36
9d99fd5e-9aeb-48c6-a8b5-ece6a0607dbd,EuroBevs,contract,2255 Cumberland Pkwy SE,Atlanta,Georgia,30339-4515,United States,,,7704371285,http://www.eurobevs.com,Georgia,2026-02-22 21:29:36
e82ab4e0-4615-4ab0-b7f5-8d5b75839bb7,"Fantasy Brewmasters, LLC",contract,5825 Dogwood Way,Naples,Florida,34116-4909,United States,,,2392063247,,Florida,2026-02-22 21:29:36
ef476d83-b75b-4637-9adf-e5ceb03df535,Fatty's Beer Works,contract,1436 Meeting Street Rd,Charleston,South Carolina,29405-9342,United States,-79.950716,32.816629,8439745330,http://www.followfatty.com,South Carolina,2026-02-22 21:29:36
daf5b513-a3e3-4103-b819-24588bf9331a,Fireman's Brew,contract,6433 Topanga Canyon Blvd # 189,Woodland Hills,California,91303-2621,United States,-118.6057591,34.1667962,8188832739,http://www.firemansbrew.com,California,2026-02-22 21:29:36
d912be91-1011-428d-a77f-3b51b78b6da5,Fossil Fuels Brewing Co,contract,45928 Omega Dr,Fremont,California,94539-6848,United States,-121.9215949,37.4989939,5103815739,,California,2026-02-22 21:29:36
b0d9dfce-11dc-4f85-9b26-133a664f8a88,Founding Fathers Brewing Company,contract,1844 W Wayzata Blvd,Long Lake,Minnesota,55356-9491,United States,,,9527676403,http://www.foundingfathersbrewingco.com,Minnesota,2026-02-22 21:29:36
b6490ce6-c91e-4d26-a89d-20e2fc2b118e,Fountain City Brewing Co / Monarch Public House,contract,19 N Main St,Fountain City,Wisconsin,54629-,United States,-91.71737039,44.13124401,6086874231,http://www.monarchtavern.com,Wisconsin,2026-02-22 21:29:36
c1208478-57c2-4bea-91e1-f169ac2a4854,Furthermore Beer,contract,320 Pierce St,Black River Falls,Wisconsin,54615,United States,-90.85115523,44.29279126,6085883300,http://www.furthermorebeer.com,Wisconsin,2026-02-22 21:29:36
e8d29c6c-50b2-4013-b059-1687215074c1,G.C. Starkey Beer Company,contract,68 Castle St Apt 1C,Geneva,New York,14456-2648,United States,,,6076784043,http://www.starkeyslookout.com,New York,2026-02-22 21:29:36
6b1e2b96-92a4-4cc7-b400-338f97f8e365,Game On Brewing,contract,1999 Shepard Rd,Saint Paul,Minnesota,55116-3210,United States,-93.153604,44.90528,,,Minnesota,2026-02-22 21:29:36
36785f2c-ba97-48ed-8bcf-2b45c3a4a0d0,Good River Beer Company,contract,1790 S Bannock St.,Denver,Colorado,80223,United States,-104.9898169,39.68421218,6023697442,http://www.grbeerco.com,Colorado,2026-02-22 21:29:36
8e531fdc-43a7-4783-a070-546bd56b250d,Gravity Brewlab,contract,1521 Alton Rd # 591,Miami Beach,Florida,33139-3301,United States,,,7865367085,http://www.Gravity.beer,Florida,2026-02-22 21:29:36
fe4b240e-0ef8-477e-9c77-0819de38d3e6,Great Beer Co,contract,21119 Superior St,Chatsworth,California,91311-4309,United States,-118.5932845,34.24643282,8187182739,http://www.greatbeerco.com,California,2026-02-22 21:29:36
94009625-38ed-40cc-b7bc-df48ddd75b32,Greenwood Brewing LLC,contract,600 N 4th St Apt 210,Phoenix,Arizona,85004-4489,United States,,,4802089500,http://www.greenwoodbrews.com,Arizona,2026-02-22 21:29:36
33b1bd3c-c543-4855-83a6-d39fc99ce074,Gridlock Brewing Co,contract,2659 Pickfair Lane,Livermore,California,94551,United States,-121.7669791,37.69251772,4088358794,http://www.gridlockbrewing.com,California,2026-02-22 21:29:36
49f6d4fd-9671-4465-8d83-be8b2255d33e,Griesedieck Brothers Brewery,contract,1240 Switzer Ave,Saint Louis,Missouri,63147-1840,United States,-90.23498721,38.70903511,3143093210,http://www.gb-beer.com,Missouri,2026-02-22 21:29:36
d8549701-4cf1-4aff-9af1-b0ef1e2dc072,Hanson Brothers Beer Company,contract,209 N Main St,Tulsa,Oklahoma,74103-2005,United States,-95.9936663,36.15851257,,http://www.hansonbrothersbeer.com,Oklahoma,2026-02-22 21:29:36
02f59192-c794-4d3b-b3a3-6d96bb2bb7b2,Harlem Brewing Co,contract,2 W 123rd St,New York,New York,10027-5623,United States,-73.94532799,40.8058068,8885596735,http://www.harlembrewingcompany.com,New York,2026-02-22 21:29:36
59b15388-72c7-4a2d-895a-7382c5b2d125,Heartland Brewery,contract,35 Union Sq W Frnt 1,New York,New York,10003-3200,United States,,,2126453400,http://www.heartlandbrewery.com,New York,2026-02-22 21:29:36
82f0d496-e55f-4f4d-944f-1cfefc7f9fbf,High Horse Brewery and Bistro,contract,24 N Pleasant St,Amherst,Massachusetts,01002-1703,United States,-72.5201343,42.376218,4132303034,http://www.highhorsebrewing.com,Massachusetts,2026-02-22 21:29:36
0971ac37-3c31-494d-816b-14c1b503d649,Hop Garden Brewing,contract,N8668 County Road D,Belleville,Wisconsin,53508-9626,United States,,,6085169649,http://www.thehopgarden.net,Wisconsin,2026-02-22 21:29:36
5e1386c5-7e61-4b0c-b169-1cab682478c6,Hops and Leisure,contract,1225 Robruck Dr # A,Oconomowoc,Wisconsin,53066-4446,United States,-88.4785191,43.09224436,2625678536,http://www.hopsandleisure.com,Wisconsin,2026-02-22 21:29:36
7769544b-1b3f-4d16-b0a6-3f77e45824a4,Hops Grillhouse and Brewery,contract,3625 Jefferson Davis Hwy,Alexandria,Virginia,22305-3133,United States,-77.0523751,38.8399578,7038379107,http://www.hopsrestaurants.com,Virginia,2026-02-22 21:29:36
2ffeece0-e295-46d9-8f2f-9f898e41d80a,Hoster Brewing Co,contract,760 Harmon Ave,Columbus,Ohio,43223,United States,-83.01615373,39.94440869,6142213606,http://www.hosterbeer.com,Ohio,2026-02-22 21:29:36
5b39343d-ac51-48b3-b7fe-db6cd1989291,Humpy's Great Alaskan Alehouse,contract,610 W 6th Ave,Anchorage,Alaska,99501-2225,United States,-149.8938928,61.216502,9072762337,http://www.humpysalaska.com,Alaska,2026-02-22 21:29:36
f560d7a7-7367-4aa8-a0ed-61e52bb081c9,Intercourse Brewing Co,contract,4166 Ironbridge Dr,Collegeville,Pennsylvania,19426-1188,United States,,,6108129426,http://www.intercoursebrewingco.com,Pennsylvania,2026-02-22 21:29:36
c7e84585-1dd0-4edb-86e9-283a6afd12ff,Jones Brewing Co,contract,254 Second Street,Smithton,Pennsylvania,15479-0746,United States,,,,http://www.stoneysbeer.com,Pennsylvania,2026-02-22 21:29:36
e2cbce93-bcc6-4508-85fd-071101a6942d,Joseph Wolf Brewing Company,contract,85 7th Pl E Ste 200,Saint Paul,Minnesota,55101-2143,United States,,,6127519422,http://www.josephwolfbrewing.com,Minnesota,2026-02-22 21:29:36
c184d97f-0fb1-49d4-89c7-753b7d54393c,Jubilee Craft Beer Co,contract,3430 Hampton Ave,Nashville,Tennessee,37215-1408,United States,-86.82509853,36.11746395,6156869397,http://www.jubileebeer.com,Tennessee,2026-02-22 21:29:36
85b50705-5285-477e-9858-1dd45a00b6f9,Karetas Brewing,contract,1480 Industrial Dr Ste C,Itasca,Illinois,60143-1857,United States,,,3128788720,http://www.karetasbeer.com,Illinois,2026-02-22 21:29:36
f41dff48-d079-4852-9416-9a79d64f32fd,KelSo Beer Company,contract,529 Waverly Ave,Brooklyn,New York,11238-2701,United States,-73.96564,40.68267586,,http://www.kelsoofbrooklyn.com,New York,2026-02-22 21:29:36
d0955deb-f952-4a6a-b470-61efa8b3d64a,Kind Beer Distributing,contract,6014 McDaniel Ln Ste C,Charlotte,North Carolina,28213-7351,United States,,,9105154140,http://www.kindbeers.com,North Carolina,2026-02-22 21:29:36
b0739f36-9c8a-47d3-b9cf-04873f11ea1d,Kul Brewing,contract,1106 3rd St S,La Crosse,Wisconsin,54601,United States,-91.25359353,43.80249029,,http://www.kulbrewing.com,Wisconsin,2026-02-22 21:29:36
bc2b5412-d16a-4bd9-9764-1dfd992737f8,Lake Brothers Beer Company,contract,25W275 Woodstock Ct,Naperville,Illinois,60540-3427,United States,,,6302583938,http://www.lakebrothersbeer.com,Illinois,2026-02-22 21:29:36
d17629b9-8cfb-404e-a6cd-8e62017f5841,Lean Horse Productions,contract,600 Meier Ave,Spearfish,South Dakota,57783-1991,United States,-103.8647996,44.48900743,6056413534,,South Dakota,2026-02-22 21:29:36
75fcfbec-9b00-42d0-b102-d835345073e5,Lidl US LLC,contract,3500 S Clark St,Arlington,Virginia,22202-4045,United States,-77.051863,38.842856,,,Virginia,2026-02-22 21:29:36
35f5fb77-453a-4038-8124-cbe972f77f81,Lil' Charlie's Restaurant & Brewery,contract,504 E Pearl St,Batesville,Indiana,47006-1585,United States,-85.21614518,39.29564197,8129346392,http://www.lilcharlies.com,Indiana,2026-02-22 21:29:36
0da0a3c1-6642-4713-9e79-7326ac7586e5,Liquid Intrusion Brewing Company,contract,15216 General Lafayette Boulevard,Brandywine,Maryland,20613,United States,-76.8817346,38.6797764,2404763822,https://www.libcobeer.com/,Maryland,2026-02-22 21:29:36
451c482b-18e0-4dd2-bfbc-8b94d25902aa,Local Option,contract,1102 W Webster Ave Ste 1,Chicago,Illinois,60614-7089,United States,,,7733482008,http://www.localoptionbier.com,Illinois,2026-02-22 21:29:36
73d6562a-6747-47fb-bc80-57dbc43603fb,Lucky Devil Brewing,contract,Frank H Ogawa Pl,Oakland,California,94612,United States,-122.2713141,37.80450396,5109692865,http://www.luckydevilbrewery.com,California,2026-02-22 21:29:36
b76e67fb-fe15-41c3-8a43-531bfb7a4d20,Mad Mouse Brewery,contract,,Chicago,Illinois,60607-5017,United States,,,,http://www.moxeerestaurant.com,Illinois,2026-02-22 21:29:36
532b6171-7a1e-4caa-9e28-75cc148ce369,Mainely Brews Restaurant and Brewhouse,contract,1 Post Office Sq Ste 302,Waterville,Maine,04901-6651,United States,,,2078732457,http://www.mainelybrews.com,Maine,2026-02-22 21:29:36
129dfd95-492b-443d-af67-dd03bef8a157,Mantorville Brewing Co LLC,contract,101 5th St E,Mantorville,Minnesota,55955-8087,United States,-92.753035,44.067031,6513870708,http://www.mantorvillebeer.com,Minnesota,2026-02-22 21:29:36
7c8d69e8-5b1c-4de1-b8ce-e4368bc2a4e2,Miles Craft Ales @ Miles Wine Cellars,contract,168 Randall Rd,Himrod,New York,14842-9715,United States,,,6072437742,http://www.mileswinecellars.com,New York,2026-02-22 21:29:36
20aad2db-4ce7-42b7-9a72-c2d4c2b833da,Milwaukee Premium Brewing Co,contract,6591 N Sidney Pl,Glendale,Wisconsin,53209-3215,United States,-87.9486093,43.13845743,4143625000,,Wisconsin,2026-02-22 21:29:36
72e9790d-9d53-4cfd-84a4-9e856ba4f8f2,Moksha Beer,contract,,San Jose,California,95154-0279,United States,-121.8905833,37.3361905,4157295796,http://www.mokshabeer.com,California,2026-02-22 21:29:36
f5873cbb-e231-4a70-8ed5-0bfd9f2beca5,Montucky Cold Snacks,contract,123 W Lewis St,Livingston,Montana,59047-3010,United States,,,4068718886,http://www.montuckycoldsnacks.com,Montana,2026-02-22 21:29:36
c53ae7dd-b837-47ed-899f-1179608c7434,National Brewing Company,contract,28102 Baileys Neck Rd,Easton,Maryland,21601,United States,-76.105636,38.7273597,4103103553,http://www.nationalpremiumbeer.com,Maryland,2026-02-22 21:29:36
d0ef1b88-ae8d-4d85-889c-16bf9f4fb58e,New Planet Beer Co,contract,3980 Broadway St Ste 103 # 116,Boulder,Colorado,80304-1161,United States,,,3034994978,http://www.newplanetbeer.com,Colorado,2026-02-22 21:29:36
d32244a7-1996-4dd3-b2b4-490dde9a5c39,Nothing's Left Brewing Co.,contract,1502 E 6th St,Tulsa,Oklahoma,74120-4026,United States,-95.99253596,36.14047292,9186061902,http://www.nothingsleftbrew.co,Oklahoma,2026-02-22 21:29:36
201c624e-15c6-46ac-93ff-3ec93543d17e,O'Dempsey's Brewing Co,contract,"205 Grosvenor Place, Nw",Atlanta,Georgia,30328,United States,,,4048450059,http://www.odempseys.com,Georgia,2026-02-22 21:29:36
78f58f23-0430-49bf-b50b-9371cb7ab9cb,Old Bavarian Brewing Co,contract,1515 Greendale St,Menasha,Wisconsin,54952-2620,United States,-88.416059,44.217357,9207300202,http://www.oldbavarian.com,Wisconsin,2026-02-22 21:29:36
e7098631-04bb-4065-bf60-1416a452a022,Opa Opa Brewery,contract,19 Wemelco Way,Easthampton,Massachusetts,01027,United States,-72.69191299,42.25467048,4135270808,http://www.opaopasteakhousebrewery.com,Massachusetts,2026-02-22 21:29:36
29c89d1e-5b60-40d7-998c-a38fa101b0f8,Open Door Brewing Company,contract,2030 Ionosphere St Unit G,Longmont,Colorado,80504-8459,United States,,,7205931401,http://www.opendoorbrewco.com,Colorado,2026-02-22 21:29:36
568ece36-a3d7-40ad-9364-592642a1cdd3,Palo Alto Brewing Co,contract,1080B La Avenida St,Mountain View,California,94043-1422,United States,-122.0717657,37.41326789,,http://www.paloaltobrewing.com,California,2026-02-22 21:29:36
7db7b882-21a1-47fa-a2a2-75449c83d328,Pie & Pints Restaurant & Brewery,contract,,Oxford,Connecticut,06478,United States,,,2035731743,http://www.piesandpints.biz,Connecticut,2026-02-22 21:29:36
14e42687-7706-4eda-aec6-739577141d69,Pittsburgh Brewing Co,contract,3340 Liberty Ave,Pittsburgh,Pennsylvania,15201-1394,United States,-79.96570261,40.46161288,4126827400,http://www.pittsburghbrewing.com,Pennsylvania,2026-02-22 21:29:36
7293e7d3-7f88-4641-aec9-a23ba475a31d,Pizza Beer Company,contract,5N404 Harvest Ln,Saint Charles,Illinois,60175-8242,United States,,,6303776888,http://www.pizzabeer.net,Illinois,2026-02-22 21:29:36
766996ca-e6f6-4882-98f3-272e0c354cb6,Pono Brewing Company,contract,5716 SE 92nd Ave,Portland,Oregon,97266-4659,United States,-122.5679347,45.4808905,5034328400,http://www.ponobrewing.com,Oregon,2026-02-22 21:29:36
e2ae7c8c-6317-4c6b-8b13-f36667508ddb,Portico Brewing Co,contract,256 Moody Street,Waltham,Massachusetts,02453,United States,-71.2366218,42.3718244,,,Massachusetts,2026-02-22 21:29:36
50b1e05a-9230-43af-8fba-f04386753196,Pull Brewing Co,contract,317 Springtown Rd,New Paltz,New York,12561-3020,United States,-74.097562,41.760486,,http://www.pullbrewing.com,New York,2026-02-22 21:29:36
2a22f461-fb7f-4347-87f7-e6316274fcd9,Puritan Brew Company,contract,205 W Dickson St,Fayetteville,Arkansas,72701-5222,United States,-94.1620702,36.066188,4793012365,http://www.puritanbrewcompany.com,Arkansas,2026-02-22 21:29:36
8d1600f2-6526-4bdb-8992-bb0fdb286005,Radiant Pig Craft Beers,contract,122 W 27th St Fl 10,New York,New York,10001-6227,United States,,,,,New York,2026-02-22 21:29:36
581f4005-1088-4fdf-b2f2-dd71151c88f6,Resignation Brewery,contract,98 San Jacinto Blvd Ste 160,Austin,Texas,78701-4640,United States,-97.742323,30.262322,4254833232,http://www.kccobrewery.com,Texas,2026-02-22 21:29:36
b360441e-a145-4059-a49c-92b6c47e95ff,Rhinelander Brewing Co,contract,59 S Brown St,Rhinelander,Wisconsin,54501-3450,United States,-89.41264622,45.63733288,7155502337,http://www.rhinelanderbrewery.com,Wisconsin,2026-02-22 21:29:36
7104bc4a-20af-46c5-9f5f-eca71eddbf9e,Rivals Sports Grille,contract,6710 Smith Rd,Middleburg Heights,Ohio,44130-2656,United States,-81.80433472,41.38531549,2162670005,http://www.rivalscleveland.com,Ohio,2026-02-22 21:29:36
2e2e99bd-649c-48f9-aacf-5cf98b61c44f,Rock Wood Fired Pizza / Keep Rockin' LLC,contract,14209 29th St E Ste 102,Sumner,Washington,98390-9689,United States,,,2539875479,,Washington,2026-02-22 21:29:36
27fb789b-d906-4472-9632-92be3bb4f3ad,Rock Wood Fired Pizza & Brewery - Auburn,contract,1408 Lake Tapps Pkwy SE # E,Auburn,Washington,98092-8158,United States,-122.2095415,47.2448314,2538337887,http://www.therockwfp.com,Washington,2026-02-22 21:29:36
db570962-38c9-42b5-a055-f1cd30bd1359,Rock Wood Fired Pizza and Brewery - Lynnwood,contract,4010 196th St SW,Lynnwood,Washington,98036-6715,United States,-122.2876416,47.82048455,4256976007,http://www.therockwfp.com,Washington,2026-02-22 21:29:36
56ef5319-3298-4ad2-9a3a-fb8b4fe3d0c5,Rock Wood Fired Pizza and Brewery - Tacoma,contract,1920 Jefferson Ave,Tacoma,Washington,98402-1608,United States,-122.4392853,47.24409495,2532721221,http://www.therockwfp.com,Washington,2026-02-22 21:29:36
e7cc0814-0f87-494d-9e9f-810f23df05f6,Rocland Beverage Co,contract,1601 Airport Rd,Ukiah,California,95482-6456,United States,-123.199573,39.126287,7076577721,http://www.asskisserales.com,California,2026-02-22 21:29:36
776ca50f-749a-46e2-b914-59c709aec1a6,Rogers Beer,contract,23 Woodline Dr,Penfield,New York,14526-2413,United States,-77.46723818,43.12868768,5852980483,http://www.rogersbeer.com,New York,2026-02-22 21:29:36
cc6614a4-dcc4-4b2d-8d32-b737ba0503a3,Roobrew,contract,,Akron,Ohio,44311-1051,United States,,,3307033947,http://www.roobrew.com,Ohio,2026-02-22 21:29:36
a6f89f70-e00a-43a3-9779-f70e71393ae9,Royal Docks Brewing Company,contract,7162 Fulton Dr NW,Canton,Ohio,44718-1523,United States,,,3303539103,http://www.docks.beer,Ohio,2026-02-22 21:29:36
4cc38bef-f05b-42ce-8323-ca7458415621,Ruckus Brewing Co,contract,261 W 35th St Ste 1002,New York,New York,10001-1902,United States,,,6467105098,http://www.ruckusbrewing.com,New York,2026-02-22 21:29:36
d138f5c2-f5f8-4d68-bcd9-b69a021cae6d,Saint Croix Beer Co. DBA Saint Croix Brewing Co.,contract,363 Webster St,Saint Paul,Minnesota,55102-3651,United States,-93.12454994,44.93128073,6513870708,http://www.stcroixbeer.com,Minnesota,2026-02-22 21:29:36
b1cb9fee-8488-43dd-9073-5cb426b580fc,Sapphire Mountain Brewing Co,contract,50 Slicers Ave,Sapphire,North Carolina,28774-9405,United States,,,8287430220,http://www.sapphiremountainbrewingcompany.com,North Carolina,2026-02-22 21:29:36
62723af7-e8b2-4831-b708-b39756691eeb,Sauced BBQ & Spirits,contract,2300 1st St Ste 120,Livermore,California,94550-3141,United States,-121.7679156,37.68288154,9259611300,http://www.saucedbbqandspirits.com,California,2026-02-22 21:29:36
1d66e2c7-e688-4e8c-9892-cb55efcfd9ab,Sconnie Beverage,contract,1403 N SUMMIT AVEÂ,Oconomowoc,Wisconsin,53066,United States,,,6085563112,http://www.sconniebeer.com,Wisconsin,2026-02-22 21:29:36
ce3c744d-ba60-47b2-9260-53593f6af57b,Sherpa Brewery Pvt. Ltd.,contract,1708 W 17th Dr,Golden,Colorado,80401-2507,United States,-105.1963424,39.7443713,,,Colorado,2026-02-22 21:29:36
c2b494b6-da3a-45fb-9895-25e6ef1d5009,Sin City Beer Co,contract,3663 Las Vegas Blvd S Ste 504 Miracle Mile Shops,Las Vegas,Nevada,89109-1951,United States,,,7028094939,http://www.sincitybeer.com,Nevada,2026-02-22 21:29:36
5fb3457a-9cea-4b46-a7a7-c78cedf557a3,Smart Beer Company,contract,,New Paltz,New York,12561-0430,United States,,,,http://www.smartbeercompany.com,New York,2026-02-22 21:29:36
8301bc1c-4f4b-46c7-8217-fecb090a2d7c,"Sobel's Obscure Brewery, LLC",contract,954 Arona Rd,New Stanton,Pennsylvania,15672-1109,United States,,,4125251553,http://www.Sobbrews.com,Pennsylvania,2026-02-22 21:29:36
a760e66e-82a3-4f7d-8145-bc3f79c995e2,Solarc Brewing,contract,134 S Avenue 57,Los Angeles,California,90042-4702,United States,,,6319442990,http://www.solarcbrewing.com,California,2026-02-22 21:29:36
4032ebf7-ed73-4dd4-b57c-a898a13ffbca,Sonoran Brewing,contract,3002 E Washington St,Phoenix,Arizona,85034-1518,United States,-111.9805737,33.4475332,6025108996,http://www.sonoranbrewing.com,Arizona,2026-02-22 21:29:36
02131f19-7bde-422c-a363-9288b2df2a9b,South Bay Brewco,contract,930 McLaughlin Ave,San Jose,California,95122-2611,United States,-121.8541694,37.3331712,4082193696,,California,2026-02-22 21:29:36
1e01a465-adc4-4d87-affc-be9648ac0dbd,SportsBreweries,contract,Private Rd 5128,Frisco,Texas,75034,United States,-96.7687762,33.1787931,9726038647,http://www.sportsbreweries.com,Texas,2026-02-22 21:29:36
ae5ab620-975f-4ee3-8625-07b93d9ff0f6,Steadfast Beer Co,contract,1756 Western Ave Rear,Albany,New York,12203-4414,United States,,,,http://www.steadfastbeer.com,New York,2026-02-22 21:29:36
1638e0aa-5017-4c87-9b60-4de2a5b4d8f4,Steel Squared Brewing Company,contract,1597 Tiffany Ct,de Pere,Wisconsin,54115-9042,United States,,,,,Wisconsin,2026-02-22 21:29:36
2119dc54-184b-4f1e-ada6-f085576e3760,Sterling Beer Co.,contract,3214 Preston Hwy,Louisville,Kentucky,40213-1330,United States,-85.7347014,38.2019083,5022338485,http://www.sterlingbeer.com,Kentucky,2026-02-22 21:29:36
5e44f9ac-ec1e-4143-a21e-b7af8c507e40,Stoic Brewing,contract,667 Robinett Rd,Waxahachie,Texas,75165-6343,United States,,,5128884843,http://stoicbrewing.com,Texas,2026-02-22 21:29:36
5cd9906b-f553-4313-b5fb-32b307bbb820,The Berghoff Brewery Inc.,contract,1730 W Superior St Apt 3W,Chicago,Illinois,60622-5639,United States,,,6083584992,http://www.berghoffbeer.com,Illinois,2026-02-22 21:29:36
456665eb-9672-4143-bdc5-d93b36286b60,The Crafter Space,contract,1550 N Warren Ave Apt 114,Milwaukee,Wisconsin,53202-2298,United States,,,4144188888,http://www.thecrafterspace.com,Wisconsin,2026-02-22 21:29:36
e019cd27-ea77-40a7-a8a8-a95fc86b284d,The Fat Cat Beer Co,contract,7979 Ivanhoe Ave Ste 555,La Jolla,California,92037-4570,United States,-117.272443,32.84869008,,http://www.fatcatbeers.com,California,2026-02-22 21:29:36
eea8a695-5e5e-4eb4-8c36-38ef70799787,The Larimer Beer Company,contract,3620 Newport St,Denver,Colorado,80207-1508,United States,-104.9093487,39.76773768,7205076369,http://www.thelarimer.com,Colorado,2026-02-22 21:29:36
ea79cbe7-681e-4d92-8604-85cb892834ae,The New Buffalo Brewing Co. Inc,contract,11163 Main St,Clarence,New York,14031-1701,United States,-78.57052941,42.98442517,7162007275,http://www.newbuffalobrewing.com,New York,2026-02-22 21:29:36
e63045b8-37a7-41c9-b5e3-6fbb87d2f388,Third Rail Beer,contract,928 Broadway Ste 902,New York,New York,10010-8139,United States,-73.9893474,40.7400479,,http://www.thirdrailbeer.com,New York,2026-02-22 21:29:36
01166a5e-a46a-44f8-b491-8f539853f0f0,Three Monkeys Brewing Co,contract,455 S Pine St Ste 3,Madera,California,93637-5242,United States,-120.0735866,36.94939346,5593632709,http://www.3monkeysbrewing.com,California,2026-02-22 21:29:36
baf18871-08d8-4cf1-8ce1-5f2dfd3a611b,"Threefoot Brewing Company, LLC",contract,4010 23rd Avenue,Meridian,Mississippi,39305,United States,-88.7010359,32.4001022,6016931074,http://www.threefootbrewing.com,Mississippi,2026-02-22 21:29:36
b8dc35f3-2869-46fb-a797-a5f38a04136d,Tilted Barrel Brew Pub,contract,110 E 29th St,Loveland,Colorado,80538,United States,-105.0773167,40.42158016,9706198950,http://www.tiltedbarrelbrewpub.com,Colorado,2026-02-22 21:29:36
f8dc2368-d963-4d93-9a24-208a6d07c87f,Toast Ale,contract,601 W 26th St Ste 325-291,New York,New York,10001-1101,United States,,,9162023851,http://www.toastale.com/us,New York,2026-02-22 21:29:36
eb6b9afe-8efc-4179-ac49-1c46c7ef29a0,Tocayo Brewing Company,contract,1 S Dearborn St Ste 1700,Chicago,Illinois,60603-2308,United States,,,3122592189,,Illinois,2026-02-22 21:29:36
d98dcb64-5f67-4815-84c0-5bb77228fd57,Trader Joes - West Coast Office,contract,800 S. Shamrock Ave,Monrovia,California,91016,United States,,,6265993700,,California,2026-02-22 21:29:36
413f12ba-347c-4343-8da7-63261f878669,"Tree Farm Brewing Company, LLC",contract,3020 Papa Bear Dr,College Station,Texas,77845-1402,United States,,,9798200535,http://www.treefarmbrewing.com,Texas,2026-02-22 21:29:36
7a2fe357-8cbf-45c4-9195-9b261846da32,troubled waters brewing co.,contract,670 Main Street,Safety Harbor,Florida,34695,United States,-82.69391186,27.99073329,6303357890,http://www.troubledwatersbeer.com,Florida,2026-02-22 21:29:36
ce6068ab-2993-4129-a451-c304506f817a,TW Pitchers Brewing Co,contract,1329 17th Ave,San Francisco,California,94122-1912,United States,-122.4750486,37.76307771,4159992009,http://www.twpitchers.com,California,2026-02-22 21:29:36
f16ee8bc-0ac3-4403-b7a8-4c4bc0582938,Twisted Hippo,contract,2925 W Montrose Ave,Chicago,Illinois,60618-1403,United States,-87.7019463,41.961125,7088447768,http://Www.twistedhippo.com,Illinois,2026-02-22 21:29:36
56959793-d728-4902-809a-5d075c5b2836,Two Bald Guys Beverage Co,contract,18090 Hazelnut Dr,Reno,Nevada,89508-6898,United States,,,,http://www.drinktwobaldguys.com,Nevada,2026-02-22 21:29:36
1b2e6967-a506-4e9e-9a34-470ae9101074,Two Fathers Beer Co,contract,2016 Belvidere Rd,Virginia Beach,Virginia,23454-2233,United States,-76.0389065,36.86874825,7573092518,http://www.twofathersbeer.com,Virginia,2026-02-22 21:29:36
3c6ba9ee-3f7e-475f-a3d5-76d9924068ad,Two Rows Restaurant and Brewery - Allen,contract,711 Central Expy S,Allen,Texas,75013-8012,United States,-96.67987289,33.0921542,9723968670,http://www.tworows.com/,Texas,2026-02-22 21:29:36
684dfd0e-c132-413a-bb46-9daf08ed35e7,Uncle Ernies Bayfront Grill & Brew House,contract,1151 Bayview Ave,Panama City,Florida,32401-1452,United States,-85.702765,30.1698125,8507638427,http://uncleerniesbayfrontgrill.com/welcome/,Florida,2026-02-22 21:29:36
b9abbfd2-4a52-4d64-80ac-e236e2ce40da,"Untapped Territory, LLC",contract,326 E Main St Ste 1735,Lincolnton,North Carolina,28092-3335,United States,,,7042586466,,North Carolina,2026-02-22 21:29:36
e4e8348e-71ba-41df-b571-b866fffbf050,Venice Ale House Brewing Co,contract,2 Rose Ave,Venice,California,90291-2411,United States,-118.480274,33.994634,3103148253,http://www.venicealehouse.com,California,2026-02-22 21:29:36
be340e56-0609-44de-a684-eca999c2b5a4,Venice Duck Brewery,contract,,Venice,California,90291-3833,United States,-118.4668875,33.995044,3103834927,http://www.veniceduckbrewery.com,California,2026-02-22 21:29:36
6401037b-c1b1-42f4-98fa-1189857bc6cc,WarPigs USA Brewing Co.,contract,9750 Indiana Pkwy,Munster,Indiana,46321-4004,United States,,,2199223565,http://warpigs.com,Indiana,2026-02-22 21:29:36
97785f2d-ca0d-41a0-8aeb-fc513eb02a4e,West Bend Lithia Beer Co,contract,825 Schoenhaar Dr,West Bend,Wisconsin,53090-2633,United States,-88.15775153,43.43136188,2623343000,http://www.lithiabeer.com,Wisconsin,2026-02-22 21:29:36
80d05615-2f61-4e0e-8d1e-d3f25d70d960,West East Brewing Co,contract,4125 Lorain Ave,Cleveland,Ohio,44113-3718,United States,-81.7140045,41.4799605,2162021386,,Ohio,2026-02-22 21:29:36
f7fed178-dc61-473d-a847-efc5fd887105,White Lion Brewing Company,contract,36 Garland St,Springfield,Massachusetts,01118-2128,United States,-72.53380924,42.08981856,4133261829,http://www.whitelionbrewing.com,Massachusetts,2026-02-22 21:29:36
45e09697-d154-4da0-96bc-63900f0ede6d,Winnerâs Circle Brewing Company,contract,21 Whistler Court Apt 4,Saratoga Springs,New York,12866,United States,,,5183657864,http://www.winnerscirclebeer.com,New York,2026-02-22 21:29:36
4df98b72-a45e-414f-a813-909bdc077119,Wooden Skiff Beer Co.,contract,,Buffalo,New York,14216-3611,United States,,,7062285064,http://www.woodenskiff.com,New York,2026-02-22 21:29:36
74576e44-ee28-43ea-870a-1f2801bb2d9c,Zambaldi Beer,contract,,Green Bay,Wisconsin,54305-0246,United States,,,6124707926,http://www.zambaldi.com,Wisconsin,2026-02-22 21:29:36
3b703b36-86bb-4d24-846d-80c88bf7df07,ZeLUS Beer Company,contract,120 N Meadows Rd,Medfield,Massachusetts,02052-1594,United States,-71.335472,42.200799,6275100270,http://www.zelusbeer.com,Massachusetts,2026-02-22 21:29:36
