id,name,brewery_type,address_1,city,state_province,postal_code,country,longitude,latitude,phone,website_url,state,processed_at
5ae467af-66dc-4d7f-8839-44228f89b596,101 North Brewing Company,closed,1304 Scott St Ste D,Petaluma,California,94954-7100,United States,-122.665055,38.27029381,7077534934,http://www.101northbeer.com,California,2026-02-22 21:29:36
e54c2f02-acd6-4172-861d-fcfa54c8701a,122 West Brewing Co,closed,2416 Meridian St,Bellingham,Washington,98225-2405,United States,-122.485982,48.7621709,3603063285,https://www.122westbrew.com/,Washington,2026-02-22 21:29:36
e05dc493-284f-4ece-995e-19899398f077,238 Brewing Company,closed,10321 E Day Mt Spokane Rd,Mead,Washington,99021,United States,,,5092382739,http://www.238brewing.com,Washington,2026-02-22 21:29:36
bd8b76ca-a70a-4363-96cb-24f1d0118a74,3 Stars Brewing Co,closed,6400 Chillum Pl NW Ste B,Washington,District of Columbia,20012-2111,United States,,,2026700333,http://www.3starsbrewing.com,District of Columbia,2026-02-22 21:29:36
6c5dabed-6a59-4610-abc9-b1e958393186,30 Mile Brewing Co.,closed,39 Ragged Rock Rd Unit 5,Old Saybrook,Connecticut,06475-1518,United States,,,8603395238,http://www.30milebrewingco.com,Connecticut,2026-02-22 21:29:36
257e9aac-7dbe-4656-b366-9d8a94c49d58,5 North Brewing Company,closed,6501 N Cedar Rd,Spokane,Washington,99208,United States,-117.4328496,47.71758683,5093217818,http://5northbrewingcompany.com/,Washington,2026-02-22 21:29:36
66a91db6-7d2a-4d67-a720-7f924cae3571,7th Settlement Brewery,closed,47 Washington St,Dover,New Hampshire,03820-3877,United States,-70.8728379,43.1953787,6033731001,http://www.7thsettlement.com,New Hampshire,2026-02-22 21:29:36
2fe1e670-d832-4ba5-b957-f86a09ee062d,Acoustic Ales Brewing Experiment,closed,1795 Hancock St Ste P1,San Diego,California,92110-2006,United States,-117.1840465,32.74219079,6192992537,http://www.acousticales.com,California,2026-02-22 21:29:36
0d0f85e7-bc2d-44fc-bf27-4f14e5d6136a,Adam's Northwest Bistro / Twin Rivers Brewing,closed,104 N Lewis St,Monroe,Washington,98272-1502,United States,-121.970887,47.85588471,3607944056,http://www.adamsnwbistro.com,Washington,2026-02-22 21:29:36
f1ed5260-13cb-4f22-a4ac-0e1f7f676a12,"Agrarian Ales, LLC",closed,31115 W Crossroads Ln,Eugene,Oregon,97408-9220,United States,-123.1277712,44.18922784,5416323803,http://www.agales.com,Oregon,2026-02-22 21:29:36
b9f4f532-15df-4a50-b15e-e5cd5d41977b,Aigean Ales,closed,250 Commercial St Ste 2001,Manchester,New Hampshire,03101-1165,United States,-71.46899187,42.9899594,6035188550,,New Hampshire,2026-02-22 21:29:36
9737bf0c-b29e-49d7-9778-3951072eb147,Airways Brewing Co,closed,8611 S 212th St,Kent,Washington,98031-1910,United States,-122.2391026,47.4119802,2532001707,http://www.airwaysbrewing.com,Washington,2026-02-22 21:29:36
d9578437-2aa8-45ab-97f2-cf6f7074d9af,Airways Brewing Co. Bistro & Beer Garden,closed,320 W Harrison St,Kent,Washington,98032-4476,United States,-122.235649,47.382498,2532368632,http://airwaysbrewing.com/bistro-beer-garden/,Washington,2026-02-22 21:29:36
797c9175-fb51-44d3-ad4b-d46b42367fdc,Ale Spike,closed,9300 271st St NW Ste B-5,Stanwood,Washington,98292,United States,,,,http://www.alespike.com,Washington,2026-02-22 21:29:36
d8dd6a64-c201-471f-a0a1-0fc8d04b5b49,Alpine Brewing Co,closed,821 14th Ave,Oroville,Washington,98844,United States,-119.4305306,48.9365877,5094769662,http://www.alpine-brewing.com,Washington,2026-02-22 21:29:36
29c900c4-16b4-45ef-b688-061ed0fe8bd4,American Brewing Company,closed,180 W Dayton St Ste 102,Edmonds,Washington,98020-4127,United States,,,4257741717,http://www.americanbrewing.com,Washington,2026-02-22 21:29:36
6fad664c-ba6d-4ac1-be03-408cc65ab70a,Andina Brewing Company,closed,1507 Powell Street,Vancouver,British Columbia,V5L 1S3,Canada,-123.0737942,49.2833907,,,British Columbia,2026-02-22 21:29:36
b26623c7-5291-4492-b876-66c2d970c275,Another Round Brewing Co,closed,745 N Grand Ave,Pullman,Washington,99163-3151,United States,-117.175392,46.736755,9164757580,https://anotherroundbrewery.com,Washington,2026-02-22 21:29:36
799a4fc7-16fb-40e7-9fd5-4664da3976f3,Ashuelot Brewing Company,closed,101 Old County Rd,Richmond,New Hampshire,03470-4918,United States,-72.23236816,42.75946232,,,New Hampshire,2026-02-22 21:29:36
60195a53-786c-4540-ae1d-a3bbca7a41fd,Aspetuck Brew Lab,closed,3389 Fairfield Avenue,Bridgeport,Connecticut,06605,United States,-73.2357109,41.1544649,2032539423,http://www.aspetuckbrewlab.com,Connecticut,2026-02-22 21:29:36
d94c95b9-509c-4d53-86a6-769555e1773e,Astro Lab Brewing,closed,8216 Georgia Ave,Silver Spring,Maryland,20910,United States,-77.029129,38.9465532,3012739684,http://www.astrolabbrewing.com,Maryland,2026-02-22 21:29:36
aa0195bf-8258-4262-89c4-af8a89793822,Atwood Ales,closed,4012 Sweet Rd,Blaine,Washington,98230-9108,United States,-122.6990459,48.97900614,3603996239,http://www.atwoodales.com,Washington,2026-02-22 21:29:36
bd7e4765-9179-47b5-8888-219d1af19fe1,Audacity Brewing,closed,1208 10th St Ste C,Snohomish,Washington,98290,United States,-122.0966776,47.925023,3602948742,http://www.audacitybrewing.com,Washington,2026-02-22 21:29:36
e6df4e9e-1833-49b0-90e5-69c565c5da83,Back Creek Brewing Company,closed,,Annapolis,Maryland,21401-4019,United States,,,4103206904,http://www.backcreekbrewing.com,Maryland,2026-02-22 21:29:36
b617c420-3a48-41f3-a529-68dccd1e253f,Backshore Brewing Co.,closed,913 Atlantic Ave,Ocean City,Maryland,21842-6689,United States,-75.0803756,38.3402519,4102890008,http://www.BackshoreBrew.com,Maryland,2026-02-22 21:29:36
d493c084-8f5c-4e04-994b-ddc55fcd3959,Bad Bulldogs Brewery,closed,941 N Callow Ave,Bremerton,Washington,98312,United States,-122.6533736,47.56963921,3606278079,,Washington,2026-02-22 21:29:36
bbda5eb0-95cd-4b87-88ac-7b0e2bd01c48,Bad Jimmy's Brewing Co,closed,4358B Leary Way NW,Seattle,Washington,98107-4554,United States,-122.3653569,47.66133224,2067891548,http://www.badjimmysbrewingco.com,Washington,2026-02-22 21:29:36
7ecfcf55-8bc1-4744-9a2c-7feaa99290b0,Bad Lab Beer Co.,closed,460 High St,Somersworth,New Hampshire,03878-1012,United States,-70.88353777,43.22651432,6033192436,http://www.badlabbeer.com,New Hampshire,2026-02-22 21:29:36
4f49473d-22aa-4f44-b69c-2d7f95d76abd,Badger Mountain Brewing,closed,1 Orondo Ave,Wenatchee,Washington,98801-2206,United States,-120.309353,47.423747,5098882234,http://www.badgermountainbrewing.com,Washington,2026-02-22 21:29:36
063107cd-7134-41d9-b44e-f75439937878,Band of Brothers Brewing Company,closed,1605 23rd Ave,Tuscaloosa,Alabama,35401-4653,United States,-87.56215513,33.19849071,2052665137,http://www.bandofbrosbrewing.com,Alabama,2026-02-22 21:29:36
9e12b6a6-9445-4a29-818c-4b96dbd30f55,Banjo Brewing,closed,,Fayetteville,West Virginia,25840,United States,,,3042164231,,West Virginia,2026-02-22 21:29:36
08fffdf5-41f6-4445-a9a5-63d4927dc366,Baranof Island Brewing Co,closed,1209 Sawmill Creek Rd Ste A,Sitka,Alaska,99835-9759,United States,-135.309951,57.049586,9077472739,http://www.baranofislandbrewing.com,Alaska,2026-02-22 21:29:36
082f06b4-93bc-4683-9223-5b64103413e8,Bardo Brewpub,closed,25 Potomac Ave SE,Washington,District of Columbia,20003-3670,United States,-77.00658302,38.87165373,7622337070,http://www.bardo.beer,District of Columbia,2026-02-22 21:29:36
fbb7714c-4583-4d4d-96f4-369b4515476d,Barley Forge Brewing,closed,2957 Randolph Ave Ste B,Costa Mesa,California,92626-4375,United States,-117.8880183,33.67903294,7146412084,http://www.barleyforge.com,California,2026-02-22 21:29:36
5e10fcfc-9724-4622-a95d-da266c8628ee,Barley Johns Brewpub,closed,1280 Madison Ave,New Richmond,Wisconsin,54017-2236,United States,,,7152464677,http://www.barleyjohnsbrewery.com,Wisconsin,2026-02-22 21:29:36
c4ed1b9c-3e81-4419-bc5b-789c3f4f53e8,Barlows Brewery,closed,705 SE Park Crest Ave Suite D430,Vancouver,Washington,98683,United States,-122.5216242,45.6177956,3608593795,https://www.barlowsbrewery.com,Washington,2026-02-22 21:29:36
9e1dfd14-4289-47ec-9362-362b7f8ed000,BarmHaus Brewing Co,closed,3782 Winding Creek Ln,Garden Valley,California,95633-9773,United States,-120.8784951,38.8402775,5304440478,http://barmhausco.com,California,2026-02-22 21:29:36
cbce47ad-2da8-4de9-806f-9c8e3fb39f76,Beerded Brothers Brewing,closed,106 W 6th St,Vancouver,Washington,98660,United States,-122.6718911,45.62576802,3606065806,http://www.beerdedbrothers.net,Washington,2026-02-22 21:29:36
43fd7230-116c-4c72-a9d3-5bd96411c362,Belgian Mare Brewery,closed,207 Gilsum Mine Rd,Alstead,New Hampshire,03602-3915,United States,-72.28542213,43.10984838,6038357801,http://www.belgianmare.com,New Hampshire,2026-02-22 21:29:36
6c1b68ee-5a2c-4572-9412-aa97f5c174f6,Belltown Brewery,closed,200 Bell St,Seattle,Washington,98121-1716,United States,-122.3456669,47.6142953,2064857233,http://www.belltownbrewingseattle.com,Washington,2026-02-22 21:29:36
0825c760-b25e-4d4d-ac6f-67498bffe8f6,Below the Radar Brewing Co,closed,220 Holmes Ave NE,Huntsville,Alabama,35801-4837,United States,-86.58583931,34.73272365,2564696617,http://www.btrbrew.com,Alabama,2026-02-22 21:29:36
ef1075c7-0384-4bfe-8034-2ba2e99a5a0c,Benchmark Brewing Co,closed,6190 Fairmount Ave Ste G,San Diego,California,92120-3428,United States,-117.1020694,32.78737066,6197952911,http://www.benchmarkbrewing.com,California,2026-02-22 21:29:36
58d75aca-9aef-48d1-b81a-0d085c4f4da5,Bend Brewing High Desert,closed,20650 NE High Desert Lane,Bend,Oregon,97701,United States,-121.2914842,44.08727607,5413831599,,Oregon,2026-02-22 21:29:36
903f91f9-2c57-4909-87f7-fa268e44d454,Benjamin Beer Co,closed,507 6th St,Racine,Wisconsin,53403-1117,United States,-87.78630172,42.72641512,2625832034,http://www.benjaminbeer.com,Wisconsin,2026-02-22 21:29:36
bdd49c54-8f0c-4e5f-8757-802bed30d8c9,Bent Kettle Brewing Company,closed,1507 Montclair Pl,Fort Atkinson,Wisconsin,53538-3102,United States,-88.861232,42.9348495,9203909038,http://www.bentkettle.com,Wisconsin,2026-02-22 21:29:36
97ad3cff-f0ad-4ba3-94cd-f150d79c788d,Berchman's Brewing Company,closed,25 N Front St Ste 2,Yakima,Washington,98901-2648,United States,,,5099521058,http://berchmansbrewingcompany.com,Washington,2026-02-22 21:29:36
6f148564-9296-4d6c-ac6b-44bad3765fd2,Best of Hands Barrelhouse,closed,7500 35th Ave SW,Seattle,Washington,98126,United States,-122.3763875,47.53628883,2067081166,https://www.bestofhandsbarrelhouse.com,Washington,2026-02-22 21:29:36
8dcd6f88-53ee-4962-8558-bdaadade0da8,Better Half Brewing,closed,59 North Main St,Bristol,Connecticut,06010,United States,,,8602617062,https://www.betterhalfbrewing.com/,Connecticut,2026-02-22 21:29:36
8c9f84a1-485e-4ccc-92c1-e8bd54b2e246,Big Ridge Brewing Company,closed,5580 152nd St,Surrey,British Columbia,V3S 5J9,Canada,-122.8008912,49.1041652,,,British Columbia,2026-02-22 21:29:36
002012b4-afef-4e35-95bf-56930dbc599e,Big River Grille & Brewing Works - Chattanooga,closed,222 Broad St,Chattanooga,Tennessee,37402-1009,United States,-85.31070875,35.05387554,4232672739,http://www.craftworksrestaurants.com,Tennessee,2026-02-22 21:29:36
63356683-db1c-4f75-9bb5-98a0d4adf722,Big Rock Urban Brewery - British Columbia Brewery,closed,310 W 4th Ave,Vancouver,British Columbia,V5Y 1H3,Canada,-123.110776,49.2674915,,https://bigrockurban.com,British Columbia,2026-02-22 21:29:36
88559f42-b68b-4ba9-963c-c15d13986a72,Bird Nickel Brewing Company,closed,7592 Tred Avon Cir,Easton,Maryland,21601,United States,-76.1085271,38.7580923,4103106042,https://birdnickel.com,Maryland,2026-02-22 21:29:36
bfdbcc50-5bfa-443b-a2fa-586f433a28e0,Bitter Creek Brewing Co,closed,604 Broadway St,Rock Springs,Wyoming,82901-6348,United States,-109.2181243,41.58683904,3073624782,http://www.bittercreekbrewing.com,Wyoming,2026-02-22 21:29:36
638f8af8-5c7f-4eed-9b7e-5c199227e154,Blue Pants Brewery,closed,"500 Lanier Rd, Bld 1 - Ste A",Madison,Alabama,35758-8675,United States,,,2566796330,http://www.bluepantsbrew.com,Alabama,2026-02-22 21:29:36
6cf234fc-dbea-49e6-8f47-900554620a42,Bluewater Brewing Co,closed,318 S Royal Ave,Florence,Alabama,35630-4810,United States,-87.65970529,34.8041295,2562751221,http://www.facebook.com/pg/BluewaterBrewingCompanyInc,Alabama,2026-02-22 21:29:36
7363955c-5498-4fe3-becb-5c09ae0978bc,BNS Brewing & Distilling Co.,closed,10960 Wheatlands Ave Ste 101,Santee,California,92071-5617,United States,-116.9583418,32.84680335,6199560952,http://www.bnsbrewinganddistilling.com,California,2026-02-22 21:29:36
15ca5ecd-4af8-47bb-8f16-175d8cd6cb41,Bog Turtle Brewery,closed,10 East Main Street,Rising Sun,Maryland,21911,United States,-76.0624313,39.6979942,4847580416,http://www.bogturtlebrewery.com/,Maryland,2026-02-22 21:29:36
54d82d12-cdc6-4721-a519-40b53de28ffa,Bosk Brew Works,closed,14350 NE 193rd Pl,Woodinville,Washington,98072-8402,United States,-122.1492358,47.76907913,4254194782,https://boskbrewworks.com,Washington,2026-02-22 21:29:36
fd53e0a1-4115-4ebf-938b-e57335d40bbd,Branchline Brewing Company,closed,3633 Metro Pkwy,San Antonio,Texas,78247-3502,United States,,,3612908817,http://www.branchlinebrewing.com,Texas,2026-02-22 21:29:36
a3e3c312-6c4e-4bf1-b096-d1517e6f0bf5,Brawling Bear,closed,15 Fulks Corner Ave,Gaithersburg,Maryland,20877-2067,United States,-77.1960114,39.1403943,2408423272,http://www.brawlingbear.com,Maryland,2026-02-22 21:29:36
2cae687c-f263-42ef-91e8-e0bfd27148ce,Breaking Waves Brewing,closed,3388 NW Byron St #100,Silverdale,Washington,98383,United States,-122.6956621,47.64553955,3602862670,https://breakingwavesbrewing.com,Washington,2026-02-22 21:29:36
24809e21-a74e-4177-b138-99aae56fe7f9,Brew House No 16,closed,831 N Calvert St,Baltimore,Maryland,21202-3705,United States,-76.6127147,39.2996249,4106594084,http://www.brewhouseno16.com,Maryland,2026-02-22 21:29:36
0d4f2536-6686-4da4-a456-93da2a6faf53,Brew Rebellion,closed,195 N Del Rosa Dr,San Bernardino,California,92408,United States,-117.2511307,34.10279311,9519074844,http://www.brewrebellion.com,California,2026-02-22 21:29:36
4d98fc4c-5c85-4cce-a092-b6d3a19ca70a,BrewBakers Brewery,closed,11927 84th St NE,Lake Stevens,Washington,98258-8906,United States,-122.0677165,48.07328466,3606919025,http://www.brewbakersbrewery.com,Washington,2026-02-22 21:29:36
1fe308b9-913a-4251-bd2c-b58b956258f1,Bridal Veil Brewing,closed,5040 Ca-140 Ste C,Mariposa,California,95338,United States,-119.9655984,37.4858541,2099667837,http://www.facebook.com/Bridal-Veil-Brewing-114925729113371,California,2026-02-22 21:29:36
33f3c0ee-2a5c-4698-8345-b4db2950dd0d,Broken Gate Brewing,closed,1201 S Charles St,Baltimore,Maryland,21230,United States,-76.6166558,39.2755847,3103453570,https://www.facebook.com/brokengate/,Maryland,2026-02-22 21:29:36
b9a37b8e-13e6-4c20-aeda-c19bdc6a0804,Buffalo Water Beer Co,closed,"309 N Water St, #315",Milwaukee,Wisconsin,53202-5710,United States,-87.9092089,43.0341323,4142734680,http://www.buffalowaterbeer.com,Wisconsin,2026-02-22 21:29:36
b340b266-417c-42f7-8344-1545ced2ee6c,Burdick Brewery,closed,8520 14th Ave S,Seattle,Washington,98108-4803,United States,-122.3145617,47.5267286,2069099632,http://www.burdickbrewery.com,Washington,2026-02-22 21:29:36
793cbd77-2732-4885-b54b-4731b9cb226c,"Burly Brewing Company, LLC",closed,680 Atchison Way Ste 700-800,Castle Rock,Colorado,80109-3106,United States,,,,http://www.burlybrewing.com,Colorado,2026-02-22 21:29:36
f4df6f7e-2332-45e8-98c2-0e917a2177ad,Bute Brew Co,closed,15-17 Columshill Street,Isle of Bute,Bute,PA20 0DN,Scotland,-5.058482,55.835396,1700504206,http://butebrewco.co.uk/,Bute,2026-02-22 21:29:36
4d071d65-60eb-4e9a-9efa-9a65bf811cd3,C.B. and Potts/Big Horn Brewery - Englewood,closed,6575 Greenwood Plaza Blvd,Englewood,Colorado,80111-4933,United States,,,3037701982,http://www.cbpotts.com,Colorado,2026-02-22 21:29:36
0ba6de0f-d84b-4e89-a608-8a5d70a7d612,C.B. and Potts/Big Horn Brewery - Highlands Ranch,closed,43 W Centennial Blvd,Highlands Ranch,Colorado,80129-2323,United States,-104.9887246,39.56211674,7203441200,http://www.cbpotts.com,Colorado,2026-02-22 21:29:36
cfacd093-a793-4110-b337-ba26fa5f0d3e,C.B. and Potts/Big Horn Brewery - Westminster,closed,1257 W 120th Ave,Westminster,Colorado,80234-2725,United States,-105.0040899,39.91376115,3034515767,http://www.cbpotts.com,Colorado,2026-02-22 21:29:36
0254d394-bf18-4793-900b-7320ae176e3c,Cairn Brewing,closed,7204 NE 175th St,Kenmore,Washington,98028-3561,United States,-122.2440866,47.7571424,4259495295,http://www.cairnbrewing.com,Washington,2026-02-22 21:29:36
66830819-c0ed-462b-b7c6-5b6006fa7df0,Calvert Brewing Co,closed,150 Adelina Rd,Prince Frederick,Maryland,20678-3709,United States,-76.9271225,38.5085398,4104148486,http://www.calvertbrewingcompany.com,Maryland,2026-02-22 21:29:36
604378f2-9c18-4ac2-bd4b-206f4423d9ea,"Cane River Brewing Co., L.L.C",closed,,Natchitoches,Louisiana,71457,United States,,,3184719115,http://www.caneriverbrewing.com,Louisiana,2026-02-22 21:29:36
2e7ae73a-42cf-4e35-89c2-41d5557727eb,Cascadia Brewing Co.,closed,211 4th Ave E,Olympia,Washington,98501-1104,United States,-122.900174,47.04491273,3609432337,http://www.cascadiahomebrew.com,Washington,2026-02-22 21:29:36
37adfb0e-f64e-4e66-98d9-9dde6a7df11d,Cash Brewing Company,closed,3388 NW Byron St Ste 100,Silverdale,Washington,98383-8548,United States,,,3606337852,http://www.cashbrewing.com,Washington,2026-02-22 21:29:36
51a0b7c1-2250-44a6-a188-7bfd732ef861,Castle Rock Beer Company,closed,514 Perry St Ste C106,Castle Rock,Colorado,80104-1711,United States,,,7203289008,http://www.castlerockbeerco.com,Colorado,2026-02-22 21:29:36
946fddaa-7222-4ece-823e-52896e661874,Cathedral Square Brewery,closed,3914 Lindell Blvd,Saint Louis,Missouri,63108-3204,United States,-90.2439837,38.6394897,3148033605,http://www.cathedralsquarebrewery.com,Missouri,2026-02-22 21:29:36
e491569f-4349-4ccf-8767-e59d8c353fb3,Central City Brewing Company - Surrey,closed,11411 Bridgeview Dr.,Surrey,British Columbia,V3R 2N1,Canada,-122.845,49.1991,16045882337,http://www.centralcitybrewing.com/,British Columbia,2026-02-22 21:29:36
10bbba8b-368e-4c6e-adeb-cc6ff7faa782,Chainline Brewing Company,closed,503 6th St S,Kirkland,Washington,98033-6717,United States,-122.1967583,47.6717847,4252420923,http://www.chainlinebrewing.com,Washington,2026-02-22 21:29:36
50f44b4d-4e59-4fbb-9a62-f10bb61496c5,Chaos Bay Brewing Co,closed,2901 Perry Ave,Bremerton,Washington,98310-4945,United States,-122.6145084,47.58932601,3603772344,https://www.chaosbaybrewing.com,Washington,2026-02-22 21:29:36
c7b4ae17-1cbd-4a08-9b21-07a7a0bf1689,Chatoe Rogue Farmstead Brewery,closed,3590 Wigrich Rd,Independence,Oregon,97351-9708,United States,-123.0958477,44.80583507,5038389813,http://www.rogue.com,Oregon,2026-02-22 21:29:36
42e77bcd-0745-4456-bd46-4a917ce4e790,Chattahoochee Brewing Co,closed,505 13th St Ste A,Phenix City,Alabama,36867-5128,United States,,,3345590663,http://www.beerontheriver.com,Alabama,2026-02-22 21:29:36
18b7d2b2-1f37-41af-a89f-837ce6e80691,Cheaha Brewing Co,closed,1208 Walnut Ave,Anniston,Alabama,36201-4526,United States,-85.83377405,33.6601671,2567707300,http://www.cheahabrewingcompany.com,Alabama,2026-02-22 21:29:36
7646821c-eb5d-4e8f-888e-d1f76f9cb366,Chesapeake Brewing Co,closed,114 West St,Annapolis,Maryland,21401-2802,United States,-76.497474,38.9780816,4102680000,http://www.chesbrewco.com,Maryland,2026-02-22 21:29:36
d93058cf-49b3-4703-b194-d92f827e778f,Chino Valley Brewery,closed,"1609 E. Grove Ave, Unit 109",Ontario,California,91761-5786,United States,-117.627567,34.05034112,9512917117,http://www.chinovalleybrewery.com,California,2026-02-22 21:29:36
65025df7-32bc-4a38-a4f5-09492aa403bb,ChuckAlek Independent Brewers,closed,2330 Main St Ste C,Ramona,California,92065-2539,United States,-116.8892394,33.02777389,,http://www.chuckalek.com,California,2026-02-22 21:29:36
813e88ed-ddef-4c0c-9151-66ab6f745a2e,Chuckanut Brewery - North Nut,closed,601 W Holly St,Bellingham,Washington,98225-3920,United States,-122.4851164,48.7533261,3607523377,https://chuckanutbrewery.com/north-nut/,Washington,2026-02-22 21:29:36
3c601a1e-82a4-4cc3-a407-3a5e6306438a,Church Owl Beer,closed,,Stratford,Connecticut,06615-7320,United States,,,,http://www.churchowlbeer.com,Connecticut,2026-02-22 21:29:36
6305c46c-4977-4df8-9f2e-fc98709f971f,Circle 7 Brew Works,closed,20290 Corbridge Rd SE,Monroe,Washington,98272-8602,United States,-121.9584645,47.86794845,2067470269,,Washington,2026-02-22 21:29:36
acb378f5-15e7-4a1a-b73b-c1e49f17d8a1,Circle 9 Brewing,closed,7292 Opportunity Rd Ste C,San Diego,California,92111-2223,United States,-117.160822,32.82600737,8586342537,http://www.circle9brewing.com,California,2026-02-22 21:29:36
b352a68f-2c4f-476c-a552-7a4fa911d64e,City Steam Brewery,closed,942 Main St Lbby 3,Hartford,Connecticut,06103-1215,United States,,,8605251600,,Connecticut,2026-02-22 21:29:36
9aab61ae-eeb8-493e-8c80-92e79bd86a2c,Cliffside Brewing,closed,16B Center St,Wallingford,Connecticut,06492-4110,United States,-72.8236736,41.45664583,,http://www.cliffsidebrewing.com,Connecticut,2026-02-22 21:29:36
08155729-56b6-4a82-a43e-5b458dd01c2e,Coalition Brewing Co,closed,2705 SE Ankeny St Ste C,Portland,Oregon,97214-1817,United States,-122.6381854,45.5225809,5038948080,http://www.coalitionbrewing.com,Oregon,2026-02-22 21:29:36
ec0384fd-8f69-4853-918d-bbc46329e657,Cold Crash Brewing,closed,4507 48th Ave SW,Seattle,Washington,98116-4039,United States,-122.39395,47.56329,2064864644,https://www.coldcrashbrewing.com,Washington,2026-02-22 21:29:36
9e9d2ed9-ee58-44ce-8694-374196db165e,Constellation Brands,closed,9045 Caroll Way,San Diego,California,92121,United States,-117.1578979,32.88808261,,,California,2026-02-22 21:29:36
ed8d31a5-35b4-48fb-b2df-971d9951e915,Conversations Brewing,closed,,Battle Ground,Washington,98604,United States,,,,,Washington,2026-02-22 21:29:36
760afc6b-a382-428e-b9d4-074e683f7abc,Cottrell Brewing Co,closed,100 Mechanic St,Pawcatuck,Connecticut,06379-2163,United States,-71.834289,41.370676,8605998213,http://www.cottrellbrewing.com,Connecticut,2026-02-22 21:29:36
dc26c773-cddd-48f4-9440-39d5a3f46cc9,Counterbalance Brewing Company,closed,503 S Michigan St Ste B,Seattle,Washington,98108-3305,United States,-122.3279252,47.54555555,2064533615,http://www.counterbalancebeer.com,Washington,2026-02-22 21:29:36
11ca4b21-c34e-4857-9434-b1f264140524,Covington Brewhouse,closed,226 E Lockwood St,Covington,Louisiana,70433-2828,United States,-90.0970557,30.47766326,9858932884,http://www.covingtonbrewhouse.com,Louisiana,2026-02-22 21:29:36
6fd8fda4-acc3-447c-ae41-254d581bbe25,Crucible Brewing - Woodinville Forge,closed,12826 NE 178th St Ste C,Woodinville,Washington,98072-8737,United States,-122.167861,47.757935,4254839855,http://www.cruciblebrewing.com,Washington,2026-02-22 21:29:36
b2648189-33cc-4205-ad69-87d9f1e5abe1,Dakota Territory Brewing,closed,224 S Main St,Aberdeen,South Dakota,57401-4138,United States,-98.48853502,45.46249262,6052166650,http://www.facebook.com/DakotaTerritoryBrewing,South Dakota,2026-02-22 21:29:36
ef1cf3fb-430d-4334-a7db-69ea18ecead9,Dave's Brew Farm,closed,2470 Wilson St,Wilson,Wisconsin,54027-3950,United States,-92.176188,44.959339,6124328130,http://www.brewfarm.com,Wisconsin,2026-02-22 21:29:36
4e286a11-b83b-4b84-9cc7-26165de8cbb7,Deception Brewing Company,closed,1174 SW Highway 99W,Dundee,Oregon,97115,United States,-123.0147466,45.27437643,9718328054,http://www.deceptionbrewingco.com,Oregon,2026-02-22 21:29:36
3bdba496-2442-4bef-b18d-08d6f2c525b3,Decibel Brewing Co,closed,18204 Bothell Everett Hwy Ste C,Bothell,Washington,98012-6869,United States,-122.210174,47.833364,4254081946,http://www.decibelbrewing.com,Washington,2026-02-22 21:29:36
a50dfe25-5de9-4b5f-8a1a-b04a489e26ea,Deep Sleep Brewing Company LLC,closed,6891 Whiskey Creek Rd.,Washington,Missouri,63090,United States,,,3142395801,,Missouri,2026-02-22 21:29:36
0ab6f6fc-b741-4c2e-8e03-6987401a3837,Delicious Science Brewing,closed,11626 Sterling Ave Ste G,Riverside,California,92503-4991,United States,-117.4850052,33.89543379,9513522739,http://www.delicioussciencebreing.com,California,2026-02-22 21:29:36
da34f414-042a-4e65-ad6e-3069b6a205d0,Dempsey's Brew Pub and Restaurant - Baltimore,closed,333 W Camden St,Baltimore,Maryland,21201,United States,-76.620285,39.2840156,4108437901,http://www.dempseysbaltimore.com,Maryland,2026-02-22 21:29:36
afcd66d0-520e-456b-a377-caeda279a70e,Der Blokken Brewery,closed,1100 Perry Ave Unit C,Bremerton,Washington,98310-4945,United States,,,3603772344,http://www.derblokken.com,Washington,2026-02-22 21:29:36
57143be8-1253-4486-a45e-f725021068a5,Dirty Bucket Brewery,closed,19151 144th Ave NE,Woodinville,Washington,98072-4374,United States,-122.1484843,47.7661918,2068191570,http://www.dirtybucketbrewery.com,Washington,2026-02-22 21:29:36
ad2e2d38-f7f8-4c10-899a-9b14ad947743,Dissident Brewing,closed,,Milwaukee,Wisconsin,53207-3221,United States,,,4145171845,http://www.dissidentbrewing.com,Wisconsin,2026-02-22 21:29:36
f6f63bf2-1334-4a58-8254-a0ac22457e05,District 14 Brewery & Pub,closed,2273 S Howell Ave,Milwaukee,Wisconsin,53207-1325,United States,-87.9095587,42.9581912,4147440399,,Wisconsin,2026-02-22 21:29:36
a5f7b66a-2f51-4161-9365-0eef5aa282a5,District ChopHouse and Brewery,closed,509 7th St NW,Washington,District of Columbia,20004-1600,United States,-77.0216694,38.8965132,2023473434,http://www.districtchophouse.com,District of Columbia,2026-02-22 21:29:36
ee957438-dbb4-4cc4-8731-d3482d3a4775,Dixie Brewing Co Inc.,closed,6221 S Claiborne Ave Ste 101,New Orleans,Louisiana,70125-4191,United States,,,5048228711,,Louisiana,2026-02-22 21:29:36
2795f339-b872-44dd-af71-e79550711989,"Dixie Brewing Company, LLC",closed,1450 Poydras St Ste 580,New Orleans,Louisiana,70112-1227,United States,,,5059176071,http://www.dixiebeer.com,Louisiana,2026-02-22 21:29:36
fbcea47b-76f9-41eb-9014-2a3f30e4947a,Doan's Craft Brewing Company,closed,1830 Powell St,Vancouver,British Columbia,V5L 1H9,Canada,-123.0672742,49.2841859,,,British Columbia,2026-02-22 21:29:36
78c50e54-34e3-415d-9574-ac0cc0505113,Dog & Pony Alehouse and Grill,closed,351 Park Ave N,Renton,Washington,98057-5716,United States,-122.2023129,47.48758261,4252548080,http://www.thedogandpony.com,Washington,2026-02-22 21:29:36
55608d36-62d6-449d-a7f6-a1e0df277831,Doomsday Brewing Pub and Pizza - Vancouver,closed,9301 NE 5th Ave Ste 120,Vancouver,Washington,98665-8271,United States,-122.6666369,45.68816081,3605598241,http://www.doomsdaybrewing.com,Washington,2026-02-22 21:29:36
ffcc9d52-9de7-41a6-956c-36875ca71dca,Downdraft Brewing Co,closed,418 W Seltice Way,Post Falls,Idaho,83854-,United States,-116.9573256,47.715079,2082624233,http://www.downdraftbrewing.com,Idaho,2026-02-22 21:29:36
117dfbba-3145-4e39-b43d-5cc9964d2467,DuClaw Brewing Co,closed,8901 Yellow Brick Rd Ste B,Baltimore,Maryland,21237-2349,United States,-76.5943772,39.2805949,4435599900,http://www.duclaw.com,Maryland,2026-02-22 21:29:36
5d2bad15-ad08-486d-b92a-4c70fc276f7e,Duvig Brewing Co,closed,59 School Ground Rd Ste 10,Branford,Connecticut,06405-2868,United States,,,2032082213,http://www.duvig.com,Connecticut,2026-02-22 21:29:36
e50a6745-e422-4e58-9d76-a906b3b37e10,Earth And Fire Brewing Company,closed,825 Riverside Ave Ste 1,Paso Robles,California,93446-2660,United States,-120.6868512,35.62375364,8052702959,http://Www.earthandfirebrewing.com,California,2026-02-22 21:29:36
3dfa223c-f2e6-45e2-a2c3-bf9bcc5c53dd,Eddie McStiffs Brewing Co c/o Eddie Snyder,closed,57 S Main St,Moab,Utah,84532-2502,United States,,,4352592337,http://www.eddiemcstiffs.com,Utah,2026-02-22 21:29:36
97826164-b0b6-4012-b8d7-a25d2eb3b252,Edwinton Brewing Company,closed,407 E Main Ave,Bismarck,North Dakota,58501-4043,United States,-100.7859036,46.80535377,7017127700,http://www.edwinton.com,North Dakota,2026-02-22 21:29:36
92d0b2ac-85a6-4f1a-a11e-4a05e1bf0767,Ellersick Brewing / Big E Ales,closed,5030 208th St SW Ste A,Lynnwood,Washington,98036-7642,United States,-122.301844,47.810408,4256727051,http://www.bigeales.com,Washington,2026-02-22 21:29:36
2e09ce9b-c3ef-4bfd-a0ef-f64e283d7369,Elysian Brewing Co -Tangletown,closed,2106 N 55th St,Seattle,Washington,98103-6202,United States,-122.333474,47.6687837,2065475929,,Washington,2026-02-22 21:29:36
1a244e49-1067-49cf-b1ec-5006c1c1158c,English Setter Brewing Company,closed,15310 E Marietta Ave Ste 4,Spokane,Washington,99216-1876,United States,-117.1983425,47.68121756,5094133663,http://www.englishsetterbrewing.com,Washington,2026-02-22 21:29:36
413d419f-ee43-4e41-a70e-4e7268346f9b,Enumclaw Brewing Company @ Rockridge Orchards & Cidery,closed,40709 264th Ave SE,Enumclaw,Washington,98022-8366,United States,,,3608026800,http://www.rockridgeorchards.com,Washington,2026-02-22 21:29:36
20c6bcdb-a3ed-474a-a759-9505c03b8d87,"Epic Brewing Co., LLC",closed,1048 E 2100 S Ste 110,Salt Lake City,Utah,84106-,United States,,,8017425490,http://www.epicbrewing.com,Utah,2026-02-22 21:29:36
0bd3a805-101a-44af-97ee-eae99c7fe1c7,Fall River Brewing Company,closed,24339 State Highway 89,Burney,California,96013-9615,United States,-121.6230357,40.99337635,,http://www.fallriverbrewing.com,California,2026-02-22 21:29:36
8cd7a35b-7a2e-43ab-bdcd-f3a2f2cd8331,Fat Boy Brewing Co,closed,2851 S Stratton Dr,Milwaukee,Wisconsin,53219-2759,United States,-88.0130081,42.99227079,4147616366,http://www.fatboybeer.com,Wisconsin,2026-02-22 21:29:36
8c2b58e7-e1fc-495d-adda-5be4c18fb4e1,Feral Public House,closed,1109 Washington St,Vancouver,Washington,98660,United States,-122.6723137,45.63010593,3608365255,http://www.heathenbrewing.com,Washington,2026-02-22 21:29:36
4ecfebcb-93eb-4bb3-a794-6e1e57ca3842,Ffats Brewing Co,closed,36447 Main St,Whitehall,Wisconsin,54773-9108,United States,-91.3167513,44.3712155,7155383162,http://www.ffatsbrewing.com,Wisconsin,2026-02-22 21:29:36
e13762c8-53a1-48a0-a915-c096492b06d6,Firefly Hollow Brewing Co.,closed,139 Center St Ste 5005,Bristol,Connecticut,06010-5086,United States,,,8608458977,http://www.fireflyhollowbrewing.com,Connecticut,2026-02-22 21:29:36
2d60ec76-646d-4512-9e57-4d04406cd1e2,Fish Brewing Co,closed,514 Jefferson St SE,Olympia,Washington,98501-1467,United States,-122.8954179,47.03437129,3609436480,http://www.fishbrewing.com,Washington,2026-02-22 21:29:36
10364982-a5d1-4595-bf95-25068d2386e3,Fish Brewing Pub & Eatery,closed,5108 Grand Loop,Ruston,Washington,98407-3180,United States,,,,,Washington,2026-02-22 21:29:36
d267fb22-568a-4037-83d0-2c2daf10a815,Five Dons Brewing Co,closed,1158 11th Ave,Longview,Washington,98632-3110,United States,-122.9326287,46.13418506,3604306440,http://www.fivedonsbeer.com,Washington,2026-02-22 21:29:36
0999dab4-ac44-4694-8acf-e9e50d95cb92,Flatland Brewery,closed,"3140 Bluestem Dr, Ste 105",West Fargo,North Dakota,58078-8009,United States,-96.88473642,46.8342508,7013531178,http://www.flatlandbrewery.com,North Dakota,2026-02-22 21:29:36
73c24a7a-a78f-4958-93b0-ff937ab9bf37,Floating Bridge Brewing,closed,722 NE 45th St,Seattle,Washington,98105-4719,United States,-122.3198017,47.6615295,2064664784,http://www.floatingbridgebrewing.com,Washington,2026-02-22 21:29:36
f80dcefb-bbb4-4a31-ac13-be85108c31f3,FlyBoy Brewing,closed,15630 Boones Ferry Rd Ste 1A,Lake Oswego,Oregon,97035-3455,United States,-122.7165,45.41274998,5039081281,http://www.flyboybeer.com,Oregon,2026-02-22 21:29:36
83987247-12ba-49f6-b677-6b28384d3c9d,Flycaster Brewing Co.,closed,12815 NE 124th St Ste I,Kirkland,Washington,98034-8313,United States,-122.169021,47.711115,2069636626,https://flycasterbrewing.com,Washington,2026-02-22 21:29:36
60dbcce5-f754-4a42-ac63-e3a246b7a0fb,Flyers Restaurant and Brewery,closed,32295 State Route 20,Oak Harbor,Washington,98277-5923,United States,-122.6528474,48.2991197,3606755858,http://www.eatatflyers.com,Washington,2026-02-22 21:29:36
942a943c-ddf3-4a7c-984b-2176a1ba8834,Flying Dreams Brewing Co.,closed,455B Park Ave,Worcester,Massachusetts,01610,United States,-71.82618857,42.25419957,5089268251,http://www.flyingdreamsbrewing.com,Massachusetts,2026-02-22 21:29:36
af5b4f9c-51d7-4813-8ed6-30aa56cb8dea,Foothills Brewing and Beverage Co,closed,25312 Kanaskat Dr,Black Diamond,Washington,98010,United States,-122.006345,47.328838,3608862215,,Washington,2026-02-22 21:29:36
e85a8ede-cc69-446a-a751-75e47c74dc2c,Forward Operating Base Brewing Company / FOB Brewing,closed,2750 Williamson Pl Ste 100,Dupont,Washington,98327-7501,United States,-122.625039,47.107496,2535074667,http://www.fobbrewingcompany.com,Washington,2026-02-22 21:29:36
a8874024-4542-4460-adf9-a7ee686d7b92,Fox Island Brewing,closed,2416 14th Ave NW,Gig Harbor,Washington,98335,United States,,,,http://www.foxislandbrewing.com,Washington,2026-02-22 21:29:36
769105a9-f552-4c1c-80b5-e85463582e8c,Friday Harbor Brewing,closed,665B Mullis St,Friday Harbor,Washington,98250-7902,United States,-123.0223327,48.53026803,3603786205,http://www.fridayharborbrewhouse.com,Washington,2026-02-22 21:29:36
0120a1a8-0a8d-41bf-b356-a7ee260e26cd,Full Tilt Brewing,closed,5604 York Road,Baltimore,Maryland,21212,United States,-76.610116,39.3581894,4438352248,http://www.fulltiltbrewing.com,Maryland,2026-02-22 21:29:36
f0b97d36-2842-4fcc-9860-4186de1d481c,Funk Factory Geuzeria,closed,1602 Gilson St,Madison,Wisconsin,53715-2128,United States,-89.39197973,43.05010177,,http://www.funkfactorygeuzeria.com,Wisconsin,2026-02-22 21:29:36
71c9be05-8424-4ae0-85e4-12bd966cec0d,Gateway Craft Brewing,closed,"2207 Northwood Drive, Suite 3A",Salisbury,Maryland,21801,United States,-75.5793429,38.4003444,4439443916,https://www.facebook.com/profile.php?id=100057546636195,Maryland,2026-02-22 21:29:36
f478ca13-2978-4461-9651-3949addc563a,Geaux Brewing LLC,closed,3205 C St NE,Auburn,Washington,98002-1725,United States,-122.2237209,47.30767457,2533973939,http://www.geauxbrewing.com,Washington,2026-02-22 21:29:36
ee356525-7374-4203-97ee-767fbcef6cc2,Gig Harbor Brewing,closed,3120 South Tacoma Way,Tacoma,Washington,98409-4717,United States,-122.4772721,47.22805896,2538304653,http://www.gigharborbrewing.com,Washington,2026-02-22 21:29:36
1b089764-3735-43f2-98a8-547b88e4a487,Gillette Brewing Company,closed,301 S Gillette Ave,Gillette,Wyoming,82716-3705,United States,-105.5036145,44.29203825,3076708948,http://www.gillettebrewingcompany.com,Wyoming,2026-02-22 21:29:36
045fb2d4-698c-4d1a-a8ca-ecf225871dd3,Golden Handle Project,closed,111 S Cedar St,Spokane,Washington,99201,United States,-117.4326605,47.65656661,5098680264,https://www.goldenhandle.org,Washington,2026-02-22 21:29:36
9a0a767e-4958-40b0-8ed1-74bd5e719cc2,Gordon Biersch Brewery Restaurant - Annapolis,closed,1906 Towne Centre Blvd Ste 155,Annapolis,Maryland,21401-3681,United States,-76.5443839,38.9815401,4102665965,http://www.craftworksrestaurants.com,Maryland,2026-02-22 21:29:36
f7086ed0-8048-47ae-81a9-6de88b8ee3e5,Gordon Biersch Brewery Restaurant - Baltimore,closed,1000 Lancaster St Ste B,Baltimore,Maryland,21202-4631,United States,-76.599724,39.282547,4102309501,http://www.craftworksrestaurants.com,Maryland,2026-02-22 21:29:36
961d74ed-dc8a-4894-8283-b979b6e547af,Gordon Biersch Brewery Restaurant - Columbus,closed,401 N Front St Ste 120,Columbus,Ohio,43215-8200,United States,-83.0040735,39.9703677,6142462900,http://www.gordonbiersch.com/restaurant,Ohio,2026-02-22 21:29:36
abba7334-109f-4923-89de-c3ba7d83aad1,Gordon Biersch Brewery Restaurant - Honolulu,closed,1 Aloha Tower Dr Ste 1123,Honolulu,Hawaii,96813-4815,United States,-157.86622,21.306704,8085994877,http://www.gordonbiersch.com/restaurant,Hawaii,2026-02-22 21:29:36
63b91345-1bf4-420d-8f66-206d18476eb9,Gordon Biersch Brewery Restaurant - Navy Yard,closed,100 M St SE,Washington,District of Columbia,20003-3519,United States,-77.0052971,38.8766834,2024842739,http://www.gordonbiersch.com/locations/navy-yard?action=view,District of Columbia,2026-02-22 21:29:36
9448e983-7a49-499e-854b-9b2008fe58b2,Gordon Biersch Brewery Restaurant - Rockville,closed,200 E Middle Ln Unit A,Rockville,Maryland,20850-2206,United States,-77.150795,39.08526,3013407159,http://www.craftworksrestaurants.com,Maryland,2026-02-22 21:29:36
c24f54a0-dbde-40c1-8e15-c78dffb5e2c2,Gordon Biersch Brewery Restaurant - Seattle,closed,600 Pine St Ste 401,Seattle,Washington,98101-3709,United States,,,2064054205,http://www.craftworksrestaurants.com,Washington,2026-02-22 21:29:36
cb2ba6de-fc98-4ae0-83a4-b775bda03f2c,Gordon Biersch Brewery Restaurant - Washington,closed,900 F St NW,Washington,District of Columbia,20004-1404,United States,-77.0243479,38.8971375,2027835454,http://www.gordonbiersch.com/locations/washington-dc?action=view,District of Columbia,2026-02-22 21:29:36
e355ff68-d879-48f6-bda8-1b68ecc68096,Grail Point Brewery,closed,700 W Main St,Emmitsburg,Maryland,21727,United States,-77.3357491,39.706816,2408442379,http://www.grailpointbeer.co,Maryland,2026-02-22 21:29:36
73f4533a-d1cc-4d4b-b82f-6a76b348f147,Granary 'Cue and Brew,closed,602 Avenue A,San Antonio,Texas,78215-1222,United States,-98.47916983,29.44143325,2102280124,http://www.thegranarysa.com,Texas,2026-02-22 21:29:36
619567a1-5820-4d76-8e6f-9a6c9fdeb0bb,Granite Roots Brewing,closed,244 N Main St,Troy,New Hampshire,03465,United States,-72.18973144,42.84401358,6032423435,http://www.graniterootsbrewing.com,New Hampshire,2026-02-22 21:29:36
9a89836a-5d4d-46f4-b51c-4150cc63fc72,Great Falls Brewing Company,closed,,Canaan,Connecticut,06018,United States,,,8609217843,http://GreatFallsBrews.com,Connecticut,2026-02-22 21:29:36
81bda7fc-e284-4140-b2b0-7d43f5ad9212,Green Flash Brewing Co,closed,1630 P St,Lincoln,Nebraska,68508-1644,United States,-96.69768022,40.81481116,4029752285,,Nebraska,2026-02-22 21:29:36
b30ceb44-ad34-4102-a1a4-0e3f888ac787,Green Leaf Brewing Co.,closed,123 Carrie Cates Ct,North Vancouver,British Columbia,V7M 2E4,Canada,-123.0815601,49.310644,,,British Columbia,2026-02-22 21:29:36
99d5c421-3198-4d61-98b1-726595c930e2,Green Oak Brewing,closed,1427 Wine Country Rd,Prosser,Washington,99350-1148,United States,-119.7707374,46.210051,5097864922,http://www.whitstranbrewing.com,Washington,2026-02-22 21:29:36
8d234406-06c0-4ae0-8d45-f962b4ef0db0,Greer Brewing,closed,16050 Manchester Rd,Ellisville,Missouri,63011-2161,United States,-90.59484652,38.590625,6363463979,http://www.greerbrewingco.com,Missouri,2026-02-22 21:29:36
34536644-1060-4bd2-8103-b9e8352696fb,Grist Brewing Company,closed,9150 Commerce Center Cir Ste 300,Highlands Ranch,Colorado,80129-1563,United States,,,703604782,http://gristbrewingcompany.com,Colorado,2026-02-22 21:29:36
8ea7776f-0bc8-445c-8153-7263e2b3124c,Grixsen Brewing Co,closed,1001 SE Division St Ste 1,Portland,Oregon,97202-1076,United States,-122.6554541,45.5052337,9713473100,http://www.grixsen.com,Oregon,2026-02-22 21:29:36
53b5c0a9-2201-4a60-a110-fe1136a658ea,GSP Craft Brewing,closed,,Gig Harbor,Washington,98332-7918,United States,,,2533281121,http://www.facebook.com/gspcraftbrewing,Washington,2026-02-22 21:29:36
314a71f6-2f8c-4461-8a64-d479b1002129,Haint Blue Brewing Company,closed,806 Monroe Street,Mobile,Alabama,36602,United States,-88.05126184,30.68474321,,http://haintbluebrew.com,Alabama,2026-02-22 21:29:36
593a9ce4-520b-458f-a184-05debb3a7295,Hale's Ales Brewery and Pub,closed,4301 Leary Way NW,Seattle,Washington,98107-4538,United States,-122.3655909,47.6592451,2069632118,http://www.halesbrewery.com,Washington,2026-02-22 21:29:36
afd6863b-7e66-4f05-aca0-319fc7054288,Half Lion Brewing Company,closed,1723 West Valley Hwy E Ste 101,Sumner,Washington,98390-9700,United States,-122.2553244,47.24128441,2537504479,http://www.halflion.com,Washington,2026-02-22 21:29:36
37d585b5-00ee-4be0-ac6b-6d15b6416cac,Half Lion Public House,closed,2019 W Meeker St,Kent,Washington,98032,United States,-122.2629041,47.38103,2532770685,https://www.halflion.com,Washington,2026-02-22 21:29:36
cdcc3305-d175-4cdb-b775-c150700bca78,Harmon Brewing Company,closed,204 St Helens Ave,Tacoma,Washington,98402-2522,United States,-122.4457804,47.26209356,253212725,http://www.harmonbrewingco.com,Washington,2026-02-22 21:29:36
6244855f-97dd-487a-bb90-348b8c3b26f5,Hawaii Nui Brewing,closed,275 E Kawili St,Hilo,Hawaii,96720-5074,United States,-155.0697885,19.70587596,8089348211,http://www.hawaiinuibrewing.com,Hawaii,2026-02-22 21:29:36
81292878-bdc3-40ab-8237-c84d384c2b6d,Headless Mumby Brewing,closed,232 Division St NW,Olympia,Washington,98502,United States,-122.92562,47.04735502,3607423880,https://www.headlessmumbybrewing.com,Washington,2026-02-22 21:29:36
023d4223-5217-4834-a4c6-8469b395a900,HeadStrong Brewery,closed,126 N 3rd St,Douglas,Wyoming,82633-2163,United States,-105.3842083,42.76025521,3073514061,http://www.headstrongbrewery.com,Wyoming,2026-02-22 21:29:36
107e6673-b345-431f-83c5-98f04b61ad44,Heart & Solar Brewing,closed,21213 York Rd,Parkton,Maryland,21120-9253,United States,-76.6498797,39.7058879,4104938030,http://www.heartandsolarbrewing.com/,Maryland,2026-02-22 21:29:36
927ffb27-e24f-48d9-b1f4-20a4eb1b9e75,Heaven & Ale Brewing Co,closed,300 Cherokee Blvd Ste 101,Chattanooga,Tennessee,37405-3811,United States,-85.311847,35.064349,4044416434,http://www.heavenandalebrewing.com,Tennessee,2026-02-22 21:29:36
84c2ff86-a12b-41a9-925b-69c21f182171,Hellbender Brewing Company,closed,5788 2nd St NE,Washington,District of Columbia,20011-2524,United States,-77.0053314,38.9603005,2022301030,http://www.hellbenderbeer.com,District of Columbia,2026-02-22 21:29:36
11f16c8a-e029-4f1c-8535-d8c736df682c,"Helm's Brewing Company, LLC",closed,5640 Kearny Mesa Rd Ste C,San Diego,California,92111-1312,United States,-117.1389741,32.8373435,2092024308,http://www.helmsbrewingco.com,California,2026-02-22 21:29:36
b94bee85-f9e3-4ad0-95b5-d9d031e15f1a,Herbert B. Friendly Brewing,closed,527 Wells Ave S,Renton,Washington,98057-2703,United States,-122.205605,47.47609918,4252434372,http://www.drinkhbf.com,Washington,2026-02-22 21:29:36
22a3cd4c-ae04-4147-9cd8-b6eaa845ee92,High Heel Brewing,closed,5656 Oakland,Saint Louis,Missouri,63110,United States,,,,http://highheelbrewing.com,Missouri,2026-02-22 21:29:36
ed35940e-06b8-4323-834d-865d107bb6af,Highway 79 Brewery,closed,27631 SD Hwy 79,Hot Springs,South Dakota,57747-7304,United States,-103.3966292,43.40115,,,South Dakota,2026-02-22 21:29:36
ad3d52fd-8b41-48f9-82a2-168aeb548402,Home of the Brave Brewing Company,closed,909 Waimanu St,Honolulu,Hawaii,96814-3309,United States,-157.8535966,21.29875689,8083968112,http://www.hotbbc.com,Hawaii,2026-02-22 21:29:36
db9c3f9b-48fb-43c2-9a29-26624d6c8ec4,Hop Nation Brewing Company,closed,31 N 1st Ave,Yakima,Washington,98902-2663,United States,-120.5097321,46.6018934,5099856449,http://www.hopnation.us,Washington,2026-02-22 21:29:36
d9bc1bbe-06ea-42a8-bf8c-9b0f44e0a4a3,Hoparazzi Brewing Co,closed,2910 E La Palma Ave Ste D,Anaheim,California,92806-2618,United States,-117.8636661,33.84931338,,,California,2026-02-22 21:29:36
f8ac7038-8f93-4496-af76-5bb647c3bfb7,Hopped Up Brewing Company,closed,10421 E Sprague Ave,Spokane,Washington,99206-3629,United States,-117.2178526,47.6571208,5094132488,http://www.hoppedupbrew.com,Washington,2026-02-22 21:29:36
1e49519f-16fc-4641-8b9c-1c883cf03d12,HopScratch Farm & Brewery,closed,3501 Cedars Stable Rd,Harwood,Maryland,20776,United States,-76.5952254,38.8957672,4436072627,http://www.hopscratchfarm.com/,Maryland,2026-02-22 21:29:36
a8dc325e-aa85-4eea-bde2-a7a9e89b7bcc,Hopworks Urban Brewery - Vancouver,closed,17707 SE Mill Plain Blvd,Vancouver,Washington,98683-7578,United States,-122.5483264,45.6202601,5032324677,https://www.hopworksbeer.com,Washington,2026-02-22 21:29:36
23a84148-cfda-4d2e-be3f-d2148c1a0f37,Horus Aged Ales,closed,4040 Calle Platino Ste 120,Oceanside,California,92056-5859,United States,-117.295494,33.20716989,3103475685,http://www.horusbeer.com,California,2026-02-22 21:29:36
2482f3b6-eb54-4b4b-af1a-7f5bf6cc188d,House Cat Brewing Company,closed,400 Sagner Ave Ste 100,Frederick,Maryland,21701,United States,-77.4058091,39.4121419,3016050733,https://housecatbrewing.com/,Maryland,2026-02-22 21:29:36
ac178aef-9c40-4f64-b54f-1ebeb09dfb26,Huebert Brewing Co.,closed,421 SW 26th St,Oklahoma City,Oklahoma,73109-6712,United States,-97.52025365,35.4384292,4056346528,,Oklahoma,2026-02-22 21:29:36
973edf5b-0239-43fa-9c3d-640bb92a5225,Hysteria Brewing Company,closed,9570 Berger Rd Ste J,Columbia,Maryland,21046-1559,United States,-76.8443763,39.1730012,4103608319,http://www.hysteriabrewing.com,Maryland,2026-02-22 21:29:36
61d70479-54b0-4c2a-ba13-b8d175ba6493,Illuminati Brewing Company,closed,3950 Hammer Dr Ste 101,Bellingham,Washington,98226-7776,United States,-122.4560056,48.7838573,3602207072,http://www.illuminatibrewing.com,Washington,2026-02-22 21:29:36
a0d63612-aa12-440a-89fe-da702b1bbeec,Inside Passage Brewing Company LLC,closed,,Ketchikan,Alaska,99901-6502,United States,-131.6466819,55.3430696,5133240762,,Alaska,2026-02-22 21:29:36
d3bb9850-31a3-4875-8cd8-41a9486f0738,Iron Fist Brewing Co,closed,1305 Hot Springs Way Ste 101,Vista,California,92081-7876,United States,-117.2388018,33.14569866,7602166500,http://www.ironfistbrewing.com,California,2026-02-22 21:29:36
e9907162-94c6-4d12-983b-fa8ab96c7e5a,JC Brewhouse,closed,,Issaquah,Washington,98029-8902,United States,,,4252816502,,Washington,2026-02-22 21:29:36
89f65ec7-dd3b-4449-a9fe-3cc3b16ce365,Kassik's Brewery,closed,47160 Spruce Haven St,Kenai,Alaska,99611-9677,United States,-151.307721,60.663773,,,Alaska,2026-02-22 21:29:36
2d416c88-05cf-467a-a144-c056c5d8caeb,Keyhole Valley Brewing,closed,,Shelton,Washington,98584,United States,,,,http://www.keyholevalleybrewing.com,Washington,2026-02-22 21:29:36
2d6e2ddc-da91-43d2-87e6-56e50cbde70c,Kilstone Brewing,closed,764 34th St N Unit R,Fargo,North Dakota,58102-3097,United States,,,7018935224,http://www.kilstonebrewing.com,North Dakota,2026-02-22 21:29:36
5c7d9592-68ed-4509-b68c-18f932001ebe,Kirkwood Station Brewing,closed,105 E Jefferson Ave,Kirkwood,Missouri,63122-4025,United States,-90.40608849,38.58234304,3149662739,http://www.kirkwoodstationbrewing.com,Missouri,2026-02-22 21:29:36
5f56a466-73e1-4146-89eb-efaa6db0c27c,Kohola Brewery,closed,910 Honoapiilani Hwy,Lahaina,Hawaii,96761-1507,United States,-156.653963,20.845329,8088683198,http://www.koholabrewery.com,Hawaii,2026-02-22 21:29:36
1eb023fa-2183-4dbb-84a8-bfbc70a8abf2,Labyrinth Brewing Company,closed,,Manchester,Connecticut,06040-5906,United States,,,,http://www.LBC.Beer,Connecticut,2026-02-22 21:29:36
280f45f0-7772-4ce5-aa97-b2c83e815950,Laurelwood Public House and Brewery - NE,closed,14300 NE 145th St,Woodinville,Washington,98072-6950,United States,-122.1460064,47.7328255,4254833232,,Washington,2026-02-22 21:29:36
ca9c8da9-79bf-4f73-96be-ef5922abcd7c,Little Spokane Brewing Company,closed,154 S Madison St Ste 101,Spokane,Washington,99201-4542,United States,,,,http://www.littlespokanebrewingco.com,Washington,2026-02-22 21:29:36
74f90455-1067-4c5c-b216-1c69bafb21f9,"Lompoc Brewing, LLC/ The 5th Quadrant",closed,3901 N Williams Ave Ste B,Portland,Oregon,97227-1465,United States,-122.6675027,45.55345273,5032883996,http://www.newoldlompoc.com/5thquadranthome.html,Oregon,2026-02-22 21:29:36
20a3789b-132b-46ab-9333-76e40f489dd9,Longship Brewery,closed,10320 Camino Santa Fe Ste C,San Diego,California,92121-3103,United States,-117.1714305,32.90417278,8582467875,http://www.LongshipBrewery.com,California,2026-02-22 21:29:36
0c3816c3-3b00-49af-bff5-67dac5faa3b1,Lopez Island Brewing Co,closed,4817 Center Rd,Lopez Island,Washington,98261-8653,United States,,,3604682646,http://www.lopezislandbrewingco.rocks,Washington,2026-02-22 21:29:36
b4a0f525-fac9-48ce-a7c3-86e84327fca6,Lost Canoe Brewing Co,closed,1208 10th St,Snohomish,Washington,98290-2099,United States,-122.096622,47.9241142,3605683984,http://www.facebook.com/lostcanoebrew,Washington,2026-02-22 21:29:36
a901b6b3-3648-4c04-b727-1c6c7f08dd0b,Lost Elm Artisanal Ales,closed,25 West St Unit 4,Stafford Springs,Connecticut,06076-1325,United States,,,,http://www.lostelmbeer.com,Connecticut,2026-02-22 21:29:36
b355c492-9798-4ba6-bb3d-17b3baf27b8b,Mad Science Brewing Company,closed,1619 Buckeystown Pike,Adamstown,Maryland,21710,United States,-77.4484076,39.27751,2404098723,http://www.madsciencebrewing.com,Maryland,2026-02-22 21:29:36
57d8c1a8-2932-4735-88d1-eba02bd05e4e,Mash Brewing Company,closed,122 N George St,Charles Town,West Virginia,25414-1502,United States,-77.86015133,39.28926882,6812521788,http://www.mashbrewingcompany.com,West Virginia,2026-02-22 21:29:36
304126ea-a12e-4685-9e26-be36742f8d64,Matanuska Brewing Company - Downtown Brewpub,closed,535 W 3rd Ave,Anchorage,Alaska,99501,United States,-149.893012,61.219744,9078656995,https://matanuskabrewingcompany.com,Alaska,2026-02-22 21:29:36
3fba9614-8dae-420b-b024-4f0387278a64,Matanuska Brewing Company - Eagle River,closed,11901 Old Glenn Hwy,Eagle River,Alaska,99577,United States,-149.568403,61.328403,9076963000,https://matanuskabrewingcompany.com,Alaska,2026-02-22 21:29:36
3515eba4-8e81-4e9a-924d-a9b03ffe0072,Matanuska Brewing Company - Midtown Brewpub,closed,2830 C St,Anchorage,Alaska,99503,United States,-149.888563,61.195228,9076772531,https://matanuskabrewingcompany.com,Alaska,2026-02-22 21:29:36
452434ec-1c9b-4167-a29c-ccb99ea7df05,Matchstick Brewing Company,closed,,Coeur D Alene,Idaho,83815,United States,,,,http://www.matchstickbrewing.com,Idaho,2026-02-22 21:29:36
70972189-e029-4a8e-ba79-da86b66ba67e,MBF Brewing Co,closed,530 W 7th St Apt 401,Los Angeles,California,90014-2507,United States,-118.2564646,34.04700723,8315217921,http://www.MBFcompany.com,California,2026-02-22 21:29:36
771010b0-2631-49c3-8821-034588bfbc7a,McCoy's Public House,closed,4057 Pennsylvania Ave,Kansas City,Missouri,64111-3021,United States,-94.5911729,39.1002989,8169600866,http://www.mccoyspublichouse.com,Missouri,2026-02-22 21:29:36
7edb5d33-d3af-4dc6-964f-6f90bd7e7908,McHale's Brewhouse,closed,724 Ashland Ter,Chattanooga,Tennessee,37415-3536,United States,-85.27573976,35.11640583,4238772124,http://www.mchalesbrewhouse.com,Tennessee,2026-02-22 21:29:36
03ed67c1-0784-4817-971f-581a95060e7c,Melvin Brewing Bellingham,closed,2416 Meridian St,Bellingham,Washington,98225-2405,United States,-122.485982,48.7621709,3603063285,,Washington,2026-02-22 21:29:36
6f582cf6-b505-4ae4-9e2a-b5b7f1e72d71,Melvin Brewing Co,closed,75 E Pearl Ave,Jackson,Wyoming,83001-8658,United States,-110.7618578,43.47859778,3077330005,,Wyoming,2026-02-22 21:29:36
e1c5d42f-a9b3-4a2e-afe1-d1fa24ff9825,Miami Creek Brewing Company,closed,14226 NW County Road 14001,Drexel,Missouri,64742-9733,United States,,,8168920297,http://www.miamicreek.com,Missouri,2026-02-22 21:29:36
9666ffc8-a890-450e-b3b0-16b5db29a5cc,Midnight Jack Brewing Company,closed,3801 Oceanic Dr Ste 101,Oceanside,California,92056-5850,United States,-117.304737,33.204836,7606379679,http://www.midnightjackbrewing.com,California,2026-02-22 21:29:36
ec4a41db-5ab0-47b2-b6a8-3fbcad469400,Mill City Brew Werks,closed,339 NE Cedar St,Camas,Washington,98607-2142,United States,-122.404172,45.585626,3602104761,http://www.mcbwbeer.com,Washington,2026-02-22 21:29:36
91ed8c2e-960f-4c44-af5b-05e3d550f382,Mill Creek Brewpub,closed,11 S Palouse St,Walla Walla,Washington,99362-1925,United States,-118.3349272,46.06927939,5095222440,http://www.millcreek-brewpub.com,Washington,2026-02-22 21:29:36
aa3d493d-936c-4798-beb1-ea4491de99ac,Millyard Brewing,closed,25 E Otterson St,Nashua,New Hampshire,03060-3941,United States,-71.45988189,42.7544214,6035055079,http://www.millyardbrewery.com,New Hampshire,2026-02-22 21:29:36
0f66c4e9-7284-4ffa-ad98-7d20ad393412,Mishap! Brewing Company,closed,48 S Main St,Buffalo,Wyoming,82834-1823,United States,-106.6985012,44.34570009,3076205688,http://www.mishapbrewing.com,Wyoming,2026-02-22 21:29:36
5fd90c67-116f-4826-ae88-83b3a5ecd603,Moccasin Bend Brewing Co,closed,3210 Broad St # B,Chattanooga,Tennessee,37408-3059,United States,,,4238216392,http://www.bendbrewingbeer.com,Tennessee,2026-02-22 21:29:36
11c1cf1f-22e3-429d-8cfb-ebb84b90b6f9,Monadnock Brewing Company LLC,closed,,Langdon,New Hampshire,03602-8604,United States,,,6033136317,http://www.monadnockbrewing.com,New Hampshire,2026-02-22 21:29:36
e1408cf3-3932-4ca7-bbfa-4f5fda95ade3,Moonlight Meadery/Hidden Moon Brewing,closed,23 Londonderry Rd Unit 17,Londonderry,New Hampshire,03053-3314,United States,,,6032162162,http://www.moonlightmeadery.com,New Hampshire,2026-02-22 21:29:36
65afa778-c70a-4caf-9947-1f15d4b4135f,MT Head Brewing Co,closed,27307 159th Ave E,Graham,Washington,98338-5608,United States,,,2532088999,http://www.mtheadbrewingco.com,Washington,2026-02-22 21:29:36
85d7d8c6-51ec-402b-9099-f5bcca019965,Mt Index Brewery,closed,49315 State Road 2 Ste B,index,Washington,98256,United States,,,3607936584,https://www.facebook.com/mt.index.brewery.and.distillery,Washington,2026-02-22 21:29:36
4d7b67c5-34a4-4586-8f19-e3c8447cd601,Nebraska Brewing Co - Papillion,closed,7474 Towne Center Pkwy Ste 101 Shadow Lake Towne Center,Papillion,Nebraska,68046-4805,United States,,,4029347100,http://www.nebraskabrewingco.com,Nebraska,2026-02-22 21:29:36
e1cf02fc-0380-4c80-89e4-0e52946d9338,New American Brewing Company,closed,1631 SW Main St Ste 105,Ankeny,Iowa,50023-7254,United States,-93.618309,41.712502,5152505648,http://www.newamericanbeer.com,Iowa,2026-02-22 21:29:36
5cd23923-67b2-4443-b792-0f24872e6467,Nine Yards Brewing,closed,7324 NE 175th St Ste A,Kenmore,Washington,98028-2500,United States,-122.2422906,47.75713837,2066932333,http://www.nineyardsbrewing.com,Washington,2026-02-22 21:29:36
8acc8ce7-11c0-43b3-913d-34e0830e03cf,Nisqually Valley Brewing,closed,704 W Yelm Ave,Yelm,Washington,98597-7676,United States,-122.6146521,46.94649437,4252328191,,Washington,2026-02-22 21:29:36
ab6833ed-c009-48fc-9c28-66b346f3a66d,No Worries Brewing Company,closed,2520 State St,Hamden,Connecticut,06517-3004,United States,,,2036916662,http://www.noworriesbeer.com,Connecticut,2026-02-22 21:29:36
2be1334f-d077-4164-807b-33d967296185,Northwest Brewing Company,closed,1091 Valentine Ave SE,Pacific,Washington,98047-2127,United States,-122.2488484,47.2501336,2539875680,http://www.nwbrewingcompany.com,Washington,2026-02-22 21:29:36
dab6bfc2-f4ba-4545-b06d-06d9d429f4d6,Nosdunk Brewing Company,closed,,Walla Walla,Washington,99362-9311,United States,,,5095408784,http://www.nosdunkbrewing.com,Washington,2026-02-22 21:29:36
1dc3e29e-702f-42df-9561-aead46dce8f3,Old Ivy Brewery and Taproom,closed,108 W Evergreen Blvd Ste A,Vancouver,Washington,98660-3124,United States,,,3609931827,http://www.oldivybrewery.com,Washington,2026-02-22 21:29:36
ee77f852-eeaf-4166-ac21-72afe9810545,Old Majestic Brewing Company,closed,656 St Louis St,Mobile,Alabama,36602-1823,United States,-88.0430541,30.6943566,2514347387,,Alabama,2026-02-22 21:29:36
ebc2f1b3-852f-4e01-b412-09a669cd0c7f,Old Rail Brewing Co,closed,639 Girod St,Mandeville,Louisiana,70448-5205,United States,-90.06386106,30.35985466,9856121828,http://www.oldrailbrewing.com,Louisiana,2026-02-22 21:29:36
43e3961c-245d-448b-9745-6be68d5bd105,Old Redwood Brewing Co,closed,9000 Windsor Rd # A,Windsor,California,95492-9701,United States,-122.8166482,38.5475452,7076577624,http://www.oldredwoodbrewing.com,California,2026-02-22 21:29:36
379400de-0839-4f1e-94f4-b34d888e0f50,Olde Burnside Brewing Co.,closed,776 Tolland St,East Hartford,Connecticut,06108-2727,United States,-72.60022238,41.7850567,8605282200,http://www.oldeburnsidebrewing.com,Connecticut,2026-02-22 21:29:36
1abb8651-92a8-4388-89ad-0c62011de017,Olde Main Brewing Co & Restaurant,closed,316 Main St,Ames,Iowa,50010,United States,-93.61410043,42.02503227,5152320553,http://www.oldemainbrewing.com/,Iowa,2026-02-22 21:29:36
d3794681-04d5-428e-91b4-c700d35e1eef,One Brewing / Harmony Meadows Center,closed,4848 Green Ave Ste B,Manson,Washington,98831-9404,United States,,,5098882344,http://www.harmonymeadowscenter.com,Washington,2026-02-22 21:29:36
654be923-513c-48dc-ac4b-d2a422c24a35,Optimism Brewing Company,closed,1158 Broadway,Seattle,Washington,98122-3822,United States,-122.3205219731,47.612922926987,2062289227,http://www.optimismbrewing.com,Washington,2026-02-22 21:29:36
e9c56fbd-e001-470f-88b6-29df8e0573c9,Orlison Brewing Company,closed,12921 West 17th Ave,Airway Heights,Washington,99001,United States,-117.5924443,47.6403069,5093896253,http://www.orlisonbrewing.com,Washington,2026-02-22 21:29:36
74f4a6b0-9be8-401a-b320-7ad33254f2c3,Out.Haus Ales,closed,442 1st Nh Tpke Unit 2,Northwood,New Hampshire,03261-3445,United States,,,6035482151,http://www.outhausales.com,New Hampshire,2026-02-22 21:29:36
8280e47c-4aed-4aa0-b20f-b3217d7478be,Outer Planet Craft Brewing,closed,1812 12th Ave,Seattle,Washington,98122-8420,United States,-122.3167381,47.6180009,2067637000,http://www.outerplanetbrewing.com,Washington,2026-02-22 21:29:36
d0220f66-917e-4055-99fd-6bd26b364b2a,Oversoul Brewing Company,closed,4161 Helena Rd,Helena,Alabama,35080-3258,United States,-86.843554642329,33.296826421855,2059996444,,Alabama,2026-02-22 21:29:36
e80e1cb2-de57-4bc2-8330-94ea13ec1c0c,Ozarks Brewing Company,closed,1872 S. U.S. Hwy. 63,West Plains,Missouri,65775,United States,,,4172741507,http://www.ozarksbrewing.com,Missouri,2026-02-22 21:29:36
035386c7-55dd-4d17-acec-2270d759a2ee,Pacific Brew Lab,closed,111 Industrial Way,Belmont,California,94002-8202,United States,-122.2659984,37.52175007,4159377843,http://www.pacbrewlab.com,California,2026-02-22 21:29:36
437725f5-e51b-407f-be9b-1fed4e71cc7c,Park City Brewery,closed,2720 Rasmussen Rd Ste A1,Park City,Utah,84098-5751,United States,,,4352008906,http://www.parkcitybrewery.com,Utah,2026-02-22 21:29:36
ec411fb6-0238-45ae-a312-8c3d6133d140,Peak View Brewing Company,closed,9672 E Arapahoe Rd,Greenwood Village,Colorado,80112,United States,,,,,Colorado,2026-02-22 21:29:36
fc70ca5f-24fb-4665-87b9-b377f9cf996f,Pentagonal Brewing Co,closed,115 N Imperial Ave Suite A,Imperial,California,92251-1250,United States,-115.4192538,32.80049306,7605451045,http://www.facebook.com/Pentagonalbrewingcompany/,California,2026-02-22 21:29:36
50368316-c57b-44d3-bfaa-b4d1c4cc9370,Pilothouse Brewing Company,closed,4233 S Buckley Rd,Aurora,Colorado,80013-2947,United States,-104.7915508,39.63993222,3039944971,http://www.pilothousebrewco.com,Colorado,2026-02-22 21:29:36
e61d8398-eb60-49f0-a3e2-92534c5bc02a,Pipe Dream Brewing,closed,49 Harvey Rd Unit 4,Londonderry,New Hampshire,03053-7442,United States,,,6034040751,http://www.pipedreambrewingnh.com,New Hampshire,2026-02-22 21:29:36
90218961-385e-459f-b286-a1560ee423a8,Polyculture Brewing Company,closed,3 Camel Hump Rd,Croydon,New Hampshire,03773,United States,-72.18685389,43.41054689,7735471994,http://www.polyculturebrewing.com,New Hampshire,2026-02-22 21:29:36
1d661553-8f38-472b-b4a4-bc83bd94db0c,Postmark Brewing,closed,55 Dunlevy Ave.,Vancouver,British Columbia,V6A 3A3,Canada,-123.095659,49.2843192,,,British Columbia,2026-02-22 21:29:36
64ef6c86-1c4e-41aa-983f-3a380b552973,Puyallup River Brewing Co,closed,,Puyallup,Washington,98375-6923,United States,,,2535908219,http://www.puyallupriverbrewing.com,Washington,2026-02-22 21:29:36
9ea909e7-6392-4241-a9a3-b5a11932fb7a,QUAKE! Brewing Company,closed,1540 N Shoreline Dr,Wasilla,Alaska,99654,United States,-149.340342,61.596646,4048340997,http://www.quakebrewingcompany.com,Alaska,2026-02-22 21:29:36
8d25dc57-b983-42f7-9829-9db8481ac10e,RAM Restaurant and Brewery- Northgate,closed,401 NE Northgate Way Spc 1102,Seattle,Washington,98125-8538,United States,-122.32671368844,47.707607904203,2063648000,http://www.theram.com,Washington,2026-02-22 21:29:36
42e70445-725e-464b-9ab5-68ae743cc256,RARE by Grist Brewing,closed,9535 Park Meadows Dr Ste F,Lone Tree,Colorado,80124,United States,,,3037289394,,Colorado,2026-02-22 21:29:36
38944523-1c18-43bd-85fe-176d06f9dd5b,Red Hills Brewing Co,closed,2823 Central Ave Ste 107,Birmingham,Alabama,35209-2581,United States,-86.794369874784,33.479504543447,2055822897,http://www.redhillsbrew.com,Alabama,2026-02-22 21:29:36
cd9739f8-8782-4827-91c8-fcfefdc212fb,Redhook - Cataqua Public House,closed,35 Corporate Dr,Portsmouth,New Hampshire,03801,United States,-70.80233269,43.08582951,6034308600,http://www.redhook.com,New Hampshire,2026-02-22 21:29:36
a8a965c8-b4d8-4699-b418-ad6cf8d9133e,Reel Brew Co,closed,7037 Laurel Canyon Boulevard,Los Angeles,California,91605,United States,-118.3973933,34.19896605,,,California,2026-02-22 21:29:36
aede08a5-8286-46f7-b426-90a21ba259cb,River Bend Brewing,closed,113 River Bend Rd,Hailey,Idaho,83333-,United States,,,2087888087,,Idaho,2026-02-22 21:29:36
faf0e458-0f8c-4ad0-990a-e803c574a1e2,River of No Return Brewing Co,closed,810 S Hwy 93,Challis,Idaho,83226,United States,-114.224139,44.50008,2088797667,,Idaho,2026-02-22 21:29:36
d2f56aea-e533-4819-872d-f5ae1f7289f6,RiverBend Brewing Pub,closed,2650 NE Division St,Bend,Oregon,97703-3569,United States,-121.3051834,44.0760099,5415507550,http://www.riverbendbrewing.com,Oregon,2026-02-22 21:29:36
147c0123-232a-448a-b689-3ae78d34d66f,Rock & Run Brewery,closed,110 E Kansas St,Liberty,Missouri,64068-2374,United States,-94.4190247,39.2461993,8164152337,http://www.rockandrunbrewery.com,Missouri,2026-02-22 21:29:36
7ea9525f-94f5-4e6e-99f9-70b9a35659e0,Rocket Republic Brewing Company,closed,289 Production Ave,Madison,Alabama,35758-8991,United States,-86.77401733,34.6728014,2563254677,http://www.rocketrepublicbrewing.com,Alabama,2026-02-22 21:29:36
05f75b27-914a-45e3-9e99-883ed97572bd,Rocky Hill Brewing,closed,20147 Avenue 306,Exeter,California,93221-9763,United States,-119.1223301,36.34389838,5595924594,,California,2026-02-22 21:29:36
94a076ed-9499-402b-bc89-14635349322e,Rogue Ales Issaquah Brewhouse,closed,35 W Sunset Way Ste C,Issaquah,Washington,98027-3843,United States,-122.03724000194,47.530207242057,4255571911,http://www.rogue.com,Washington,2026-02-22 21:29:36
72e76612-589c-4844-a3c6-7189bcdad638,Royale Brewing Company,closed,55 NE Farragut St Ste 6,Portland,Oregon,97211-2245,United States,-122.6656145,45.57960681,9712795587,http://www.royalebeer.com,Oregon,2026-02-22 21:29:36
2545723c-f71f-454c-847a-d4c524132e3a,Rugged Coast Brewing,closed,817 Piner Ave,Santa Rosa,California,95403,United States,-122.7334692,38.47262977,4156027272,http://www.ruggedcoastbrewing.com,California,2026-02-22 21:29:36
a0cb0659-7da0-4ad1-92bb-36e5a2760408,Salty Nut Brewery,closed,2406 Clinton Ave W,Huntsville,Alabama,35805-3014,United States,-86.5932014,34.7277523,2567138877,http://www.saltynutbrewery.com,Alabama,2026-02-22 21:29:36
4c2264d2-8a00-45a5-8b96-32afe58d4901,San Marcos Brewery and Grill,closed,1080 W San Marcos Blvd Ste 180,San Marcos,California,92078-4099,United States,-117.190881,33.13459973,7604710050,,California,2026-02-22 21:29:36
278660c9-4773-468f-aa9f-19216b762d37,Sanctum Brewing Co,closed,560 E Commercial St Ste 21,Pomona,California,91767-5649,United States,-117.7405025,34.05970244,9093450253,http://www.sanctumbrewing.com,California,2026-02-22 21:29:36
c9e0d728-076b-4867-a9d9-a2f20ff24e25,Santa Cruz Aleworks,closed,150 Dubois St Ste E,Santa Cruz,California,95060-2114,United States,-122.0385924,36.98680136,8314251182,http://www.santacruzaleworks.com,California,2026-02-22 21:29:36
05f35e24-25fa-4cd8-9701-4b1ef9d6bc8b,Santa Maria Brewing Co,closed,1451 Fairway Dr,Santa Maria,California,93455-1404,United States,-120.4628795,34.91399145,,http://www.santamariabrewingco.com,California,2026-02-22 21:29:36
2e2572a7-488b-410b-a5fd-63ec7988306f,Scatter Creek Brewing,closed,237 Sussex Ave W,Tenino,Washington,98589-9360,United States,,,3602649463,http://www.facebook.com/ScatterCreekBrewing/,Washington,2026-02-22 21:29:36
a66c4f44-cf09-494e-90db-e427ef72d578,Schubros Brewery,closed,12893 Alcosta Blvd Ste N,San Ramon,California,94583-1305,United States,-121.9631014,37.7790836,9253270700,http://www.schubros.com,California,2026-02-22 21:29:36
068a0a40-a868-4525-9b1f-c895586877aa,Scorpion Brewing,closed,"929 Skinners Turn Rd, Suite 100",Owings,Maryland,20736,United States,-76.6185717,38.6830448,7033072400,http://www.scorpionbrewing.com,Maryland,2026-02-22 21:29:36
ba05f051-e0b9-4d33-94a8-a578652175b7,Serda Brewing Company,closed,600 Government St,Mobile,Alabama,36602-1720,United States,-88.04938713,30.6879563,2519299349,http://www.serdabrewing.com,Alabama,2026-02-22 21:29:36
4423eef2-22e4-43f8-945b-37dfe91ae63d,Seven Brides Brewery,closed,990 North First Street,Silverton,Oregon,97381,United States,-122.7845824,45.01410457,5038744677,http://www.sevenbridesbrewing.com,Oregon,2026-02-22 21:29:36
add5d596-7b50-45f2-8b7b-0152e638124d,Shanty Irish Brewing Company/Rooney's Irish Pub,closed,241 S Broadway St,Santa Maria,California,93455-4657,United States,-120.4359806,34.95220575,8059343777,http://www.rooneysirishpub.net,California,2026-02-22 21:29:36
a4b896e5-db07-4193-a28b-1ece5ce84e58,Shebeen Brewing Company,closed,1 Wolcott Rd,Wolcott,Connecticut,06716-2611,United States,-73.000062,41.575855,2035142336,http://www.shebeenbrewing.com,Connecticut,2026-02-22 21:29:36
471d0089-67db-448f-844f-7821e66d9af2,Shire Station Brewing Company,closed,12913 17th Ave,Lemoore,California,93245-9485,United States,-119.7617855,36.28513704,5592502797,http://www.shirestation.com,California,2026-02-22 21:29:36
df710d4d-63ff-4fec-82e6-42b9d2f0f107,Sigma Ingredients LLC,closed,,Salisbury,Maryland,21801-6739,United States,,,4104308903,http://www.sigmaingredients.com,Maryland,2026-02-22 21:29:36
6e0c17e2-fb3c-4621-bfc8-55ccb3134cea,Skagit River Brewery,closed,404 S 3rd St,Mount Vernon,Washington,98273-3824,United States,-122.3354271,48.4193151,3603362884,http://www.skagitbrew.com,Washington,2026-02-22 21:29:36
1f447603-4e1a-4479-995d-fb1c7be6e7d7,Slag Heap Brewing Company,closed,227 Main St,Trussville,Alabama,35173-1422,United States,-86.609809757671,33.619181020234,2055371015,http://www.slagheap.co,Alabama,2026-02-22 21:29:36
4ef9f5b8-3d53-4339-84e6-76f0ba810e27,Southern Craft Brewing Company,closed,14141 Airline Hwy Ste 4J,Baton Rouge,Louisiana,70817-6259,United States,,,2256638119,http://www.socraftbeer.com,Louisiana,2026-02-22 21:29:36
e4700c25-7368-4880-90c0-3b3e27faf9d6,Squam Brewing Co,closed,118 Perch Pond Rd,Holderness,New Hampshire,03245-5234,United States,-71.589971,43.78514,6032369705,http://www.squambrewing.com,New Hampshire,2026-02-22 21:29:36
eee29813-8cdf-462b-8f05-28fba55de0a2,SR 76 Beerworks,closed,777 HARRAHS RINCON WAY,Valley Center,California,92082,United States,-116.9565022,33.26707487,7607513100,http://www.SR76beerworks.com,California,2026-02-22 21:29:36
2cffa385-76b3-4165-b9fc-c04afe0d0111,St. Florian's Brewery,closed,7704 Bell Rd Ste A,Windsor,California,95492-8518,United States,-122.8033977,38.53735645,7078382739,http://www.stfloriansbrewery.com,California,2026-02-22 21:29:36
91420d9d-1087-4602-b078-780f33fa6f05,Stash Brewing Co,closed,3782 Winding Creek Ln,Garden Valley,California,95633-9773,United States,-120.8784951,38.8402775,4156804181,http://stashbrewingco.com,California,2026-02-22 21:29:36
1f1449bb-4f21-4fa7-b542-625e13ad02d5,State Brewing Co LLC,closed,1237 W 134th St Ste 2,Gardena,California,90247-1962,United States,-118.2978732,33.91111274,3108198179,http://www.statebrewingco.com,California,2026-02-22 21:29:36
e4fcbf74-5b11-4e1b-8e90-854a041b5bda,Steady Habit Brewing Company,closed,95 Bridge Rd,Haddam,Connecticut,06438-1354,United States,,,8607775041,,Connecticut,2026-02-22 21:29:36
7f3d278a-75d0-4c02-93d3-1cda51d9217d,Steel Toad Brewery,closed,97 East 2nd,Vancouver,British Columbia,V5T 1B3,Canada,-123.1032707,49.2693876,,,British Columbia,2026-02-22 21:29:36
5d48eb13-35d2-4724-be47-4095fd49426a,Stewbum,closed,96 N King St,Honolulu,Hawaii,96817-5109,United States,-157.8634762,21.31171513,8086646684,http://www.stewbumandstonewall.com,Hawaii,2026-02-22 21:29:36
47b9435c-a74e-47ed-887d-6c0830648d6d,Stillwater Artisanal Ales,closed,720 S Conkling St,Baltimore,Maryland,21224-4301,United States,-76.56726435,39.28408355,4436685255,https://www.stillwater-artisanal.com,Maryland,2026-02-22 21:29:36
273491b7-30e3-4ee4-ac6e-f1cfb9194b93,Stone Brewing Napa,closed,920-930 Third Street,Napa,California,94559,United States,-122.2829683,38.29896704,7602947899,,California,2026-02-22 21:29:36
b1b259ea-a03c-4836-80eb-c222770dacf3,Stony Creek Brewery,closed,5 Indian Neck Ave,Branford,Connecticut,06405-4615,United States,-72.81330366,41.27475355,2034334545,http://www.stonycreekbeer.com,Connecticut,2026-02-22 21:29:36
667f8870-c7eb-4b5d-8d80-3fa37f7e1de7,Stony Creek Brewery At Foxwoods Resort Casino,closed,,Mashantucket,Connecticut,06338-3830,United States,,,8603123000,,Connecticut,2026-02-22 21:29:36
36a608ec-8a91-4964-ba78-8b39ebbf4321,Stubborn Beauty Brewing,closed,180 Johnson St,Middletown,Connecticut,06457-2247,United States,-72.65990742,41.57233253,8608747459,http://www.stubbornbeauty.com,Connecticut,2026-02-22 21:29:36
e4bb4eb0-1d37-488b-b2d0-ced76345059d,Sublime Brewing Company,closed,5 Route 25,Plymouth,New Hampshire,03264-3141,United States,-71.776669,43.781015,6032366850,,New Hampshire,2026-02-22 21:29:36
5034932b-6a76-4aa1-b929-76eedea825e1,Sumerian Brewing Company,closed,15510 Woodinville Redmond Rd NE Ste E110,Woodinville,Washington,98072-6979,United States,,,4254865330,http://www.sumerianbrewingco.com,Washington,2026-02-22 21:29:36
c41ca19d-93e3-4489-9bec-cc59208fa451,Surf Brewery,closed,4561 Market St Ste A,Ventura,California,93003-6483,United States,-119.2319648,34.25776561,8056442739,http://www.surfbrewery.com,California,2026-02-22 21:29:36
b00dec17-2def-4dc8-bafb-ec0493d81054,Tahoe Mountain Brewing Company,closed,10990 Industrial Way Ste B104,Truckee,California,96161-0258,United States,-120.189448,39.32653386,,http://tahoebrewing.com/,California,2026-02-22 21:29:36
834f90bd-7ba4-46f3-ba85-db507478f531,Tannery Bend Beerworks,closed,101 South Coombs Street Suite X,Napa,California,94559,United States,-122.287271,38.28513283,7076815774,http://www.tannerybendbeerworks.com,California,2026-02-22 21:29:36
6f4276b5-6c06-460f-998d-0f3251a0b27c,Tap It Brewing Co,closed,675 Clarion Ct Ste 1,San Luis Obispo,California,93401-8178,United States,-120.6459687,35.24427999,8055457702,http://www.tapitbrewing.com,California,2026-02-22 21:29:36
c9361320-efa2-4881-9ca3-69e81e142870,Taylor's Crossing Brewing,closed,1025 Marine Drive,North Vancouver,British Columbia,V7P 1S6,Canada,-123.1025507,49.3236808,,,British Columbia,2026-02-22 21:29:36
fffae80b-1654-4d69-95ad-7a349e246db0,"Terminal Brewhouse, The",closed,1464 Market St,Chattanooga,Tennessee,37402-4448,United States,-85.30723077,35.03644493,4237528090,http://www.terminalbrewhouse.com,Tennessee,2026-02-22 21:29:36
92be3248-5233-496b-92a0-8cce434c61da,The Bernard's Express Brewery,closed,4667 East Vernon Road,Vernon,British Columbia,V1B 3J2,Canada,-119.2228203,50.2798201,,https://www.thebxpress.com,British Columbia,2026-02-22 21:29:36
85bbe1ad-ae05-4487-919e-59a15370ffa9,The Best Of Hands Barrelhouse,closed,7500 35th Ave SW,Seattle,Washington,98126-3228,United States,-122.3763338731,47.535586195503,2067081166,http://www.bestofhandsbarrelhouse.com,Washington,2026-02-22 21:29:36
204d61f5-4b32-4172-a8b3-5aabed917ea2,The Buzz Meadery,closed,"9040 Worcester Hwy, Unit D",Berlin,Maryland,21811,United States,-75.2199426,38.3240091,4103059068,https://www.thebuzzmeadery.com/,Maryland,2026-02-22 21:29:36
91557e74-fcdb-496c-b10c-43a488ae4e11,The Neighborhood Beer Co.,closed,156 Epping Rd,Exeter,New Hampshire,03833-4521,United States,-70.97431918,42.99880009,6035126228,http://nhbeerco.com,New Hampshire,2026-02-22 21:29:36
7f7e73b4-7a05-4f3b-937a-b1dc33e43795,The Portsmouth Brewery,closed,56 Market St,Portsmouth,New Hampshire,03801-3750,United States,-70.7576875,43.0780072,6034311115,http://www.portsmouthbrewery.com,New Hampshire,2026-02-22 21:29:36
c19087b5-c47d-4db7-ad1d-72a6b9d518d4,The Public Option,closed,1601 Rhode Island Ave NE,Washington,District of Columbia,20018-1841,United States,-76.9817377,38.926148,2023975129,http://www.thepublicoptiondc.com,District of Columbia,2026-02-22 21:29:36
864ffc76-4334-4f8e-baa2-42c2d3a6605c,The Railyard Brewing Co,closed,12 W Jefferson St Ste 100,Montgomery,Alabama,36104-2573,United States,-86.310088945992,32.381204442605,3342620080,http://www.railyardbrewingcompany.com,Alabama,2026-02-22 21:29:36
566c3a39-7a96-460d-b55a-89ea82f6ca34,Thimble Island Brewery,closed,16 Business Park Dr,Branford,Connecticut,06405-2924,United States,-72.77202768,41.29695786,2032082827,http://www.thimbleislandbrewery.com,Connecticut,2026-02-22 21:29:36
34e7f879-d1fe-48a0-afac-f5c4408584da,Three Ranges Brewing Co.,closed,1160 5th Avenue,Valemount,British Columbia,V0E 2Z0,Canada,-119.2633,52.8324,,http://threeranges.com/,British Columbia,2026-02-22 21:29:36
592fd7bf-bd5e-4c40-a951-0a4af1c06727,Timeless Pints Brewing Co,closed,3671 Industry Ave Ste C1,Lakewood,California,90712-4155,United States,-118.1659197,33.8236814,5624900099,http://www.timelesspints.com,California,2026-02-22 21:29:36
93662afa-d0a7-48c1-a7b8-a81ca37c5594,Toasted Barrel Brewery,closed,,salt lake city,Utah,84103,United States,-111.903198,40.782833,8016576942,http://www.toastedbarrelbrewery.com,Utah,2026-02-22 21:29:36
82f645a5-0677-4e18-af76-30c25e84ad88,Towne Park Brew Co,closed,19191 Lawrence Cyn,Silverado,California,92676-9731,United States,-117.6243323,33.68926191,9496473562,http://www.towneparkbrew.com,California,2026-02-22 21:29:36
9ac4c95b-803b-4ef6-aff7-13453b91f969,Trail Beer Refinery Brewery,closed,1299 Bay Ave,Trail,British Columbia,V1R 4A5,Canada,-117.7080021,49.0965736,,,British Columbia,2026-02-22 21:29:36
64e8e735-2d18-48d8-8dbd-f6729513da71,Trailhead Brewing Co,closed,921 S Riverside Dr,Saint Charles,Missouri,63301-3489,United States,-90.48424843,38.77419057,6369462739,http://www.trailheadbrewing.com,Missouri,2026-02-22 21:29:36
ed15a267-a12c-4343-a94f-46ee2488c42a,Tuppers Hop Pocket Ale,closed,6404 Redwing Rd,Bethesda,Maryland,20817-5920,United States,-77.1298422,38.9734413,3012292027,http://www.tuppersbeers.com,Maryland,2026-02-22 21:29:36
f1f61792-e88e-4d36-8892-fa9ddc7499f8,"Tusculum Farm Enterprises, LLC",closed,4601 Damascus Rd,Gaithersburg,Maryland,20882,United States,-77.0916751,39.2363074,7407070700,https://tusculumfarm.com/,Maryland,2026-02-22 21:29:36
0b083637-2a0d-46e0-b0be-f86aa755a92e,Twelve String Brewing Co,closed,11616 E Montgomery Dr Ste 26,Spokane,Washington,99206-6608,United States,-117.24896931727,47.677533941406,5092413697,http://www.twelvestringbrewingco.com,Washington,2026-02-22 21:29:36
a063bcc2-6017-4131-b6b5-e34ddedf077a,Twisted Cypress Brewing Company,closed,1897 Sam Rittenberg Blvd,Charleston,South Carolina,29407-4870,United States,-80.0219063,32.79905412,8436081899,http://www.twistedcypressbrewingco.com,South Carolina,2026-02-22 21:29:36
57bf2d17-e7a8-4ec4-8890-4a361a7b2dc7,Two Story Chimney Ciderworks,closed,7115 Damascus Rd,Gaithersburg,Maryland,20882,United States,-77.1444596,39.2573672,2407455390,https://twostorychimney.com/,Maryland,2026-02-22 21:29:36
45e1a706-1fb7-4a98-8007-817f9ffce1c8,Uncommon Brewers,closed,303 Potrero St Ste 40H,Santa Cruz,California,95060-2778,United States,-122.0310356,36.98208037,8316216270,http://www.uncommonbrewers.com,California,2026-02-22 21:29:36
89f7f1eb-3dbd-40d1-b530-aad3166b8ef0,Unleashed Brewing Company,closed,,Stonington,Connecticut,06378-1628,United States,,,,http://www.unleashedbrewing.com,Connecticut,2026-02-22 21:29:36
6cfe7bce-ee7d-4fa4-ab54-1584566f9ac2,Unsung Brewing Company,closed,1332 Bell Ave Ste 2D,Tustin,California,92780-6439,United States,-117.8385795,33.71474692,,,California,2026-02-22 21:29:36
007923ef-19cb-4433-be8e-355ff64b34e7,Veracious Brewing Company,closed,246 Main St,Monroe,Connecticut,06468-1171,United States,,,2038805670,http://www.veraciousbrewing.com,Connecticut,2026-02-22 21:29:36
d3b92246-604a-45f4-bbe0-bd02451924b8,Vessel Ales & Taphouse,closed,19405 144th Ave NE Bldg D,Woodinville,Washington,98072-6485,United States,,,2066295024,http://www.vesselwines.com,Washington,2026-02-22 21:29:36
bc0330df-68a5-497a-9a11-9ebb97352733,Von Scheidt Brewing Co,closed,157 2nd Ave W,Twin Falls,Idaho,83301-6015,United States,-114.471756,42.55561943,2083299608,http://www.vonscheidtbrewing.com,Idaho,2026-02-22 21:29:36
f4234744-1369-4cb2-8680-bef8b058c5bc,Waddell's Brewing Co.,closed,6501 N Cedar Rd Ste 1,Spokane,Washington,99208-4571,United States,,,5093217818,http://www.waddellsbrewery.com,Washington,2026-02-22 21:29:36
7e06716a-cf35-431f-8097-611364da644c,Waikiki Brewing Company - Kaka'ako,closed,2155 Kalakaua Ave,Honolulu,Hawaii,96815-2351,United States,-157.85590325582,21.299343632215,,https://www.waikikibrewing.com/location/waikiki-brewing-kaka-ako,Hawaii,2026-02-22 21:29:36
4f20644c-efbe-4c66-932e-712507f9e99e,"Welpman Springs Brewing Company, LLC.",closed,517 Hatchery Rd,Stover,Missouri,65078-1132,United States,,,5733772343,http://www.welpmanspringsbrewing.weebly.com,Missouri,2026-02-22 21:29:36
e0c4bb78-9720-4af7-8188-a5b132646ede,West LA Beer Company,closed,647 West Swanzey Rd,Swanzey,New Hampshire,03446-3310,United States,-72.33262282,42.87499023,6039030724,http://westlabeercompany.com/,New Hampshire,2026-02-22 21:29:36
ca4dec0f-a148-492a-80c5-b78aa252b288,Wheeling Brewing Co,closed,2247 Market St,Wheeling,West Virginia,26003-3839,United States,-80.72429082,40.05925145,3049058757,http://www.wheelingbrewing.com,West Virginia,2026-02-22 21:29:36
e3addd66-8750-4844-82de-88710adf9b49,White Birch Brewing,closed,1339 Hooksett Rd,Hooksett,New Hampshire,03106-1847,United States,-71.44114457,43.05712534,6032448593,http://www.whitebirchbrewing.com,New Hampshire,2026-02-22 21:29:36
ade8b2dc-ea30-4423-bcea-75dad5c5c4df,Wiens Brewing Co,closed,27941 Diaz Rd Ste A,Temecula,California,92590-3484,United States,-117.1600299,33.50551982,9516949892,http://www.weinsbrewing.com,California,2026-02-22 21:29:36
0751ebe6-8350-44ca-92c0-e06822ba72e4,Wild Water,closed,9995 Winghaven Blvd,O Fallon,Missouri,63368-3623,United States,,,6362650751,,Missouri,2026-02-22 21:29:36
8fe80c7b-3dcc-4231-bd5c-e1a557480564,William K Busch Brewing Co.,closed,8047 Litzsinger Rd,Saint Louis,Missouri,63144-2505,United States,-90.33733442,38.61687711,3149327911,http://www.enjoykraftig.com,Missouri,2026-02-22 21:29:36
a9fe8387-5dd3-48b5-87a3-79eb9e64b7b4,Wingman Brewers,closed,509 1/2 Puyallup Ave,Tacoma,Washington,98421-1318,United States,-122.4291133,47.24075878,2532565240,http://www.wingmanbrewers.com,Washington,2026-02-22 21:29:36
3cf6f95a-0aae-4bfa-8904-f47aeb945414,Woodman's Brewery,closed,195 Peaked Hill Rd,Bristol,New Hampshire,03222-3331,United States,-71.70955815,43.60711645,6037443669,http://www.facebook.com/woodmansbrewery,New Hampshire,2026-02-22 21:29:36
52dc80a4-9171-4589-9257-60f04cece644,Working Man Brewing Co,closed,5542 Brisa St Ste F,Livermore,California,94550-2524,United States,-121.7251276,37.69755354,9252699622,http://www.workingmanbrewing.com,California,2026-02-22 21:29:36
7d77be76-ec7f-416d-a4c0-d9db268fe2dc,Wyoming Territory Brewing / Eric Bischoff Family Brewing,closed,,Cody,Wyoming,82414,United States,,,,http://www.buffalobillcodybeer.com,Wyoming,2026-02-22 21:29:36
2d5d6ee4-8f8d-4235-9015-75d2df768cfa,Ximix Craft Exploration,closed,13723 1/2 Harvard Pl,Gardena,California,90249-2527,United States,-118.3076153,33.90628796,7603332351,http://www.ximixcraft.com,California,2026-02-22 21:29:36
39070e4c-ae87-4d72-af3e-62ec19c35039,Young Buck Brewing,closed,154 S Madison St,Spokane,Washington,99201-4542,United States,-117.4281651,47.655248,5092703306,http://www.youngbuckbrewing.com,Washington,2026-02-22 21:29:36
